{"type": "Feature","bbox": [125.6492,-8.6877,125.67,-8.6554],"geometry": {"type": "MultiPolygon","coordinates": [[[[125.6623,-8.6877,854.3813],[125.6658,-8.682,1023.6128],[125.67,-8.6586,852.1245],[125.662,-8.6554,896.7433],[125.6597,-8.6602,947.4563],[125.654,-8.661,1020.7501],[125.6519,-8.6628,1042.9297],[125.6492,-8.6705,1198.9335],[125.6502,-8.6809,947.2166],[125.6623,-8.6877,854.3813]]]]}
,"properties": {"GID_3": "TLS.1.4.7_1","GID_0": "TLS","country": "Timor-Leste","GID_1": "TLS.1_1","province": "Aileu","NL_NAME_1": "NA","GID_2": "TLS.1.4_1","county": "Remexio","NL_NAME_2": "NA","city": "Maumeta","VARNAME_3": "MauMeta","NL_NAME_3": "NA","TYPE_3": "Suco","ENGTYPE_3": "Community","CC_3": "NA","HASC_3": "NA","name": "Maumeta.city","area_km2": 5.491483,"hist_schema_id": "Elevation0-9000","hist_area_km2": {"850": 0.041918,"875": 0.188638,"900": 0.272481,"925": 0.272474,"950": 0.544958,"975": 0.335359,"1000": 0.377276,"1025": 0.503037,"1050": 0.461118,"1075": 0.335357,"1100": 0.523997,"1125": 0.419196,"1150": 0.272477,"1175": 0.377279,"1200": 0.314399,"1225": 0.14672,"1250": 0.06288,"1275": 0.04192}}}