{"type":"Feature","properties":{"GID_3":"TLS.1.2.7_1","GID_0":"TLS","country":"Timor-Leste","GID_1":"TLS.1_1","province":"Aileu","NL_NAME_1":"NA","GID_2":"TLS.1.2_1","county":"LauLara","NL_NAME_2":"NA","city":"SeloiCraik","VARNAME_3":"SeloiCraic","NL_NAME_3":"NA","TYPE_3":"Suco","ENGTYPE_3":"Community","CC_3":"NA","HASC_3":"NA","name":"Seloi_Craik.city"},
"geometry":{"type": "MultiPolygon","coordinates": [[[[125.5655,-8.658,1138.1614],[125.5639,-8.6586,1166.9468],[125.5571,-8.6539,1280.4058],[125.5462,-8.651,1260.818],[125.535,-8.6641,830.6945],[125.5335,-8.6694,683.8128],[125.5349,-8.6712,674.2529],[125.5352,-8.6774,751.2009],[125.5318,-8.6844,803.5916],[125.5284,-8.6865,855.5024],[125.526,-8.693,1052.2034],[125.5158,-8.7008,1223.7493],[125.5099,-8.7076,1225.2554],[125.5056,-8.7076,1156.9766],[125.5028,-8.7099,1139.0498],[125.4991,-8.7085,1137.0703],[125.4968,-8.71,1164.7644],[125.4916,-8.7075,1084.8469],[125.4879,-8.7029,1070.1333],[125.4835,-8.7236,879.0272],[125.4816,-8.7225,894.2035],[125.4781,-8.7235,842.6809],[125.4757,-8.7212,821.8537],[125.4712,-8.7223,782.7382],[125.4686,-8.7207,797.4897],[125.4625,-8.7205,755.6375],[125.4538,-8.7244,725.7216],[125.4588,-8.7298,744.939],[125.4649,-8.7298,752.2676],[125.4757,-8.7368,786.1627],[125.4761,-8.7389,810.9583],[125.4736,-8.7425,807.3601],[125.4758,-8.7437,828.8544],[125.4892,-8.7401,1005.5338],[125.4948,-8.7338,1057.2739],[125.504,-8.7311,1140.2297],[125.5166,-8.7317,1236.1437],[125.5223,-8.728,1287.0389],[125.5232,-8.7258,1248.1667],[125.5328,-8.7216,1183.5363],[125.534,-8.7138,1182.7566],[125.5398,-8.7134,1168.9561],[125.5465,-8.7072,1201.1688],[125.5437,-8.7054,1190.3734],[125.5466,-8.6925,1159.7491],[125.5564,-8.6872,1056.2095],[125.5597,-8.6764,1187.6941],[125.5668,-8.6669,1056.358],[125.5655,-8.658,1138.1614]]]]}}