{"type": "Feature","bbox": [125.145,-9.2162,125.166,-9.1805],"geometry": {"type": "MultiPolygon","coordinates": [[[[125.145,-9.2132,1714.6685],[125.1478,-9.2137,1678.7986],[125.149,-9.2159,1480.8193],[125.1596,-9.2136,1180.2338],[125.1653,-9.2162,1038.0604],[125.166,-9.1805,735.4938],[125.1525,-9.1906,1125.2701],[125.145,-9.2132,1714.6685]]]]}
,"properties": {"GID_3": "TLS.6.1.1_1","GID_0": "TLS","country": "Timor-Leste","GID_1": "TLS.6_1","province": "Covalima","NL_NAME_1": "NA","GID_2": "TLS.6.1_1","county": "FatuFulic","NL_NAME_2": "NA","city": "FatoLoro","VARNAME_3": "Taroman","NL_NAME_3": "NA","TYPE_3": "Suco","ENGTYPE_3": "Community","CC_3": "NA","HASC_3": "NA","name": "Fato_Loro.city","area_km2": 5.650935,"hist_schema_id": "Elevation0-9000","hist_area_km2": {"775": 0.041861,"800": 0.104652,"825": 0.062791,"850": 0.104651,"875": 0.125581,"900": 0.062791,"925": 0.08372,"950": 0.10465,"975": 0.12558,"1000": 0.188369,"1025": 0.167436,"1050": 0.188367,"1075": 0.146507,"1100": 0.209294,"1125": 0.230223,"1150": 0.355798,"1175": 0.230222,"1200": 0.188363,"1225": 0.146505,"1250": 0.188365,"1275": 0.167433,"1300": 0.230223,"1325": 0.209292,"1350": 0.083716,"1375": 0.188363,"1400": 0.125575,"1425": 0.146504,"1450": 0.104645,"1475": 0.23022,"1500": 0.188362,"1525": 0.272078,"1550": 0.083716,"1575": 0.167432,"1600": 0.104645,"1625": 0.083716,"1650": 0.062786,"1675": 0.041858,"1700": 0.062786,"1725": 0.041857}}}