{"type":"Feature","properties":{"GID_3":"TLS.9.1.6_1","GID_0":"TLS","country":"Timor-Leste","GID_1":"TLS.9_1","province":"Lautém","NL_NAME_1":"NA","GID_2":"TLS.9.1_1","county":"Iliomar","NL_NAME_2":"NA","city":"Trilolo","VARNAME_3":"Tirilolo","NL_NAME_3":"NA","TYPE_3":"Suco","ENGTYPE_3":"Community","CC_3":"NA","HASC_3":"NA","name":"Trilolo.city"},
"geometry":{"type": "MultiPolygon","coordinates": [[[[126.8288,-8.7008,343.0722],[126.8267,-8.6979,304.6476],[126.8182,-8.6963,277.7076],[126.8118,-8.6855,366.3099],[126.7981,-8.6799,586.1565],[126.793,-8.6814,559.8939],[126.7857,-8.6865,375.7196],[126.7802,-8.6874,260.1129],[126.778,-8.6899,191.9665],[126.7758,-8.6893,188.5419],[126.7677,-8.6924,141.2139],[126.7635,-8.6961,138.6957],[126.7593,-8.6952,110.571],[126.7558,-8.6968,83.5488],[126.7515,-8.6952,68.5846],[126.7501,-8.6929,76.0882],[126.7377,-8.6945,65.338],[126.7344,-8.7057,34.5718],[126.7326,-8.7065,37.8189],[126.73,-8.7029,40.9438],[126.729,-8.7056,24.327],[126.7308,-8.7101,30.0619],[126.7289,-8.7137,19.7398],[126.7354,-8.7215,33.7957],[126.732,-8.7286,13.1904],[126.7339,-8.7298,18.7187],[126.7373,-8.7288,22.318],[126.7385,-8.7305,25.4982],[126.7384,-8.7374,14.3125],[126.7348,-8.7413,9.9846],[126.7371,-8.7468,18.129],[126.7351,-8.7486,2.9194],[126.7342,-8.7539,7.2845],[126.7387,-8.7578,10.1855],[126.75,-8.7514,0.0],[126.7608,-8.7475,4.1438],[126.7748,-8.7473,7.3881],[126.7781,-8.7488,0.0],[126.7822,-8.7542,0.0],[126.7878,-8.7536,0.0],[126.7937,-8.7565,0.0],[126.8003,-8.7547,0.0],[126.8062,-8.756,6.0059],[126.8085,-8.7521,13.118],[126.81,-8.7412,142.0959],[126.8082,-8.7363,89.9626],[126.8096,-8.735,247.4874],[126.8086,-8.731,139.8187],[126.8042,-8.7244,105.1209],[126.8059,-8.7131,166.296],[126.81,-8.709,194.1676],[126.8109,-8.7046,218.793],[126.8238,-8.7039,410.2182],[126.8288,-8.7008,343.0722]]]]}}