{"type": "Feature","bbox": [124.045,-9.4273,124.1919,-9.2973],"geometry": {"type": "MultiPolygon","coordinates": [[[[124.0959,-9.4061,89.4426],[124.0986,-9.4091,72.0],[124.1105,-9.4101,99.4219],[124.1119,-9.4069,93.1888],[124.1164,-9.41,131.9772],[124.1182,-9.4071,117.811],[124.1201,-9.4068,125.1684],[124.1249,-9.4109,138.5244],[124.1263,-9.416,134.631],[124.1284,-9.4167,128.0363],[124.1341,-9.4265,140.9188],[124.1438,-9.4242,130.5345],[124.15,-9.4273,127.9115],[124.1501,-9.4219,136.3106],[124.1547,-9.4225,143.5702],[124.1625,-9.4186,143.5784],[124.1612,-9.4125,154.3942],[124.1719,-9.4003,174.8831],[124.1681,-9.3967,172.2195],[124.1682,-9.3945,193.5526],[124.1722,-9.3932,226.8842],[124.1737,-9.3905,195.5331],[124.1854,-9.3874,212.5679],[124.1903,-9.3835,219.6152],[124.1919,-9.3781,250.0245],[124.182,-9.3675,519.9044],[124.179,-9.3654,605.5367],[124.1676,-9.3623,695.5864],[124.1636,-9.3584,572.6021],[124.1626,-9.3474,488.3404],[124.1606,-9.3427,408.8834],[124.1577,-9.3403,361.1569],[124.1578,-9.3378,155.9035],[124.1558,-9.3352,137.0648],[124.1562,-9.3308,101.2346],[124.153,-9.3249,82.4383],[124.1532,-9.3165,45.9286],[124.1548,-9.3133,43.6894],[124.1502,-9.3105,30.2766],[124.1456,-9.3112,24.7348],[124.1412,-9.3075,17.4149],[124.137,-9.2973,0.4613],[124.1306,-9.305,8.88],[124.1231,-9.3094,1.6052],[124.1106,-9.3104,6.004],[124.0998,-9.3195,1.8516],[124.0965,-9.3241,2.2867],[124.0843,-9.3276,0.0],[124.08,-9.3251,0.0],[124.0737,-9.3246,7.0925],[124.0621,-9.333,11.9368],[124.0556,-9.3342,0.6376],[124.0531,-9.3319,0.0],[124.0511,-9.3342,0.0],[124.045,-9.3359,0.0],[124.045,-9.3436,9.1684],[124.0491,-9.3501,17.8957],[124.0537,-9.3519,17.2921],[124.0617,-9.3605,23.3807],[124.0643,-9.3674,26.1333],[124.0702,-9.3697,28.0711],[124.0767,-9.382,39.7139],[124.0883,-9.3949,55.6921],[124.0959,-9.4061,89.4426]]]]}
,"properties": {"GID_3": "TLS.3.1.2_1","GID_0": "TLS","country": "Timor-Leste","GID_1": "TLS.3_1","province": "Ambeno","NL_NAME_1": "NA","GID_2": "TLS.3.1_1","county": "Nitibe","NL_NAME_2": "NA","city": "Bene-Ufe","VARNAME_3": "BeneUfe","NL_NAME_3": "NA","TYPE_3": "Suco","ENGTYPE_3": "Community","CC_3": "NA","HASC_3": "NA","name": "Bene-Ufe.city","area_km2": 120.45558,"hist_schema_id": "Elevation0-9000","hist_area_km2": {"0": 5.7325,"25": 13.74501,"50": 4.79075,"75": 3.4937,"100": 3.32632,"125": 3.47266,"150": 3.66092,"175": 3.80739,"200": 3.51442,"225": 3.95374,"250": 3.91187,"275": 3.36801,"300": 3.49351,"325": 3.36799,"350": 3.01237,"375": 3.03328,"400": 3.20064,"425": 2.78227,"450": 2.42663,"475": 2.40568,"500": 2.4057,"525": 2.09192,"550": 2.21743,"575": 2.57306,"600": 2.21746,"625": 2.42665,"650": 2.30112,"675": 2.34297,"700": 1.90366,"725": 2.44756,"750": 2.32206,"775": 1.69445,"800": 1.63172,"825": 1.79905,"850": 1.38067,"875": 1.31791,"900": 1.31792,"925": 1.19241,"950": 1.19242,"975": 1.12966,"1000": 0.79495,"1025": 0.73219,"1050": 0.29288,"1075": 0.12552,"1100": 0.02092,"1125": 0.06276,"1150": 0.02092}}}