{"type": "Feature","bbox": [125.1096,-9.0932,125.3189,-8.8786],"geometry": {"type": "MultiPolygon","coordinates": [[[[125.1885,-9.0512,289.3617],[125.1886,-9.0571,304.084],[125.1848,-9.0594,312.3198],[125.1839,-9.0627,336.519],[125.1876,-9.0731,383.2477],[125.1849,-9.0745,401.0699],[125.1841,-9.0822,448.798],[125.1871,-9.0852,548.184],[125.1906,-9.0849,587.6882],[125.1962,-9.0876,679.857],[125.1983,-9.0917,754.6141],[125.2017,-9.0932,836.1567],[125.2075,-9.0921,946.0951],[125.2135,-9.0877,1123.5969],[125.2181,-9.0775,1448.333],[125.2241,-9.0749,1494.0587],[125.2288,-9.0697,1614.2115],[125.2524,-9.0619,1702.7183],[125.278,-9.0207,1196.9824],[125.2853,-9.0178,937.4372],[125.2985,-9.0184,950.6427],[125.3023,-9.0159,871.8654],[125.3104,-9.0151,759.5567],[125.3143,-9.0078,740.0961],[125.3183,-9.0039,617.8257],[125.3189,-9.0003,591.4313],[125.3126,-8.9884,423.4441],[125.3117,-8.9771,365.5678],[125.3068,-8.9766,378.1615],[125.304,-8.9824,417.4175],[125.3018,-8.982,419.1445],[125.2999,-8.9783,493.7466],[125.293,-8.9802,592.6033],[125.2843,-8.9734,835.8271],[125.2818,-8.9688,983.6064],[125.27,-8.9672,1277.9458],[125.2621,-8.9614,1214.0388],[125.2564,-8.9602,934.6548],[125.2491,-8.9629,658.5854],[125.244,-8.9677,515.2209],[125.2395,-8.9675,461.1181],[125.2338,-8.9705,338.5159],[125.2215,-8.9675,182.0188],[125.2194,-8.9571,166.6798],[125.2198,-8.948,154.384],[125.217,-8.9376,167.434],[125.2178,-8.9337,165.8793],[125.2132,-8.9285,138.4053],[125.2143,-8.9143,111.409],[125.209,-8.9046,100.7464],[125.2099,-8.8957,87.0369],[125.2034,-8.8851,77.5205],[125.1951,-8.8794,69.2605],[125.1892,-8.8786,65.082],[125.1856,-8.8793,63.6917],[125.1857,-8.8819,65.8555],[125.1808,-8.8856,66.6256],[125.1762,-8.8859,73.976],[125.1712,-8.8903,69.5203],[125.1675,-8.8901,69.0004],[125.1667,-8.8947,74.3289],[125.1562,-8.8964,76.5878],[125.155,-8.902,74.6876],[125.1524,-8.9017,75.6117],[125.1468,-8.905,77.0045],[125.1398,-8.9189,83.1964],[125.1399,-8.9281,88.0625],[125.1354,-8.9339,94.5318],[125.1314,-8.936,89.4112],[125.131,-8.9379,93.5173],[125.1209,-8.9398,94.866],[125.1151,-8.9471,108.7767],[125.1138,-8.9563,102.062],[125.1106,-8.9627,109.39],[125.1115,-8.9668,111.31],[125.1096,-8.9686,110.2016],[125.112,-8.9675,105.9571],[125.1175,-8.9702,110.7284],[125.1214,-8.9746,115.1269],[125.1218,-8.9782,117.804],[125.1269,-8.9808,120.4494],[125.13,-8.9867,127.6809],[125.1334,-8.9882,129.4392],[125.1359,-8.9955,134.6946],[125.1483,-8.9965,151.33],[125.1592,-9.0047,163.2246],[125.1629,-9.0106,169.9167],[125.1717,-9.0182,186.4266],[125.1847,-9.0259,209.1287],[125.1868,-9.0291,219.5079],[125.1852,-9.0308,221.4639],[125.1843,-9.0374,256.2974],[125.1893,-9.0465,280.9742],[125.1885,-9.0512,289.3617]]]]}
,"properties": {"GID_2": "TLS.5.6_1","GID_0": "TLS","country": "Timor-Leste","GID_1": "TLS.5_1","province": "Bobonaro","NL_NAME_1": "NA","county": "Maliana","VARNAME_2": "NA","NL_NAME_2": "NA","TYPE_2": "Subdistrito","ENGTYPE_2": "Subdistrict","CC_2": "NA","HASC_2": "NA","name": "Maliana.county","area_km2": 239.5349,"hist_schema_id": "Elevation0-9000","hist_area_km2": {"75": 10.7877,"100": 11.5199,"125": 15.2271,"150": 36.6939,"175": 29.8227,"200": 12.314,"225": 7.7065,"250": 3.9369,"275": 2.5338,"300": 2.3453,"325": 2.5129,"350": 2.6804,"375": 2.9316,"400": 3.0782,"425": 3.1201,"450": 3.2876,"475": 2.9735,"500": 3.1829,"525": 3.4761,"550": 3.4342,"575": 3.4342,"600": 3.8111,"625": 3.4761,"650": 3.6017,"675": 3.2457,"700": 3.4342,"725": 3.5598,"750": 3.3923,"775": 3.2038,"800": 3.2666,"825": 3.1201,"850": 3.0362,"875": 2.9735,"900": 2.2196,"925": 2.5547,"950": 2.1568,"975": 1.5286,"1000": 1.5286,"1025": 1.4658,"1050": 1.5914,"1075": 1.3401,"1100": 1.2145,"1125": 1.1726,"1150": 1.1726,"1175": 1.047,"1200": 1.0679,"1225": 0.8167,"1250": 0.6491,"1275": 0.691,"1300": 0.691,"1325": 0.4188,"1350": 0.5025,"1375": 0.5863,"1400": 0.6491,"1425": 0.4816,"1450": 0.7328,"1475": 0.7119,"1500": 0.8585,"1525": 0.9003,"1550": 0.9841,"1575": 0.7747,"1600": 0.6072,"1625": 0.5235,"1650": 0.3769,"1675": 0.2513,"1700": 0.0628,"1725": 0.0419,"1750": 0.0419}}}