{"type": "Feature","bbox": [125.2792,-8.8623,125.3307,-8.8199],"geometry": {"type": "MultiPolygon","coordinates": [[[[125.2889,-8.8569,150.4948],[125.3036,-8.8539,174.5857],[125.3098,-8.8601,192.7997],[125.3202,-8.8623,210.0645],[125.3283,-8.8504,403.5457],[125.3307,-8.8437,489.349],[125.3252,-8.8355,578.4617],[125.3191,-8.8309,438.1152],[125.3131,-8.8308,345.269],[125.3041,-8.8339,240.0351],[125.3073,-8.8291,293.4017],[125.3077,-8.824,331.6125],[125.3034,-8.8204,351.0487],[125.2924,-8.8199,174.9958],[125.2894,-8.8205,155.4426],[125.2866,-8.8241,130.7361],[125.2792,-8.8236,117.9999],[125.2814,-8.8322,123.4874],[125.2827,-8.8508,141.6517],[125.2889,-8.8569,150.4948]]]]}
,"properties": {"GID_3": "TLS.8.3.12_1","GID_0": "TLS","country": "Timor-Leste","GID_1": "TLS.8_1","province": "Ermera","NL_NAME_1": "NA","GID_2": "TLS.8.3_1","county": "Hatólia","NL_NAME_2": "NA","city": "Samara","VARNAME_3": "NA","NL_NAME_3": "NA","TYPE_3": "Suco","ENGTYPE_3": "Community","CC_3": "NA","HASC_3": "NA","name": "Samara.city","area_km2": 17.26303,"hist_schema_id": "Elevation0-9000","hist_area_km2": {"125": 1.38276,"150": 3.66627,"175": 2.09502,"200": 1.4246,"225": 1.04751,"250": 1.04751,"275": 1.08942,"300": 0.96372,"325": 0.83802,"350": 0.62852,"375": 0.73326,"400": 0.48186,"425": 0.43995,"450": 0.41901,"475": 0.33521,"500": 0.2514,"525": 0.2514,"550": 0.1257,"575": 0.0419}}}