{"type": "Feature","bbox": [125.351,-8.9644,125.3816,-8.9266],"geometry": {"type": "MultiPolygon","coordinates": [[[[125.3816,-8.952,931.853],[125.3804,-8.9486,893.962],[125.3771,-8.9483,915.5663],[125.377,-8.9445,850.1918],[125.3739,-8.9393,770.0535],[125.3688,-8.9375,698.3402],[125.3646,-8.9296,509.0209],[125.3549,-8.9266,413.2924],[125.3564,-8.9308,477.9514],[125.3549,-8.9322,504.5298],[125.3559,-8.9404,629.1233],[125.3519,-8.9453,623.1586],[125.351,-8.959,823.2533],[125.3562,-8.9592,940.4012],[125.3584,-8.9618,1062.4524],[125.3621,-8.9604,1303.3706],[125.3666,-8.9644,1311.1866],[125.369,-8.9643,1234.432],[125.375,-8.9615,1099.5953],[125.3771,-8.9527,954.0219],[125.3816,-8.952,931.853]]]]}
,"properties": {"GID_3": "TLS.8.1.4_1","GID_0": "TLS","country": "Timor-Leste","GID_1": "TLS.8_1","province": "Ermera","NL_NAME_1": "NA","GID_2": "TLS.8.1_1","county": "Atsabe","NL_NAME_2": "NA","city": "Batu-Manu","VARNAME_3": "BatuManu","NL_NAME_3": "NA","TYPE_3": "Suco","ENGTYPE_3": "Community","CC_3": "NA","HASC_3": "NA","name": "Batu-Manu.city","area_km2": 8.482398,"hist_schema_id": "Elevation0-9000","hist_area_km2": {"425": 0.020945,"450": 0.062836,"475": 0.125671,"500": 0.146616,"525": 0.188506,"550": 0.12567,"575": 0.12567,"600": 0.251339,"625": 0.188503,"650": 0.314167,"675": 0.397944,"700": 0.376999,"725": 0.230387,"750": 0.376997,"775": 0.230386,"800": 0.418885,"825": 0.272275,"850": 0.376997,"875": 0.356053,"900": 0.439826,"925": 0.376993,"950": 0.251327,"975": 0.293217,"1000": 0.230384,"1025": 0.356047,"1050": 0.16755,"1075": 0.293214,"1100": 0.272268,"1125": 0.188493,"1150": 0.188492,"1175": 0.125661,"1200": 0.146605,"1225": 0.104718,"1250": 0.188491,"1275": 0.146604,"1300": 0.12566}}}