{"type":"Feature","properties":{"GID_3":"TLS.3.3.3_1","GID_0":"TLS","country":"Timor-Leste","GID_1":"TLS.3_1","province":"Ambeno","NL_NAME_1":"NA","GID_2":"TLS.3.3_1","county":"PanteMacassar","NL_NAME_2":"NA","city":"Cunha","VARNAME_3":"NA","NL_NAME_3":"NA","TYPE_3":"Suco","ENGTYPE_3":"Community","CC_3":"NA","HASC_3":"NA","name":"Cunha.city"},
"geometry":{"type": "MultiPolygon","coordinates": [[[[124.3082,-9.3726,188.8043],[124.3092,-9.3712,187.314],[124.3084,-9.3653,196.5904],[124.3116,-9.3605,183.8837],[124.3111,-9.3577,194.5519],[124.3126,-9.3552,172.9301],[124.3119,-9.3458,160.5926],[124.3043,-9.341,160.5672],[124.3036,-9.3346,145.3548],[124.3005,-9.3317,142.2185],[124.3028,-9.3219,158.2151],[124.3094,-9.3199,119.9466],[124.3137,-9.3253,161.9018],[124.3165,-9.3223,106.9349],[124.3276,-9.3216,96.1389],[124.3313,-9.3189,92.2118],[124.3327,-9.3118,142.7962],[124.3312,-9.3046,80.5842],[124.3271,-9.3018,78.0933],[124.3278,-9.2931,73.1081],[124.3386,-9.2907,65.1715],[124.3419,-9.2805,82.4755],[124.3478,-9.2771,70.8354],[124.3532,-9.2766,51.9498],[124.3552,-9.2747,51.1083],[124.355,-9.2721,72.6742],[124.3643,-9.2722,185.6972],[124.3673,-9.2703,290.1611],[124.3693,-9.2598,391.7627],[124.3676,-9.2548,368.5612],[124.3649,-9.2522,303.8939],[124.3636,-9.2543,194.9824],[124.3577,-9.2531,66.3496],[124.3468,-9.2568,41.6613],[124.3434,-9.2566,37.0302],[124.3386,-9.2525,34.7031],[124.3349,-9.2515,39.428],[124.3084,-9.251,70.3847],[124.3049,-9.2537,73.4728],[124.3124,-9.2639,158.9067],[124.3265,-9.2708,233.049],[124.3293,-9.2748,210.0911],[124.3292,-9.2776,210.2636],[124.3253,-9.2821,220.7879],[124.3145,-9.2881,268.7477],[124.3056,-9.2954,348.9693],[124.3014,-9.3006,260.4677],[124.2993,-9.3077,162.1787],[124.2954,-9.3082,194.3912],[124.2937,-9.3103,210.2657],[124.2901,-9.3081,253.0588],[124.2868,-9.3084,316.2522],[124.2794,-9.313,462.0252],[124.2791,-9.3161,466.7646],[124.2892,-9.3298,365.2144],[124.2889,-9.3413,395.3113],[124.2848,-9.3477,537.2842],[124.2862,-9.3561,653.3593],[124.2998,-9.3647,291.549],[124.3082,-9.3726,188.8043]]]]}}