{"type": "Feature","bbox": [125.3823,-8.8869,125.4332,-8.8568],"geometry": {"type": "MultiPolygon","coordinates": [[[[125.3994,-8.8856,1413.3586],[125.4135,-8.8841,1470.1434],[125.4152,-8.8859,1476.7145],[125.4202,-8.8869,1439.9314],[125.4245,-8.8844,1383.0571],[125.4281,-8.8846,1555.1141],[125.43,-8.8814,1610.6157],[125.428,-8.878,1442.2939],[125.4297,-8.8777,1513.2253],[125.4332,-8.8721,1397.6039],[125.4324,-8.8652,984.5281],[125.4284,-8.8662,969.7618],[125.4272,-8.8638,945.1568],[125.4258,-8.8651,951.2276],[125.4236,-8.8602,935.0345],[125.4195,-8.8568,895.9136],[125.4135,-8.8602,890.9285],[125.4023,-8.8593,802.7224],[125.3991,-8.864,746.9972],[125.3887,-8.8642,732.4449],[125.3823,-8.8673,649.5696],[125.3874,-8.8715,847.6396],[125.3882,-8.8762,919.8695],[125.3925,-8.882,1200.0931],[125.3954,-8.8849,1367.3573],[125.3994,-8.8856,1413.3586]]]]}
,"properties": {"GID_3": "TLS.8.4.6_1","GID_0": "TLS","country": "Timor-Leste","GID_1": "TLS.8_1","province": "Ermera","NL_NAME_1": "NA","GID_2": "TLS.8.4_1","county": "Letefoho","NL_NAME_2": "NA","city": "Katraikleten","VARNAME_3": "KatraiLeten","NL_NAME_3": "NA","TYPE_3": "Suco","ENGTYPE_3": "Community","CC_3": "NA","HASC_3": "NA","name": "Katraikleten.city","area_km2": 12.317713,"hist_schema_id": "Elevation0-9000","hist_area_km2": {"675": 0.020949,"700": 0.083795,"725": 0.125694,"750": 0.146643,"775": 0.083796,"800": 0.146641,"825": 0.293285,"850": 0.418976,"875": 0.272335,"900": 0.335182,"925": 0.523719,"950": 0.439926,"975": 0.565617,"1000": 0.544667,"1025": 0.607514,"1050": 0.816998,"1075": 0.544664,"1100": 0.712252,"1125": 0.481814,"1150": 0.460866,"1175": 0.460863,"1200": 0.377071,"1225": 0.439914,"1250": 0.502758,"1275": 0.398015,"1300": 0.335169,"1325": 0.377065,"1350": 0.398012,"1375": 0.356116,"1400": 0.251375,"1425": 0.272323,"1450": 0.146636,"1475": 0.167584,"1500": 0.10474,"1525": 0.041896,"1550": 0.041896,"1600": 0.020948}}}