{"type": "Feature","bbox": [126.1495,-8.6975,126.3216,-8.4692],"geometry": {"type": "MultiPolygon","coordinates": [[[[126.2931,-8.4692,3.3991],[126.2786,-8.4811,3.4053],[126.2747,-8.4806,0.0],[126.2685,-8.4847,4.5448],[126.2606,-8.4867,2.4471],[126.2536,-8.4867,0.0],[126.2437,-8.4984,7.7905],[126.2368,-8.5024,1.1811],[126.2303,-8.5017,1.774],[126.2225,-8.4978,0.0],[126.2058,-8.4947,1.203],[126.1892,-8.5028,0.0],[126.1819,-8.5024,1.4142],[126.1683,-8.4958,0.0],[126.161,-8.496,0.0],[126.164,-8.5062,7.7492],[126.1681,-8.5122,9.7539],[126.1848,-8.5263,25.7451],[126.185,-8.5283,27.9263],[126.1825,-8.531,38.9201],[126.1849,-8.5617,218.1743],[126.1871,-8.5688,245.1701],[126.192,-8.5736,255.3628],[126.1954,-8.566,248.7111],[126.1953,-8.5601,179.0071],[126.2022,-8.5561,112.1242],[126.2105,-8.5557,60.2083],[126.2109,-8.5596,58.9692],[126.2133,-8.5614,65.9301],[126.2217,-8.5611,89.8848],[126.2247,-8.5591,115.5218],[126.2233,-8.5562,123.0893],[126.2277,-8.5517,132.7508],[126.2386,-8.5508,186.9162],[126.2434,-8.5542,202.2099],[126.246,-8.5609,262.163],[126.2557,-8.5688,426.6862],[126.2545,-8.5768,380.2491],[126.2585,-8.5817,344.7954],[126.2573,-8.5883,315.4764],[126.2542,-8.5941,314.5563],[126.2553,-8.599,286.9564],[126.2524,-8.6011,273.7094],[126.2472,-8.6016,235.7162],[126.2461,-8.6035,237.501],[126.2397,-8.5997,212.4495],[126.2361,-8.6034,226.8172],[126.2327,-8.6041,191.743],[126.2318,-8.6018,195.3053],[126.2296,-8.603,189.9401],[126.2246,-8.6001,166.0591],[126.2202,-8.6009,175.9724],[126.2199,-8.6038,158.9187],[126.2184,-8.6033,161.5481],[126.2181,-8.6076,115.1543],[126.2144,-8.6062,181.2426],[126.2132,-8.6095,114.4071],[126.2099,-8.6087,103.016],[126.2091,-8.6068,101.6381],[126.2051,-8.6081,111.3377],[126.2026,-8.6034,99.3271],[126.1961,-8.6043,297.0088],[126.1961,-8.6061,278.235],[126.1905,-8.6116,282.6849],[126.1936,-8.6172,262.5476],[126.1952,-8.6249,343.1776],[126.1881,-8.638,437.0987],[126.1853,-8.6395,469.0344],[126.1835,-8.643,509.4332],[126.1811,-8.6434,519.39],[126.1799,-8.649,472.3406],[126.1661,-8.6548,399.1763],[126.1654,-8.6569,378.1833],[126.1524,-8.6666,263.4637],[126.1495,-8.6729,163.4218],[126.1551,-8.6732,156.4559],[126.1606,-8.6792,167.7576],[126.1649,-8.6761,207.7989],[126.1683,-8.6766,182.5833],[126.1737,-8.6807,180.8092],[126.1786,-8.6876,195.8339],[126.1833,-8.6891,194.3125],[126.1874,-8.6879,220.221],[126.1882,-8.6921,206.9507],[126.1921,-8.6898,227.6422],[126.1936,-8.6922,227.2654],[126.1958,-8.6885,231.2134],[126.1984,-8.6919,232.4201],[126.2008,-8.6857,262.2572],[126.2023,-8.6878,240.3372],[126.2085,-8.6866,230.9205],[126.2121,-8.6956,239.6787],[126.2141,-8.6951,236.0449],[126.2136,-8.6917,231.6375],[126.2148,-8.6912,260.5868],[126.2174,-8.6929,243.1029],[126.2183,-8.6968,249.3321],[126.2212,-8.6975,242.3905],[126.2266,-8.6974,242.0056],[126.2289,-8.6958,243.0059],[126.2278,-8.6907,248.1838],[126.2319,-8.6832,254.1206],[126.2342,-8.6853,260.3068],[126.2379,-8.6827,270.8903],[126.2414,-8.6849,264.1487],[126.2438,-8.6818,304.9694],[126.2425,-8.6803,279.0995],[126.2436,-8.6762,299.4568],[126.2482,-8.6708,316.0783],[126.2462,-8.6657,366.0189],[126.2494,-8.6594,291.3369],[126.2465,-8.654,235.9429],[126.248,-8.6474,188.164],[126.2513,-8.647,187.9754],[126.2512,-8.643,202.043],[126.2536,-8.6414,190.8593],[126.2505,-8.6344,212.5223],[126.2538,-8.6314,217.2357],[126.2525,-8.6284,228.0785],[126.2549,-8.625,223.5664],[126.2631,-8.6249,261.6151],[126.2638,-8.6209,249.0102],[126.2667,-8.6175,304.159],[126.2661,-8.6118,343.2005],[126.2695,-8.6086,380.8868],[126.2701,-8.6055,429.2727],[126.2729,-8.6029,414.8498],[126.2747,-8.6034,438.09],[126.2758,-8.598,445.4603],[126.2847,-8.5913,463.3434],[126.2762,-8.5834,619.2482],[126.2761,-8.5741,475.5398],[126.2708,-8.5696,466.4434],[126.269,-8.5642,552.8917],[126.2659,-8.563,583.3306],[126.2621,-8.557,540.5908],[126.2655,-8.5519,507.4403],[126.2676,-8.5434,432.0653],[126.2659,-8.5376,382.2134],[126.2712,-8.5311,286.4575],[126.2715,-8.5275,220.7515],[126.276,-8.519,45.8637],[126.2827,-8.5195,100.0317],[126.2852,-8.5167,104.0112],[126.288,-8.5164,115.4266],[126.2916,-8.518,121.8343],[126.3216,-8.5006,300.6044],[126.3155,-8.4951,213.3731],[126.3153,-8.4874,174.3923],[126.3102,-8.4741,68.0942],[126.3011,-8.4729,36.2386],[126.2931,-8.4692,3.3991]]]]}
,"properties": {"GID_3": "TLS.4.5.7_1","GID_0": "TLS","country": "Timor-Leste","GID_1": "TLS.4_1","province": "Baucau","NL_NAME_1": "NA","GID_2": "TLS.4.5_1","county": "Vemasse","NL_NAME_2": "NA","city": "Vemasse","VARNAME_3": "NA","NL_NAME_3": "NA","TYPE_3": "Suco","ENGTYPE_3": "Community","CC_3": "NA","HASC_3": "NA","name": "Vemasse.city","area_km2": 181.473,"hist_schema_id": "Elevation0-9000","hist_area_km2": {"0": 16.2092,"25": 16.5233,"50": 9.0164,"75": 5.8502,"100": 5.4726,"125": 6.5837,"150": 7.9042,"175": 8.7216,"200": 9.4131,"225": 9.1612,"250": 10.5232,"275": 11.2988,"300": 11.0681,"325": 10.8794,"350": 11.152,"375": 10.3973,"400": 7.6514,"425": 4.8214,"450": 3.3751,"475": 2.285,"500": 1.3208,"525": 0.7338,"550": 0.5451,"575": 0.3983,"600": 0.0839,"625": 0.0839}}}