{"type": "Feature","bbox": [125.3208,-9.0114,125.358,-8.9546],"geometry": {"type": "MultiPolygon","coordinates": [[[[125.3372,-9.0032,680.7317],[125.339,-9.0114,788.2826],[125.3458,-9.0098,707.1557],[125.3518,-9.0107,671.6841],[125.3563,-9.0084,661.5779],[125.358,-9.0031,648.8491],[125.3548,-8.9952,592.4473],[125.3491,-8.9955,575.4833],[125.3479,-8.9937,529.8157],[125.3441,-8.9934,522.3239],[125.3424,-8.9903,503.8529],[125.3443,-8.9876,495.6113],[125.3436,-8.9829,475.9868],[125.3394,-8.9723,404.4916],[125.3277,-8.963,381.0984],[125.3275,-8.9569,332.3881],[125.3245,-8.9546,347.1368],[125.3211,-8.9559,320.3825],[125.324,-8.9575,366.6389],[125.3208,-8.9638,361.9147],[125.3261,-8.9714,561.0558],[125.3325,-8.97,465.0705],[125.3333,-8.971,465.0705],[125.3341,-8.9775,539.1866],[125.332,-8.9913,675.6991],[125.3332,-8.9932,654.745],[125.3391,-8.9946,556.3246],[125.34,-9.0,612.9341],[125.3372,-9.0032,680.7317]]]]}
,"properties": {"GID_3": "TLS.5.3.16_1","GID_0": "TLS","country": "Timor-Leste","GID_1": "TLS.5_1","province": "Bobonaro","NL_NAME_1": "NA","GID_2": "TLS.5.3_1","county": "Bobonaro","NL_NAME_2": "NA","city": "Soileso","VARNAME_3": "Soileco","NL_NAME_3": "NA","TYPE_3": "Suco","ENGTYPE_3": "Community","CC_3": "NA","HASC_3": "NA","name": "Soileso.city","area_km2": 7.350578,"hist_schema_id": "Elevation0-9000","hist_area_km2": {"300": 0.041887,"325": 0.167547,"350": 0.293208,"375": 0.272263,"400": 0.27226,"425": 0.251314,"450": 0.251313,"475": 0.293196,"500": 0.251307,"525": 0.335071,"550": 0.356012,"575": 0.230358,"600": 0.335065,"625": 0.607303,"650": 0.565417,"675": 0.649176,"700": 0.649179,"725": 0.628228,"750": 0.607293,"775": 0.209412,"800": 0.041884,"825": 0.020942,"850": 0.020942}}}