{"type":"Feature","properties":{"GID_3":"TLS.4.3.3_1","GID_0":"TLS","country":"Timor-Leste","GID_1":"TLS.4_1","province":"Baucau","NL_NAME_1":"NA","GID_2":"TLS.4.3_1","county":"Laga","NL_NAME_2":"NA","city":"Mulia","VARNAME_3":"Teqinomata","NL_NAME_3":"NA","TYPE_3":"Suco","ENGTYPE_3":"Community","CC_3":"NA","HASC_3":"NA","name":"Mulia.city"},
"geometry":{"type": "MultiPolygon","coordinates": [[[[126.5421,-8.5311,114.9893],[126.5493,-8.5285,185.3223],[126.5525,-8.5302,215.6336],[126.5547,-8.5344,267.3448],[126.5591,-8.5353,353.6121],[126.5627,-8.5303,339.8836],[126.5723,-8.5235,216.6921],[126.5817,-8.523,177.1683],[126.5862,-8.5249,125.291],[126.5894,-8.5187,81.7938],[126.5921,-8.5171,78.0077],[126.5921,-8.5089,68.0201],[126.5948,-8.5058,58.2557],[126.5923,-8.4974,46.0397],[126.5958,-8.495,46.1136],[126.5956,-8.4905,88.0495],[126.5929,-8.49,35.2917],[126.5906,-8.4829,59.0597],[126.5842,-8.481,15.9407],[126.5809,-8.4743,4.7367],[126.5816,-8.4704,0.4027],[126.568,-8.4822,0.7341],[126.565,-8.4828,0.0],[126.5609,-8.4809,0.2935],[126.56,-8.4961,31.0329],[126.5482,-8.5044,61.7383],[126.5399,-8.5229,97.357],[126.54,-8.5279,102.0613],[126.5421,-8.5311,114.9893]]]]}}