{"type": "Feature","bbox": [125.5349,-8.5597,125.5502,-8.5376],"geometry": {"type": "MultiPolygon","coordinates": [[[[125.5484,-8.5437,0.0],[125.5349,-8.5376,0.0],[125.5365,-8.5487,12.7101],[125.535,-8.5597,23.7581],[125.5498,-8.5568,14.8408],[125.5502,-8.554,12.5112],[125.5425,-8.5544,20.5794],[125.5437,-8.5469,11.052],[125.5484,-8.5437,0.0]]]]}
,"properties": {"GID_3": "TLS.7.2.20_1","GID_0": "TLS","country": "Timor-Leste","GID_1": "TLS.7_1","province": "Dili","NL_NAME_1": "NA","GID_2": "TLS.7.2_1","county": "DiliBarat","NL_NAME_2": "NA","city": "RaiNacaDoco","VARNAME_3": "Comoro","NL_NAME_3": "NA","TYPE_3": "Suco","ENGTYPE_3": "Community","CC_3": "NA","HASC_3": "NA","name": "Rai_Naca_Doco.city","area_km2": 2.222459,"hist_schema_id": "Elevation0-9000","hist_area_km2": {"0": 1.06931,"25": 1.153149}}}