{"type":"Feature","properties":{"GID_3":"TLS.2.4.9_1","GID_0":"TLS","country":"Timor-Leste","GID_1":"TLS.2_1","province":"Ainaro","NL_NAME_1":"NA","GID_2":"TLS.2.4_1","county":"Maubisse","NL_NAME_2":"NA","city":"Maulau","VARNAME_3":"NA","NL_NAME_3":"NA","TYPE_3":"Suco","ENGTYPE_3":"Community","CC_3":"NA","HASC_3":"NA","name":"Maulau.city"},
"geometry":{"type": "MultiPolygon","coordinates": [[[[125.6426,-8.79,890.6557],[125.6432,-8.7935,937.751],[125.6484,-8.7985,1084.3258],[125.6445,-8.8053,1360.3599],[125.637,-8.8113,1365.114],[125.6356,-8.815,1386.8446],[125.6272,-8.8182,1417.9685],[125.6219,-8.8244,1564.8792],[125.6138,-8.8216,1576.979],[125.6105,-8.8299,1401.3018],[125.6131,-8.8314,1368.3835],[125.6199,-8.8265,1534.3069],[125.6203,-8.8287,1610.5156],[125.6246,-8.8274,1642.582],[125.6267,-8.8301,1583.1162],[125.6296,-8.8299,1574.0222],[125.633,-8.8273,1595.0984],[125.6339,-8.829,1637.7233],[125.6384,-8.8273,1578.0309],[125.6412,-8.8308,1555.8566],[125.6432,-8.8304,1529.7542],[125.6408,-8.833,1596.2466],[125.6433,-8.834,1489.0146],[125.6423,-8.8364,1605.6737],[125.639,-8.8383,1705.6914],[125.6395,-8.8446,1803.9666],[125.6426,-8.8454,1805.1316],[125.6502,-8.8518,1514.067],[125.6524,-8.8517,1478.5925],[125.6535,-8.8514,1436.6434],[125.65089999999999,-8.8457,1566.7637],[125.6532,-8.8434,1524.6326],[125.6538,-8.8386,1353.0857],[125.6575,-8.8347,1258.1562],[125.6605,-8.8343,1274.1899],[125.6653,-8.8303,1433.1884],[125.6653,-8.8271,1534.4187],[125.6677,-8.8237,1610.5442],[125.6734,-8.821,1541.9473],[125.6725,-8.8162,1306.3109],[125.6825,-8.8104,1150.9495],[125.6888,-8.8027,1054.1886],[125.6892,-8.7986,953.7111],[125.6984,-8.7961,863.9855],[125.7084,-8.7862,826.9365],[125.7183,-8.7855,665.3799],[125.7198,-8.783,667.8872],[125.7231,-8.7826,588.7612],[125.7252,-8.777,636.5897],[125.7221,-8.773,644.9147],[125.7189,-8.7727,661.6854],[125.7182,-8.7702,665.1866],[125.7152,-8.77,669.4197],[125.7141,-8.7676,666.1547],[125.7101,-8.7664,685.3164],[125.7065,-8.7623,686.616],[125.7023,-8.7619,708.366],[125.7009,-8.7647,749.5927],[125.6964,-8.7640999999999991,802.3509],[125.6937,-8.7606,782.6029],[125.6915,-8.7614,792.8154],[125.6894,-8.7593,749.1409],[125.6841,-8.7608,735.572],[125.6867,-8.7558,770.6974],[125.6812,-8.7558,779.849],[125.6769,-8.757,758.6077],[125.6757,-8.7591,764.0241],[125.6744,-8.7581,757.6024],[125.6717,-8.7637,773.476],[125.6715,-8.7591,773.6097],[125.67,-8.7608,773.0947],[125.6652,-8.761,843.9506],[125.6636,-8.7632,795.3659],[125.6604,-8.764,806.04],[125.6578,-8.7628,801.5414],[125.6502,-8.7661,822.2781],[125.6451,-8.7741,839.2287],[125.6467,-8.7767,864.3234],[125.6462,-8.7828,894.639],[125.6443,-8.7847,893.8901],[125.645,-8.7881,886.4653],[125.6429,-8.788,877.61],[125.6426,-8.79,890.6557]]]]}}