{"type":"Feature","properties":{"GID_3":"TLS.7.2.4_1","GID_0":"TLS","country":"Timor-Leste","GID_1":"TLS.7_1","province":"Dili","NL_NAME_1":"NA","GID_2":"TLS.7.2_1","county":"DiliBarat","NL_NAME_2":"NA","city":"BairoAlto","VARNAME_3":"LahaneBarat","NL_NAME_3":"NA","TYPE_3":"Suco","ENGTYPE_3":"Community","CC_3":"NA","HASC_3":"NA","name":"Bairo_Alto.city"},
"geometry":{"type": "MultiPolygon","coordinates": [[[[125.5831,-8.5677,29.8169],[125.582,-8.5656,22.9407],[125.5801,-8.5674,31.0642],[125.575,-8.5682,53.9864],[125.5724,-8.5644,6.9885],[125.5706,-8.5668,76.9308],[125.574,-8.5745,272.5204],[125.5762,-8.5748,252.9669],[125.5807,-8.5742,77.8151],[125.5831,-8.5677,29.8169]]]]}}