{"type": "Feature","bbox": [126.4863,-8.6034,126.5621,-8.5413],"geometry": {"type": "MultiPolygon","coordinates": [[[[126.514,-8.566,346.3839],[126.4877,-8.5821,231.4854],[126.4863,-8.5862,169.7644],[126.4892,-8.5861,182.9231],[126.4924,-8.5882,163.1499],[126.4972,-8.5982,187.4583],[126.4996,-8.5969,228.4482],[126.5057,-8.6011,234.4553],[126.5128,-8.5994,287.3068],[126.5143,-8.601,236.3964],[126.5188,-8.6008,291.6629],[126.5246,-8.6034,273.7795],[126.5401,-8.593,477.1945],[126.5404,-8.5914,494.8962],[126.5437,-8.5908,558.0768],[126.5463,-8.5849,613.6493],[126.5465,-8.5802,553.7921],[126.5543,-8.5751,579.0267],[126.5542,-8.5706,445.0107],[126.5567,-8.5703,453.8663],[126.5621,-8.5659,384.2876],[126.5589,-8.5635,289.8419],[126.5581,-8.5596,241.5655],[126.5553,-8.558,229.2605],[126.5548,-8.5538,236.0814],[126.5501,-8.5514,187.4044],[126.5466,-8.5444,184.3995],[126.5417,-8.544,142.0114],[126.5384,-8.5413,139.6495],[126.5387,-8.5433,139.2509],[126.5356,-8.5481,187.7527],[126.5234,-8.554,166.3361],[126.5226,-8.5564,233.9553],[126.5165,-8.5612,294.566],[126.5157,-8.5666,364.5837],[126.514,-8.566,346.3839]]]]}
,"properties": {"GID_3": "TLS.4.4.11_1","GID_0": "TLS","country": "Timor-Leste","GID_1": "TLS.4_1","province": "Baucau","NL_NAME_1": "NA","GID_2": "TLS.4.4_1","county": "Quelicai","NL_NAME_2": "NA","city": "Makalako","VARNAME_3": "Macalaco","NL_NAME_3": "NA","TYPE_3": "Suco","ENGTYPE_3": "Community","CC_3": "NA","HASC_3": "NA","name": "Makalako.city","area_km2": 28.74323,"hist_schema_id": "Elevation0-9000","hist_area_km2": {"125": 0.04193,"150": 0.29353,"175": 0.9854,"200": 1.4047,"225": 1.84496,"250": 2.2433,"275": 2.64161,"300": 2.93512,"325": 2.76739,"350": 3.12379,"375": 2.93511,"400": 2.47386,"425": 2.22227,"450": 0.94342,"475": 0.75473,"500": 0.44026,"525": 0.31447,"550": 0.20965,"575": 0.16772}}}