{"type": "Feature","bbox": [125.5003,-8.3028,125.5788,-8.2422],"geometry": {"type": "MultiPolygon","coordinates": [[[[125.5115,-8.2523,0.5069],[125.5033,-8.2589,7.4142],[125.5003,-8.2658,0.0],[125.5058,-8.2756,0.0],[125.5289,-8.2969,0.0],[125.5531,-8.2978,4.8017],[125.5564,-8.3028,33.018],[125.5601,-8.3026,22.1418],[125.5666,-8.2859,337.0742],[125.5788,-8.2808,761.7202],[125.5781,-8.2751,809.5401],[125.5759,-8.2729,941.8684],[125.5768,-8.27,951.5838],[125.5756,-8.263,923.5795],[125.5709,-8.2573,817.3691],[125.5685,-8.2449,604.4822],[125.5643,-8.2458,639.3739],[125.5518,-8.2422,481.1719],[125.5418,-8.2482,528.0201],[125.5396,-8.2569,718.3494],[125.5313,-8.2641,697.5666],[125.5233,-8.262,365.0641],[125.517,-8.2571,156.0965],[125.5158,-8.2577,156.0965],[125.5115,-8.2523,0.5069]]]]}
,"properties": {"GID_3": "TLS.7.1.3_1","GID_0": "TLS","country": "Timor-Leste","GID_1": "TLS.7_1","province": "Dili","NL_NAME_1": "NA","GID_2": "TLS.7.1_1","county": "Atauro","NL_NAME_2": "NA","city": "Macadade","VARNAME_3": "NA","NL_NAME_3": "NA","TYPE_3": "Suco","ENGTYPE_3": "Community","CC_3": "NA","HASC_3": "NA","name": "Macadade.city","area_km2": 34.32589,"hist_schema_id": "Elevation0-9000","hist_area_km2": {"0": 0.71335,"25": 0.60845,"50": 0.8812,"75": 0.8812,"100": 1.04905,"125": 0.92317,"150": 0.92316,"175": 0.75532,"200": 0.73434,"225": 0.88122,"250": 0.69238,"275": 0.75533,"300": 0.73434,"325": 0.52453,"350": 0.52453,"375": 0.48257,"400": 0.69238,"425": 0.92318,"450": 0.65043,"475": 1.2589,"500": 1.13303,"525": 1.34284,"550": 2.26606,"575": 1.27989,"600": 1.44775,"625": 1.40579,"650": 1.30088,"675": 1.42677,"700": 1.72052,"725": 1.57364,"750": 1.30086,"775": 0.60847,"800": 0.65043,"825": 0.44062,"850": 0.18884,"875": 0.08393,"900": 0.20982,"925": 0.2308,"950": 0.10491,"975": 0.02098}}}