{"type":"Feature","properties":{"GID_3":"TLS.1.2.1_1","GID_0":"TLS","country":"Timor-Leste","GID_1":"TLS.1_1","province":"Aileu","NL_NAME_1":"NA","GID_2":"TLS.1.2_1","county":"LauLara","NL_NAME_2":"NA","city":"Bocolelo","VARNAME_3":"Fatisi","NL_NAME_3":"NA","TYPE_3":"Suco","ENGTYPE_3":"Community","CC_3":"NA","HASC_3":"NA","name":"Bocolelo.city"},
"geometry":{"type": "MultiPolygon","coordinates": [[[[125.5215,-8.6465,361.1588],[125.5269,-8.6626,642.2039],[125.5298,-8.6653,668.9606],[125.5309,-8.6696,709.4108],[125.5337,-8.6701,674.2529],[125.5353,-8.6635,830.6945],[125.5471,-8.6506,1260.818],[125.5451,-8.648,1114.891],[125.5369,-8.6449,853.6657],[125.5312,-8.6359,696.7589],[125.5266,-8.644,674.3961],[125.5215,-8.6465,361.1588]]]]}}