{"type":"Feature","properties":{"GID_3":"TLS.7.4.2_1","GID_0":"TLS","country":"Timor-Leste","GID_1":"TLS.7_1","province":"Dili","NL_NAME_1":"NA","GID_2":"TLS.7.4_1","county":"Metinaro","NL_NAME_2":"NA","city":"Kotomorin","VARNAME_3":"Duyung","NL_NAME_3":"NA","TYPE_3":"Suco","ENGTYPE_3":"Community","CC_3":"NA","HASC_3":"NA","name":"Kotomorin.city"},
"geometry":{"type": "MultiPolygon","coordinates": [[[[125.7661,-8.571,893.4053],[125.7732,-8.5688,751.041],[125.7753,-8.5666,754.4128],[125.7775,-8.5589,521.3949],[125.7807,-8.5551,331.203],[125.7817,-8.5449,172.0389],[125.7843,-8.5421,141.6148],[125.7905,-8.5429,195.6197],[125.7928,-8.5359,417.5065],[125.7905,-8.5339,434.0304],[125.7908,-8.5322,412.9186],[125.7728,-8.5327,194.7337],[125.7538,-8.5369,18.3737],[125.7502,-8.5356,12.3106],[125.7477,-8.5324,5.6932],[125.7451,-8.5487,371.5519],[125.7345,-8.5529,151.3651],[125.7235,-8.5503,195.2176],[125.7202,-8.5509,303.0977],[125.7198,-8.5613,689.1784],[125.7236,-8.5637,707.8253],[125.7315,-8.5654,687.1067],[125.7354,-8.5639,652.7809],[125.7408,-8.5671,700.5107],[125.7454,-8.5644,656.0525],[125.7536,-8.5639,758.4409],[125.7567,-8.5678,789.859],[125.7607,-8.5663,819.7643],[125.7661,-8.571,893.4053]]]]}}