{"type":"Feature","properties":{"GID_3":"TLS.4.1.8_1","GID_0":"TLS","country":"Timor-Leste","GID_1":"TLS.4_1","province":"Baucau","NL_NAME_1":"NA","GID_2":"TLS.4.1_1","county":"Baguia","NL_NAME_2":"NA","city":"Lavateri","VARNAME_3":"LavaTeri","NL_NAME_3":"NA","TYPE_3":"Suco","ENGTYPE_3":"Community","CC_3":"NA","HASC_3":"NA","name":"Lavateri.city"},
"geometry":{"type": "MultiPolygon","coordinates": [[[[126.6938,-8.5614,387.6609],[126.6882,-8.5608,428.9037],[126.6847,-8.5566,467.9585],[126.6787,-8.5576,570.6722],[126.6633,-8.5508,959.1751],[126.6569,-8.5392,861.8896],[126.6373,-8.5228,518.4188],[126.6406,-8.5391,1100.3561],[126.6395,-8.542,1097.5034],[126.6326,-8.546,1115.2571],[126.6298,-8.5576,1113.4159],[126.6263,-8.5629,1000.9068],[126.6268,-8.5672,1249.3594],[126.6373,-8.5712,1007.8322],[126.6423,-8.5751,777.6425],[126.6517,-8.5766,769.0818],[126.6551,-8.5746,783.2661],[126.662,-8.5742,663.0212],[126.6686,-8.5788,498.3042],[126.6731,-8.5771,548.4368],[126.676,-8.5794,458.3322],[126.6815,-8.5759,448.2743],[126.6815,-8.5734,451.5774],[126.6849,-8.5727,442.3094],[126.6857,-8.568,415.967],[126.6872,-8.5683,407.6557],[126.6938,-8.5614,387.6609]]]]}}