{"type": "Feature","bbox": [125.103,-9.2381,125.1988,-9.1708],"geometry": {"type": "MultiPolygon","coordinates": [[[[125.1719,-9.1725,601.4739],[125.1554,-9.173,663.126],[125.1482,-9.1708,678.8751],[125.1421,-9.1735,685.9119],[125.1345,-9.1743,734.063],[125.1319,-9.1791,745.393],[125.125,-9.1823,780.9828],[125.1226,-9.1853,808.3021],[125.1164,-9.1865,825.9584],[125.1079,-9.1924,936.7124],[125.1056,-9.1962,949.5524],[125.1054,-9.2049,1076.459],[125.103,-9.2128,1217.7053],[125.109,-9.223,1597.7393],[125.1208,-9.2209,1501.9155],[125.1296,-9.2113,1575.0327],[125.1325,-9.2112,1608.5945],[125.1361,-9.2142,1604.1525],[125.1472,-9.2134,1678.7986],[125.149,-9.2159,1480.8193],[125.1624,-9.2139,1123.5631],[125.1667,-9.218,908.1102],[125.171,-9.2281,687.6222],[125.1764,-9.2311,532.2727],[125.183,-9.2381,282.9071],[125.1872,-9.2381,299.6081],[125.193,-9.2283,315.9381],[125.1911,-9.2245,341.9379],[125.1916,-9.2176,433.6064],[125.1966,-9.2097,485.8376],[125.1965,-9.2058,428.9996],[125.1988,-9.2027,431.7074],[125.1969,-9.1998,454.0082],[125.1986,-9.1956,469.6683],[125.1894,-9.1875,518.8896],[125.1871,-9.1821,523.0453],[125.1834,-9.1814,589.6035],[125.1826,-9.1793,549.1498],[125.1719,-9.1725,601.4739]]]]}
,"properties": {"GID_2": "TLS.6.1_1","GID_0": "TLS","country": "Timor-Leste","GID_1": "TLS.6_1","province": "Covalima","NL_NAME_1": "NA","county": "FatuFulic","VARNAME_2": "FatoLulik","NL_NAME_2": "NA","TYPE_2": "Subdistrito","ENGTYPE_2": "Subdistrict","CC_2": "NA","HASC_2": "NA","name": "Fatu_Fulic.county","area_km2": 46.08666,"hist_schema_id": "Elevation0-9000","hist_area_km2": {"275": 0.02093,"300": 0.18835,"325": 0.14649,"350": 0.29299,"375": 0.23021,"400": 0.31392,"425": 0.39763,"450": 0.39764,"475": 0.293,"500": 0.46043,"525": 0.83716,"550": 0.81624,"575": 0.89996,"600": 1.00461,"625": 1.2767,"650": 1.23485,"675": 1.36044,"700": 1.65346,"725": 1.33951,"750": 1.50695,"775": 1.54882,"800": 1.54882,"825": 1.33951,"850": 1.31858,"875": 1.23487,"900": 1.10929,"925": 1.15114,"950": 1.25579,"975": 1.15114,"1000": 1.29765,"1025": 0.85812,"1050": 1.08834,"1075": 0.9209,"1100": 0.98369,"1125": 0.69067,"1150": 0.81625,"1175": 0.79532,"1200": 0.71159,"1225": 0.58602,"1250": 0.96275,"1275": 0.69066,"1300": 0.77438,"1325": 0.6488,"1350": 0.46044,"1375": 0.71159,"1400": 0.52323,"1425": 0.52323,"1450": 0.56508,"1475": 0.62787,"1500": 0.77437,"1525": 0.9418,"1550": 0.64879,"1575": 0.62787,"1600": 0.52322,"1625": 0.35579,"1650": 0.293,"1675": 0.18836,"1700": 0.10464,"1725": 0.06279}}}