{"type":"Feature","properties":{"GID_3":"TLS.4.3.5_1","GID_0":"TLS","country":"Timor-Leste","GID_1":"TLS.4_1","province":"Baucau","NL_NAME_1":"NA","GID_2":"TLS.4.3_1","county":"Laga","NL_NAME_2":"NA","city":"Saelari","VARNAME_3":"NA","NL_NAME_3":"NA","TYPE_3":"Suco","ENGTYPE_3":"Community","CC_3":"NA","HASC_3":"NA","name":"Saelari.city"},
"geometry":{"type": "MultiPolygon","coordinates": [[[[126.7236,-8.503,155.3116],[126.7308,-8.5015,102.907],[126.7337,-8.4947,128.5739],[126.7417,-8.4954,83.0558],[126.7461,-8.4913,78.7289],[126.7407,-8.4919,111.45],[126.7367,-8.4873,149.7637],[126.7297,-8.4866,178.8256],[126.7166,-8.4799,456.6438],[126.7117,-8.4682,249.1899],[126.7126,-8.4658,261.5845],[126.7081,-8.4588,199.7682],[126.6962,-8.4716,454.0383],[126.6834,-8.4814,469.2684],[126.6825,-8.4856,439.0068],[126.6839,-8.492,492.9966],[126.6805,-8.4969,521.7286],[126.6833,-8.4999,462.6496],[126.692,-8.5008,402.5408],[126.6948,-8.5026,346.7177],[126.702,-8.5003,288.1732],[126.706,-8.5031,233.8937],[126.709,-8.5019,256.5264],[126.7156,-8.5077,205.0344],[126.7198,-8.5077,142.2667],[126.7236,-8.503,155.3116]]]]}}