{"type": "Feature","bbox": [126.8062,-8.7606,126.8645,-8.7092],"geometry": {"type": "MultiPolygon","coordinates": [[[[126.8079,-8.7302,139.8187],[126.81,-8.7412,142.0959],[126.8085,-8.7521,13.118],[126.8062,-8.756,6.0059],[126.8116,-8.7565,8.8204],[126.8149,-8.7601,0.0],[126.8217,-8.7606,4.0718],[126.8278,-8.7565,2.6951],[126.8489,-8.7523,5.9101],[126.8645,-8.7438,6.1871],[126.858,-8.7399,59.6651],[126.8552,-8.7335,73.5186],[126.8483,-8.7272,365.7455],[126.8346,-8.7172,316.8115],[126.8318,-8.7178,453.5099],[126.8277,-8.7092,379.1531],[126.8223,-8.713,396.2845],[126.8265,-8.7171,459.0479],[126.8252,-8.7205,396.1454],[126.8221,-8.7202,352.8525],[126.8205,-8.7236,320.0944],[126.8172,-8.7253,259.8674],[126.8102,-8.7265,160.1101],[126.8078,-8.7283,122.5898],[126.8079,-8.7302,139.8187]]]]}
,"properties": {"GID_3": "TLS.9.1.5_1","GID_0": "TLS","country": "Timor-Leste","GID_1": "TLS.9_1","province": "Lautém","NL_NAME_1": "NA","GID_2": "TLS.9.1_1","county": "Iliomar","NL_NAME_2": "NA","city": "IliomarIi","VARNAME_3": "NA","NL_NAME_3": "NA","TYPE_3": "Suco","ENGTYPE_3": "Community","CC_3": "NA","HASC_3": "NA","name": "Iliomar_Ii.city","area_km2": 19.61488,"hist_schema_id": "Elevation0-9000","hist_area_km2": {"0": 0.9849,"25": 1.34114,"50": 0.85918,"75": 1.29924,"100": 1.71837,"125": 1.59264,"150": 1.17353,"175": 1.21545,"200": 1.08972,"225": 1.06877,"250": 1.19451,"275": 1.21547,"300": 0.79634,"325": 1.00591,"350": 0.79635,"375": 0.67062,"400": 0.52392,"425": 0.37723,"450": 0.2934,"475": 0.20957,"500": 0.18862}}}