{"type": "Feature","bbox": [125.5023,-9.2261,125.615,-9.0103],"geometry": {"type": "MultiPolygon","coordinates": [[[[125.54,-9.163,64.5238],[125.5321,-9.186,34.3643],[125.5277,-9.1942,25.7298],[125.5218,-9.1951,20.8607],[125.5171,-9.1994,15.4646],[125.5141,-9.207,11.7477],[125.506,-9.2162,7.1892],[125.5049,-9.2197,12.347],[125.5079,-9.2213,9.8587],[125.5023,-9.2261,3.6111],[125.5111,-9.2242,1.9942],[125.5161,-9.2214,5.2408],[125.546,-9.2194,0.0],[125.5594,-9.21,0.0],[125.5611,-9.2067,0.6556],[125.5625,-9.2072,0.0],[125.5797,-9.1947,0.0],[125.5886,-9.1897,0.0],[125.5967,-9.1875,1.4288],[125.5944,-9.1855,12.4361],[125.5946,-9.1837,17.6147],[125.5962,-9.1835,16.6796],[125.5977,-9.1797,59.5855],[125.6022,-9.177,39.3807],[125.6032,-9.1714,58.6118],[125.5985,-9.1663,90.5315],[125.5974,-9.161,170.2196],[125.5986,-9.1588,203.1499],[125.6035,-9.1564,263.7543],[125.6061,-9.1502,377.2089],[125.6118,-9.1433,275.3965],[125.609,-9.1339,391.4626],[125.6146,-9.1253,378.1067],[125.6147,-9.1203,373.0799],[125.6126,-9.1166,358.6647],[125.6141,-9.1128,345.2212],[125.61,-9.1074,311.0471],[125.6122,-9.1013,302.0362],[125.6083,-9.0974,274.5544],[125.615,-9.0873,445.5173],[125.6136,-9.084,486.6577],[125.6053,-9.0793,406.4835],[125.6035,-9.0762,335.8028],[125.6087,-9.0687,261.6342],[125.6053,-9.0662,276.273],[125.6007,-9.0559,312.0517],[125.5954,-9.0509,376.3297],[125.5962,-9.0314,402.15],[125.5923,-9.0241,441.169],[125.5934,-9.0164,511.2853],[125.586,-9.0103,564.7725],[125.5787,-9.0103,533.7051],[125.5736,-9.0145,441.3894],[125.5703,-9.0125,419.5659],[125.5652,-9.0156,396.4406],[125.5628,-9.0146,372.3921],[125.5615,-9.0162,331.6014],[125.5582,-9.0165,325.4489],[125.5531,-9.0283,293.6973],[125.5563,-9.0319,317.7632],[125.5534,-9.0376,272.1498],[125.5536,-9.0435,299.3658],[125.558,-9.0525,253.5491],[125.5609,-9.0554,236.2149],[125.5605,-9.0636,222.0295],[125.5643,-9.0693,208.8448],[125.5663,-9.0768,225.958],[125.5693,-9.0796,200.0778],[125.5633,-9.0855,177.9392],[125.5639,-9.0984,169.2535],[125.5568,-9.1031,149.2623],[125.5521,-9.1236,121.2317],[125.5501,-9.1257,120.6078],[125.5498,-9.1331,105.6577],[125.5441,-9.1456,90.5555],[125.54,-9.163,64.5238]]]]}
,"properties": {"GID_3": "TLS.2.3.2_1","GID_0": "TLS","country": "Timor-Leste","GID_1": "TLS.2_1","province": "Ainaro","NL_NAME_1": "NA","GID_2": "TLS.2.3_1","county": "HatoHudo","NL_NAME_2": "NA","city": "Leolima","VARNAME_3": "NA","NL_NAME_3": "NA","TYPE_3": "Suco","ENGTYPE_3": "Community","CC_3": "NA","HASC_3": "NA","name": "Leolima.city","area_km2": 130.5436,"hist_schema_id": "Elevation0-9000","hist_area_km2": {"0": 11.6365,"25": 10.9672,"50": 3.1396,"75": 2.6373,"100": 3.8723,"125": 2.8467,"150": 3.6631,"175": 3.4958,"200": 4.438,"225": 5.6732,"250": 5.9245,"275": 7.4319,"300": 7.3901,"325": 8.1229,"350": 9.1486,"375": 8.8764,"400": 7.0759,"425": 6.3015,"450": 4.2919,"475": 3.4336,"500": 1.6123,"525": 1.2145,"550": 2.1358,"575": 1.4867,"600": 1.4867,"625": 0.8585,"650": 0.7748,"675": 0.3769,"700": 0.1885,"725": 0.0419}}}