{"type": "Feature","bbox": [126.5523,-8.6325,126.579,-8.59],"geometry": {"type": "MultiPolygon","coordinates": [[[[126.5662,-8.6269,927.909],[126.5724,-8.6325,1174.8884],[126.5776,-8.6321,1281.266],[126.579,-8.6271,1229.5417],[126.5784,-8.6116,862.0166],[126.5767,-8.6083,775.333],[126.578,-8.5999,644.0677],[126.5684,-8.59,570.8326],[126.567,-8.5924,599.2657],[126.569,-8.5983,718.7365],[126.5664,-8.6003,726.2957],[126.5664,-8.6038,816.1371],[126.5553,-8.6085,652.1287],[126.5523,-8.6175,617.8077],[126.5607,-8.6213,789.4984],[126.5662,-8.6269,927.909]]]]}
,"properties": {"GID_3": "TLS.4.4.6_1","GID_0": "TLS","country": "Timor-Leste","GID_1": "TLS.4_1","province": "Baucau","NL_NAME_1": "NA","GID_2": "TLS.4.4_1","county": "Quelicai","NL_NAME_2": "NA","city": "Laculiu","VARNAME_3": "LacoLiu","NL_NAME_3": "NA","TYPE_3": "Suco","ENGTYPE_3": "Community","CC_3": "NA","HASC_3": "NA","name": "Laculiu.city","area_km2": 7.462847,"hist_schema_id": "Elevation0-9000","hist_area_km2": {"600": 0.083853,"625": 0.083854,"650": 0.230598,"675": 0.440236,"700": 0.524086,"725": 0.419267,"750": 0.461193,"775": 0.524081,"800": 0.524081,"825": 0.377336,"850": 0.46119,"875": 0.566004,"900": 0.335406,"925": 0.272518,"950": 0.29348,"975": 0.37733,"1000": 0.209626,"1025": 0.167701,"1050": 0.209625,"1075": 0.104812,"1100": 0.188662,"1125": 0.125774,"1150": 0.125774,"1175": 0.125773,"1200": 0.083849,"1225": 0.083849,"1250": 0.020962,"1275": 0.041924}}}