{"type": "Feature","bbox": [124.3547,-9.286,124.4034,-9.2405],"geometry": {"type": "MultiPolygon","coordinates": [[[[124.3643,-9.2421,240.288],[124.3618,-9.2483,193.9733],[124.3676,-9.2548,368.5612],[124.3696,-9.263,513.7576],[124.3658,-9.2716,228.2166],[124.355,-9.2721,72.6742],[124.3547,-9.2755,51.1083],[124.3562,-9.2777,53.5519],[124.3625,-9.281,59.5209],[124.371,-9.2813,67.952],[124.3748,-9.284,71.8901],[124.379,-9.2832,76.8119],[124.3858,-9.2857,87.0688],[124.3906,-9.2842,93.5379],[124.4034,-9.286,260.1454],[124.3982,-9.2767,135.3864],[124.3919,-9.2727,160.9193],[124.3929,-9.2696,177.3417],[124.391,-9.2678,197.1298],[124.3941,-9.2566,349.0844],[124.3929,-9.2524,446.2543],[124.3935,-9.2459,614.8431],[124.3895,-9.2466,562.9907],[124.3768,-9.2405,374.2372],[124.3683,-9.2439,162.948],[124.3643,-9.2421,240.288]]]]}
,"properties": {"GID_3": "TLS.3.3.1_1","GID_0": "TLS","country": "Timor-Leste","GID_1": "TLS.3_1","province": "Ambeno","NL_NAME_1": "NA","GID_2": "TLS.3.3_1","county": "PanteMacassar","NL_NAME_2": "NA","city": "Bobocasa","VARNAME_3": "Bobocasse","NL_NAME_3": "NA","TYPE_3": "Suco","ENGTYPE_3": "Community","CC_3": "NA","HASC_3": "NA","name": "Bobocasa.city","area_km2": 15.06644,"hist_schema_id": "Elevation0-9000","hist_area_km2": {"50": 0.6696,"75": 1.12993,"100": 0.71144,"125": 0.79515,"150": 0.73238,"175": 1.04626,"200": 0.75331,"225": 0.94164,"250": 0.69054,"275": 0.62777,"300": 0.6487,"325": 0.58593,"350": 0.46037,"375": 0.69056,"400": 0.52316,"425": 0.66964,"450": 0.69057,"475": 0.54409,"500": 0.60686,"525": 0.64871,"550": 0.33482,"575": 0.29297,"600": 0.10463,"625": 0.12556,"650": 0.02093,"675": 0.02093}}}