{"type":"Feature","properties":{"GID_3":"TLS.1.3.7_1","GID_0":"TLS","country":"Timor-Leste","GID_1":"TLS.1_1","province":"Aileu","NL_NAME_1":"NA","GID_2":"TLS.1.3_1","county":"Lequidoe","NL_NAME_2":"NA","city":"Namoleso","VARNAME_3":"NA","NL_NAME_3":"NA","TYPE_3":"Suco","ENGTYPE_3":"Community","CC_3":"NA","HASC_3":"NA","name":"Namoleso.city"},
"geometry":{"type": "MultiPolygon","coordinates": [[[[125.647,-8.7479,836.7448],[125.6501,-8.7467,838.34],[125.6491,-8.7418,825.4793],[125.651,-8.7412,886.9736],[125.6538,-8.7347,935.6369],[125.6643,-8.7273,1034.1252],[125.6607,-8.7207,1153.7888],[125.6605,-8.714,1164.4705],[125.6642,-8.7004,849.3799],[125.6635,-8.6987,830.1892],[125.648,-8.7014,956.1974],[125.6339,-8.7162,1408.2466],[125.6369,-8.7229,1368.9227],[125.6396,-8.725,1338.365],[125.6382,-8.7351,912.0161],[125.6406,-8.7384,848.0092],[125.644,-8.74,837.3245],[125.647,-8.7479,836.7448]]]]}}