{"type":"Feature","properties":{"GID_3":"TLS.7.2.9_1","GID_0":"TLS","country":"Timor-Leste","GID_1":"TLS.7_1","province":"Dili","NL_NAME_1":"NA","GID_2":"TLS.7.2_1","county":"DiliBarat","NL_NAME_2":"NA","city":"Florestal","VARNAME_3":"Dare","NL_NAME_3":"NA","TYPE_3":"Suco","ENGTYPE_3":"Community","CC_3":"NA","HASC_3":"NA","name":"Florestal.city"},
"geometry":{"type": "MultiPolygon","coordinates": [[[[125.5603,-8.6261,246.3593],[125.566,-8.6262,338.3817],[125.5652,-8.6238,370.7755],[125.5674,-8.6228,487.1902],[125.5693,-8.6241,453.0386],[125.573,-8.6232,493.6015],[125.5754,-8.6216,493.0996],[125.5757,-8.6194,554.6169],[125.5796,-8.6189,538.5276],[125.5893,-8.6086,846.2014],[125.5892,-8.6014,743.3087],[125.5834,-8.6017,723.4495],[125.5743,-8.5958,490.7852],[125.5773,-8.5909,324.5038],[125.5763,-8.5845,239.0234],[125.5728,-8.584,299.8242],[125.5682,-8.5912,385.6404],[125.5615,-8.5895,227.8073],[125.5609,-8.5925,256.3351],[125.5556,-8.5944,471.2324],[125.5551,-8.5982,608.922],[125.5569,-8.602,607.822],[125.5554,-8.6039,699.4096],[125.5511,-8.6003,717.1702],[125.5413,-8.6107,519.1853],[125.5405,-8.6188,137.0309],[125.5438,-8.6221,222.3853],[125.5482,-8.6211,247.2451],[125.5502,-8.6234,198.1122],[125.5529,-8.6227,241.0846],[125.5603,-8.6261,246.3593]]]]}}