{"type":"Feature","properties":{"GID_3":"TLS.3.2.2_1","GID_0":"TLS","country":"Timor-Leste","GID_1":"TLS.3_1","province":"Ambeno","NL_NAME_1":"NA","GID_2":"TLS.3.2_1","county":"OeSilo","NL_NAME_2":"NA","city":"Bobometo","VARNAME_3":"NA","NL_NAME_3":"NA","TYPE_3":"Suco","ENGTYPE_3":"Community","CC_3":"NA","HASC_3":"NA","name":"Bobometo.city"},
"geometry":{"type": "MultiPolygon","coordinates": [[[[124.3803,-9.3947,310.6642],[124.3793,-9.3933,306.0515],[124.3819,-9.39,300.9008],[124.3791,-9.3808,293.0186],[124.3741,-9.3766,288.6967],[124.3783,-9.3704,345.6388],[124.3779,-9.3653,415.2132],[124.3801,-9.3632,438.3856],[124.38,-9.3568,414.2661],[124.3896,-9.3606,485.3052],[124.4011,-9.3522,381.68],[124.402,-9.3457,295.7766],[124.4045,-9.3414,275.3145],[124.4009,-9.3366,218.4473],[124.3969,-9.3362,192.4048],[124.3946,-9.3307,203.0874],[124.3906,-9.3317,190.0342],[124.3891,-9.3284,164.8522],[124.3857,-9.3275,161.0113],[124.3835,-9.3244,154.2182],[124.3592,-9.3319,253.1239],[124.3516,-9.3479,270.529],[124.3484,-9.3492,244.4439],[124.3463,-9.3588,167.8083],[124.3536,-9.3624,184.1048],[124.3548,-9.3659,208.6099],[124.3468,-9.3764,540.0596],[124.3437,-9.39,538.6531],[124.3376,-9.3959,378.4594],[124.3394,-9.3982,425.3593],[124.3421,-9.3978,417.7675],[124.3484,-9.4017,487.7951],[124.3525,-9.4066,550.515],[124.3516,-9.4107,620.4625],[124.3538,-9.4165,717.7994],[124.3583,-9.4177,680.9844],[124.3612,-9.4205,547.3342],[124.3625,-9.4192,571.1063],[124.3668,-9.4195,524.9684],[124.3726,-9.4147,416.0994],[124.3739,-9.4087,429.2219],[124.3716,-9.406,398.6895],[124.3734,-9.4051,385.8827],[124.3745,-9.4063,402.3129],[124.3772,-9.4037,375.9612],[124.3725,-9.4011,388.5979],[124.379,-9.3986,339.4482],[124.3803,-9.3947,310.6642]]]]}}