{"type": "Feature","bbox": [125.2777,-9.1483,125.332,-9.1118],"geometry": {"type": "MultiPolygon","coordinates": [[[[125.2798,-9.1239,590.345],[125.2777,-9.1316,705.0577],[125.2844,-9.1332,867.7949],[125.2883,-9.1403,1022.1376],[125.2988,-9.1411,876.9535],[125.2959,-9.148,1138.0087],[125.2987,-9.1483,1160.5439],[125.305,-9.1462,1229.8522],[125.3171,-9.1478,1032.194],[125.318,-9.1427,720.0526],[125.3262,-9.137,527.6892],[125.329,-9.13,359.59],[125.332,-9.1281,286.2188],[125.3312,-9.1268,297.0402],[125.3246,-9.1258,367.0204],[125.321,-9.1223,573.8494],[125.3195,-9.1194,614.986],[125.3198,-9.1118,399.3581],[125.3119,-9.1132,413.8289],[125.3084,-9.1159,428.9574],[125.3005,-9.1139,456.568],[125.2922,-9.1202,522.0665],[125.2822,-9.1214,579.2303],[125.2798,-9.1239,590.345]]]]}
,"properties": {"GID_3": "TLS.5.5.3_1","GID_0": "TLS","country": "Timor-Leste","GID_1": "TLS.5_1","province": "Bobonaro","NL_NAME_1": "NA","GID_2": "TLS.5.5_1","county": "Lolotoi","NL_NAME_2": "NA","city": "Guda","VARNAME_3": "NA","NL_NAME_3": "NA","TYPE_3": "Suco","ENGTYPE_3": "Community","CC_3": "NA","HASC_3": "NA","name": "Guda.city","area_km2": 14.25577,"hist_schema_id": "Elevation0-9000","hist_area_km2": {"300": 0.08373,"325": 0.10467,"350": 0.14654,"375": 0.08373,"400": 0.27214,"425": 0.37681,"450": 0.50242,"475": 0.50242,"500": 0.73269,"525": 0.54428,"550": 0.62801,"575": 0.71175,"600": 0.83735,"625": 0.75362,"650": 0.85828,"675": 0.83735,"700": 0.56521,"725": 0.79548,"750": 0.56521,"775": 0.39773,"800": 0.3768,"825": 0.3768,"850": 0.5024,"875": 0.314,"900": 0.314,"925": 0.3768,"950": 0.27213,"975": 0.2512,"1000": 0.27213,"1025": 0.20933,"1050": 0.1256,"1075": 0.1256,"1100": 0.08373,"1125": 0.1256,"1150": 0.0628,"1175": 0.0628,"1200": 0.04187,"1225": 0.02093,"1250": 0.04187}}}