{"type": "Feature","bbox": [125.9282,-9.0574,126.1547,-8.6951],"geometry": {"type": "MultiPolygon","coordinates": [[[[126.1514,-8.9917,0.0],[126.1547,-8.9904,1.8407],[126.1506,-8.9896,10.3322],[126.1495,-8.9843,22.44],[126.1435,-8.9825,23.1134],[126.1428,-8.9779,32.2483],[126.1443,-8.9766,32.2483],[126.1427,-8.9733,35.0128],[126.1447,-8.9692,27.4137],[126.1416,-8.9689,26.8331],[126.142,-8.9663,30.2369],[126.1379,-8.9661,31.53],[126.1372,-8.9622,25.0017],[126.1321,-8.962,30.4952],[126.1261,-8.9531,35.3145],[126.1199,-8.9516,35.8778],[126.1177,-8.9487,36.8551],[126.1086,-8.947,40.0372],[126.1044,-8.9412,44.6954],[126.1006,-8.9225,56.4329],[126.1002,-8.9098,89.1798],[126.0976,-8.9032,117.0134],[126.0923,-8.8972,87.5347],[126.0925,-8.8923,81.5855],[126.0878,-8.8879,98.403],[126.0881,-8.8844,210.6455],[126.0847,-8.8845,95.4918],[126.0878,-8.8769,120.0634],[126.092,-8.8728,109.4364],[126.0886,-8.8628,124.0744],[126.0934,-8.8565,142.8928],[126.0942,-8.8481,148.1383],[126.0883,-8.8406,151.6391],[126.0776,-8.8359,191.0744],[126.0744,-8.8318,195.7163],[126.0754,-8.8236,189.5669],[126.0738,-8.8184,201.8396],[126.0656,-8.8105,220.2909],[126.0594,-8.8068,243.7671],[126.0581,-8.8036,237.7333],[126.0555,-8.8043,241.0709],[126.0549,-8.7997,248.1838],[126.0478,-8.7951,273.3408],[126.0518,-8.7881,300.8704],[126.0463,-8.7774,339.0436],[126.0479,-8.7697,491.2754],[126.0513,-8.7646,676.4429],[126.0493,-8.7609,765.672],[126.0564,-8.7569,687.1974],[126.0615,-8.7571,550.8483],[126.0711,-8.7473,674.8789],[126.0764,-8.7455,588.6882],[126.0882,-8.7336,525.2086],[126.0915,-8.7275,422.9906],[126.0909,-8.7261,424.2915],[126.0972,-8.7219,395.7422],[126.0981,-8.7192,403.3614],[126.0966,-8.7188,389.5542],[126.0968,-8.7127,345.5213],[126.0947,-8.7077,377.5888],[126.0978,-8.7055,318.0516],[126.0968,-8.7037,305.6466],[126.0991,-8.7021,298.6906],[126.0981,-8.6991,308.2939],[126.0966,-8.6991,286.499],[126.0972,-8.6951,273.4531],[126.0873,-8.7061,513.0183],[126.0815,-8.7093,509.1634],[126.0709,-8.7111,818.1297],[126.0648,-8.71,892.414],[126.0574,-8.7132,902.9261],[126.0545,-8.7164,924.5593],[126.0504,-8.7266,922.0929],[126.043,-8.731,1007.1494],[126.0356,-8.7299,1072.5093],[126.0209,-8.7189,776.1449],[126.0184,-8.7187,739.1155],[126.0114,-8.712,641.7993],[126.0064,-8.7154,663.494],[126.0023,-8.7159,738.9288],[125.9932,-8.7221,988.2852],[125.9908,-8.7275,1022.1675],[125.9968,-8.7335,1038.7468],[125.9976,-8.7404,1033.353],[126.0035,-8.7463,1031.6021],[126.0191,-8.7415,1121.3081],[126.0149,-8.7559,1163.5862],[126.0166,-8.7575,1079.9908],[126.015,-8.7617,1085.7407],[126.0207,-8.7686,987.342],[126.0182,-8.7874,488.8158],[126.0246,-8.799,343.8362],[126.0309,-8.8039,309.8113],[126.0303,-8.8067,322.5942],[126.0248,-8.8189,404.7598],[126.0089,-8.8213,594.1097],[126.0081,-8.8246,707.3578],[126.0047,-8.828,796.1045],[126.0057,-8.8351,862.5182],[125.9939,-8.843,597.8115],[125.9849,-8.861,684.7929],[125.9766,-8.8625,616.3098],[125.9684,-8.8724,509.3763],[125.964,-8.8873,349.203],[125.9578,-8.8907,311.4478],[125.9515,-8.89,285.5295],[125.9487,-8.8913,273.9542],[125.9447,-8.8999,249.0353],[125.9412,-8.9,231.9277],[125.9315,-8.9188,198.927],[125.9282,-8.9226,200.7854],[125.9286,-8.9251,194.1026],[125.937,-8.933,219.1212],[125.9367,-8.938,181.515],[125.9399,-8.9391,176.3157],[125.9438,-8.9382,166.7219],[125.9469,-8.9505,163.8416],[125.9566,-8.9607,139.2113],[125.9715,-8.9682,116.8413],[125.9758,-8.9684,102.1968],[125.9798,-8.9707,101.2468],[125.996,-8.9823,75.3936],[125.9987,-8.9862,72.9337],[126.0112,-8.9918,56.6649],[126.0164,-8.9908,54.55],[126.0209,-8.9954,47.0361],[126.026,-8.9979,41.6776],[126.0276,-9.0025,41.6074],[126.0336,-9.0097,32.9753],[126.035,-9.0151,24.5],[126.043,-9.0162,32.787],[126.0494,-9.0336,18.4088],[126.0548,-9.036,25.8098],[126.0541,-9.0421,14.4621],[126.0575,-9.0424,17.5922],[126.0586,-9.0507,5.3188],[126.0628,-9.0574,4.4341],[126.0811,-9.0397,0.0],[126.0878,-9.03,0.0],[126.0976,-9.0218,2.0987],[126.1005,-9.0217,0.0],[126.126,-9.0031,2.7114],[126.1433,-8.9942,7.4698],[126.1514,-8.9917,0.0]]]]}
,"properties": {"GID_2": "TLS.11.1_1","GID_0": "TLS","country": "Timor-Leste","GID_1": "TLS.11_1","province": "Manatuto","NL_NAME_1": "NA","county": "Barique","VARNAME_2": "NA","NL_NAME_2": "NA","TYPE_2": "Subdistrito","ENGTYPE_2": "Subdistrict","CC_2": "NA","HASC_2": "NA","name": "Barique.county","area_km2": 397.2992,"hist_schema_id": "Elevation0-9000","hist_area_km2": {"0": 8.5435,"25": 65.0863,"50": 24.3775,"75": 16.0221,"100": 14.5353,"125": 12.0223,"150": 12.2111,"175": 9.6561,"200": 9.4888,"225": 10.1801,"250": 9.7195,"275": 10.5576,"300": 12.3383,"325": 11.9403,"350": 11.731,"375": 12.5481,"400": 12.2339,"425": 11.5846,"450": 10.8096,"475": 10.0974,"500": 9.3852,"525": 8.9872,"550": 8.4218,"575": 7.5001,"600": 6.369,"625": 6.2223,"650": 6.2434,"675": 5.7826,"700": 5.0074,"725": 5.1124,"750": 4.4211,"775": 4.0232,"800": 3.6041,"825": 3.1222,"850": 2.5355,"875": 2.4098,"900": 2.2841,"925": 2.1794,"950": 1.7603,"975": 1.5088,"1000": 1.6345,"1025": 1.2154,"1050": 0.8382,"1075": 0.6496,"1100": 0.2096,"1125": 0.1676,"1150": 0.021}}}