{"type":"Feature","properties":{"GID_3":"TLS.5.4.4_1","GID_0":"TLS","country":"Timor-Leste","GID_1":"TLS.5_1","province":"Bobonaro","NL_NAME_1":"NA","GID_2":"TLS.5.4_1","county":"Cailaco","NL_NAME_2":"NA","city":"Goulolo","VARNAME_3":"NA","NL_NAME_3":"NA","TYPE_3":"Suco","ENGTYPE_3":"Community","CC_3":"NA","HASC_3":"NA","name":"Goulolo.city"},
"geometry":{"type": "MultiPolygon","coordinates": [[[[125.3252,-8.9215,242.4994],[125.3192,-8.9127,228.1841],[125.3143,-8.911,216.2866],[125.3139,-8.9045,208.6983],[125.2986,-8.9061,267.2594],[125.2866,-8.9133,395.3899],[125.2794,-8.9141,604.2695],[125.2738,-8.9173,765.1663],[125.2704,-8.92,806.7186],[125.2718,-8.9234,791.7464],[125.2691,-8.9313,938.2339],[125.2654,-8.9331,1071.5146],[125.2702,-8.9403,1312.8552],[125.2697,-8.9427,1311.5515],[125.2713,-8.9447,1330.9541],[125.2766,-8.9457,1089.1334],[125.283,-8.9384,786.9754],[125.2913,-8.9374,545.5409],[125.3067,-8.9315,370.4319],[125.3112,-8.9324,346.7844],[125.3168,-8.9266,294.245],[125.3236,-8.925,273.5891],[125.3252,-8.9215,242.4994]]]]}}