{"type": "Feature","bbox": [125.3523,-8.749,125.3806,-8.7036],"geometry": {"type": "MultiPolygon","coordinates": [[[[125.3578,-8.7041,433.4295],[125.3544,-8.705,435.4247],[125.3523,-8.7036,406.3091],[125.3543,-8.71,531.5688],[125.3525,-8.7214,652.2924],[125.3581,-8.7321,810.9082],[125.3551,-8.7409,1028.7026],[125.3578,-8.7465,1190.3201],[125.3609,-8.749,1317.8372],[125.3651,-8.7435,1289.0123],[125.3701,-8.7452,1318.0347],[125.3725,-8.743,1304.2456],[125.3777,-8.7434,1313.9445],[125.3806,-8.7412,1234.1954],[125.3691,-8.73,826.1101],[125.371,-8.7263,759.1149],[125.3689,-8.7189,633.1459],[125.3634,-8.7113,548.0412],[125.3582,-8.7088,546.2427],[125.3578,-8.7041,433.4295]]]]}
,"properties": {"GID_3": "TLS.8.3.9_1","GID_0": "TLS","country": "Timor-Leste","GID_1": "TLS.8_1","province": "Ermera","NL_NAME_1": "NA","GID_2": "TLS.8.3_1","county": "Hatólia","NL_NAME_2": "NA","city": "Lisafat","VARNAME_3": "Lisapat","NL_NAME_3": "NA","TYPE_3": "Suco","ENGTYPE_3": "Community","CC_3": "NA","HASC_3": "NA","name": "Lisafat.city","area_km2": 7.334829,"hist_schema_id": "Elevation0-9000","hist_area_km2": {"400": 0.020958,"425": 0.041916,"450": 0.083832,"475": 0.020958,"500": 0.020958,"525": 0.104789,"550": 0.08383,"575": 0.125745,"600": 0.209576,"625": 0.230531,"650": 0.209573,"675": 0.104786,"700": 0.1467,"725": 0.335314,"750": 0.20957,"775": 0.377226,"800": 0.20957,"825": 0.377223,"850": 0.188611,"875": 0.440091,"900": 0.31435,"925": 0.335305,"950": 0.398176,"975": 0.251477,"1000": 0.251476,"1025": 0.167649,"1050": 0.146693,"1075": 0.209561,"1100": 0.167649,"1125": 0.230516,"1150": 0.188603,"1175": 0.167648,"1200": 0.251471,"1225": 0.25147,"1250": 0.167646,"1275": 0.209558,"1300": 0.062867,"1325": 0.020956}}}