{"type": "Feature","bbox": [126.4736,-8.6477,126.5573,-8.5859],"geometry": {"type": "MultiPolygon","coordinates": [[[[126.4736,-8.5936,125.1207],[126.4765,-8.5966,145.8201],[126.4781,-8.6038,134.2015],[126.4757,-8.6072,157.665],[126.4776,-8.6084,142.8665],[126.4783,-8.6123,151.7311],[126.4823,-8.6113,164.9492],[126.4875,-8.6169,171.0915],[126.4953,-8.6127,235.3006],[126.4996,-8.6144,210.5905],[126.5064,-8.6143,236.7915],[126.5227,-8.6227,348.1213],[126.5323,-8.6226,446.3558],[126.5358,-8.624,488.5197],[126.5409,-8.6301,547.5824],[126.5391,-8.6352,596.877],[126.5439,-8.6472,757.9718],[126.551,-8.6477,912.848],[126.5565,-8.6402,945.818],[126.5573,-8.6274,798.4622],[126.5528,-8.6177,617.8077],[126.5489,-8.6194,577.7444],[126.5482,-8.622,643.2755],[126.5448,-8.6246,628.2268],[126.5426,-8.623,606.467],[126.542,-8.62,586.3588],[126.5308,-8.6098,402.9739],[126.5267,-8.6024,305.9317],[126.5222,-8.6031,260.5923],[126.5128,-8.5994,287.3068],[126.5057,-8.6011,234.4553],[126.4996,-8.5969,228.4482],[126.4972,-8.5982,187.4583],[126.4924,-8.5882,163.1499],[126.4884,-8.5859,186.7697],[126.4772,-8.5903,138.0324],[126.4736,-8.5936,125.1207]]]]}
,"properties": {"GID_3": "TLS.4.4.4_1","GID_0": "TLS","country": "Timor-Leste","GID_1": "TLS.4_1","province": "Baucau","NL_NAME_1": "NA","GID_2": "TLS.4.4_1","county": "Quelicai","NL_NAME_2": "NA","city": "Bualale","VARNAME_3": "NA","NL_NAME_3": "NA","TYPE_3": "Suco","ENGTYPE_3": "Community","CC_3": "NA","HASC_3": "NA","name": "Bualale.city","area_km2": 19.30699,"hist_schema_id": "Elevation0-9000","hist_area_km2": {"125": 0.2935,"150": 0.96435,"175": 1.04819,"200": 1.3836,"225": 1.53034,"250": 1.5513,"275": 1.44648,"300": 1.53033,"325": 1.00624,"350": 0.88045,"375": 0.64985,"400": 0.54504,"425": 0.44022,"450": 0.33541,"475": 0.3354,"500": 0.23059,"525": 0.31444,"550": 0.25155,"575": 0.31443,"600": 0.29347,"625": 0.44021,"650": 0.37732,"675": 0.6079,"700": 0.58694,"725": 0.67078,"750": 0.56597,"775": 0.20961,"800": 0.25154,"825": 0.08385,"850": 0.02096,"875": 0.08385,"900": 0.06288}}}