{"type": "Feature","bbox": [125.5931,-8.5617,125.6132,-8.5511],"geometry": {"type": "MultiPolygon","coordinates": [[[[125.6106,-8.5617,43.9873],[125.6132,-8.5518,274.6955],[125.5977,-8.5511,70.4991],[125.5931,-8.5522,9.1439],[125.5956,-8.5555,18.1101],[125.6106,-8.5617,43.9873]]]]}
,"properties": {"GID_3": "TLS.7.3.9_1","GID_0": "TLS","country": "Timor-Leste","GID_1": "TLS.7_1","province": "Dili","NL_NAME_1": "NA","GID_2": "TLS.7.3_1","county": "DiliTimur","NL_NAME_2": "NA","city": "BidauSantana","VARNAME_3": "NA","NL_NAME_3": "NA","TYPE_3": "Suco","ENGTYPE_3": "Community","CC_3": "NA","HASC_3": "NA","name": "Bidau_Santana.city","area_km2": 1.614404,"hist_schema_id": "Elevation0-9000","hist_area_km2": {"0": 0.041933,"25": 0.524156,"50": 0.251594,"75": 0.188696,"100": 0.062899,"125": 0.167731,"150": 0.062899,"175": 0.083865,"200": 0.104832,"225": 0.083866,"250": 0.020966,"300": 0.020966}}}