{"type": "Feature","bbox": [125.2169,-9.1239,125.3134,-9.0627],"geometry": {"type": "MultiPolygon","coordinates": [[[[125.3051,-9.0655,614.7414],[125.2947,-9.0716,881.8919],[125.2914,-9.0773,930.3863],[125.2806,-9.0823,995.519],[125.2631,-9.0776,1278.7117],[125.2537,-9.072,1599.2507],[125.2515,-9.0627,1683.0081],[125.2451,-9.0633,1680.2958],[125.2299,-9.069,1650.1003],[125.2241,-9.0749,1494.0587],[125.2181,-9.0775,1448.333],[125.2169,-9.0797,1385.8351],[125.2185,-9.0895,1221.1357],[125.2219,-9.0969,1700.8064],[125.2389,-9.0943,1526.6857],[125.2573,-9.1022,1290.7198],[125.2593,-9.1036,1270.7856],[125.2601,-9.1076,1211.4724],[125.2651,-9.1104,1066.7872],[125.272,-9.1233,650.053],[125.2764,-9.1222,630.4329],[125.2798,-9.1239,590.345],[125.2822,-9.1214,579.2303],[125.2922,-9.1202,522.0665],[125.3005,-9.1139,456.568],[125.296,-9.1056,514.8901],[125.2993,-9.0924,1058.4529],[125.3059,-9.0868,1088.9839],[125.3134,-9.0763,846.8434],[125.308,-9.065,599.4056],[125.3051,-9.0655,614.7414]]]]}
,"properties": {"GID_3": "TLS.5.3.8_1","GID_0": "TLS","country": "Timor-Leste","GID_1": "TLS.5_1","province": "Bobonaro","NL_NAME_1": "NA","GID_2": "TLS.5.3_1","county": "Bobonaro","NL_NAME_2": "NA","city": "Leber","VARNAME_3": "NA","NL_NAME_3": "NA","TYPE_3": "Suco","ENGTYPE_3": "Community","CC_3": "NA","HASC_3": "NA","name": "Leber.city","area_km2": 36.40754,"hist_schema_id": "Elevation0-9000","hist_area_km2": {"450": 0.0628,"475": 0.10467,"500": 0.20935,"525": 0.33495,"550": 0.37682,"575": 0.35589,"600": 0.29309,"625": 0.4187,"650": 0.46056,"675": 0.35589,"700": 0.54432,"725": 0.39777,"750": 0.50245,"775": 0.54432,"800": 0.48151,"825": 0.58619,"850": 0.35591,"875": 0.5862,"900": 0.46058,"925": 0.62807,"950": 0.71183,"975": 0.87931,"1000": 1.00493,"1025": 1.08866,"1050": 1.25615,"1075": 1.21428,"1100": 1.46551,"1125": 1.50738,"1150": 1.50738,"1175": 1.27708,"1200": 1.33989,"1225": 1.06772,"1250": 0.85837,"1275": 0.77463,"1300": 0.46059,"1325": 0.50247,"1350": 0.43966,"1375": 0.52341,"1400": 0.35592,"1425": 0.52341,"1450": 0.31404,"1475": 0.39779,"1500": 0.43966,"1525": 0.48154,"1550": 0.2303,"1575": 0.62809,"1600": 0.64903,"1625": 0.69091,"1650": 0.85841,"1675": 0.64903,"1700": 0.8584,"1725": 0.75372,"1750": 0.60716,"1775": 0.50248,"1800": 0.35592,"1825": 0.54435,"1850": 0.33499,"1875": 0.18843,"1900": 0.08375,"1925": 0.02094}}}