{"type": "Feature","bbox": [125.1707,-9.1796,125.2324,-9.1131],"geometry": {"type": "MultiPolygon","coordinates": [[[[125.1794,-9.1664,806.0922],[125.1841,-9.1628,996.767],[125.1961,-9.1688,757.8975],[125.2122,-9.1708,554.5018],[125.2243,-9.1754,484.5231],[125.2296,-9.1796,438.1801],[125.2312,-9.1764,474.5309],[125.2324,-9.152,754.1304],[125.2254,-9.1431,1127.9871],[125.2227,-9.1328,986.8429],[125.2128,-9.1248,899.3695],[125.2071,-9.1244,882.4985],[125.1979,-9.1143,839.254],[125.1903,-9.1131,781.1507],[125.1817,-9.1184,552.6268],[125.17529999999999,-9.1174,534.8327],[125.1722,-9.1189,529.8972],[125.1707,-9.1227,538.2077],[125.1731,-9.1341,597.8092],[125.1757,-9.1368,639.871],[125.1763,-9.144,661.3889],[125.1793,-9.1468,694.623],[125.1789,-9.1536,773.9359],[125.1765,-9.1579,837.0382],[125.1794,-9.1664,806.0922]]]]}
,"properties": {"GID_3": "TLS.5.5.4_1","GID_0": "TLS","country": "Timor-Leste","GID_1": "TLS.5_1","province": "Bobonaro","NL_NAME_1": "NA","GID_2": "TLS.5.5_1","county": "Lolotoi","NL_NAME_2": "NA","city": "Lebos","VARNAME_3": "NA","NL_NAME_3": "NA","TYPE_3": "Suco","ENGTYPE_3": "Community","CC_3": "NA","HASC_3": "NA","name": "Lebos.city","area_km2": 31.37811,"hist_schema_id": "Elevation0-9000","hist_area_km2": {"450": 0.10465,"475": 0.16745,"500": 0.16745,"525": 0.33492,"550": 0.62798,"575": 0.62796,"600": 0.66985,"625": 1.02568,"650": 0.73264,"675": 1.06756,"700": 1.29784,"725": 1.23502,"750": 1.27689,"775": 1.48622,"800": 1.59088,"825": 1.46529,"850": 1.77927,"875": 1.80021,"900": 1.73743,"925": 2.0933,"950": 1.7793,"975": 2.36542,"1000": 1.75835,"1025": 2.07234,"1050": 1.0885,"1075": 0.43959,"1100": 0.31399,"1125": 0.14653,"1150": 0.10466,"1175": 0.02093}}}