{"type": "Feature","bbox": [125.3375,-9.0969,125.3728,-9.0534],"geometry": {"type": "MultiPolygon","coordinates": [[[[125.3375,-9.0692,336.6177],[125.3381,-9.0726,354.5514],[125.3481,-9.0833,367.0938],[125.3516,-9.0932,305.4078],[125.3512,-9.0958,281.6242],[125.3544,-9.0969,284.2439],[125.3565,-9.096,275.9922],[125.3603,-9.0887,262.8503],[125.3642,-9.0935,275.2071],[125.369,-9.0943,245.3194],[125.3658,-9.0876,277.8761],[125.368,-9.082,290.3834],[125.3699,-9.0825,305.2852],[125.3722,-9.0792,310.2449],[125.3728,-9.074,329.0291],[125.3694,-9.0704,349.1205],[125.3677,-9.0654,398.2926],[125.3624,-9.061,453.2951],[125.3597,-9.0534,577.4973],[125.3453,-9.0551,526.2588],[125.3388,-9.0577,372.7353],[125.338,-9.0598,379.9428],[125.3397,-9.0646,345.0691],[125.3375,-9.066,363.8129],[125.3375,-9.0692,336.6177]]]]}
,"properties": {"GID_3": "TLS.5.3.9_1","GID_0": "TLS","country": "Timor-Leste","GID_1": "TLS.5_1","province": "Bobonaro","NL_NAME_1": "NA","GID_2": "TLS.5.3_1","county": "Bobonaro","NL_NAME_2": "NA","city": "Lour","VARNAME_3": "NA","NL_NAME_3": "NA","TYPE_3": "Suco","ENGTYPE_3": "Community","CC_3": "NA","HASC_3": "NA","name": "Lour.city","area_km2": 11.766551,"hist_schema_id": "Elevation0-9000","hist_area_km2": {"250": 0.230294,"275": 0.439653,"300": 0.628082,"325": 0.711839,"350": 0.795594,"375": 0.984026,"400": 0.649044,"425": 0.732795,"450": 0.90029,"475": 0.586239,"500": 0.816549,"525": 0.75374,"550": 0.565306,"575": 0.607183,"600": 0.732811,"625": 0.523434,"650": 0.25125,"675": 0.23031,"700": 0.188435,"725": 0.125622,"750": 0.104685,"775": 0.167496,"800": 0.041874}}}