{"type": "Feature","bbox": [126.2911,-8.7019,126.4695,-8.5729],"geometry": {"type": "MultiPolygon","coordinates": [[[[126.453,-8.6776,220.4635],[126.4511,-8.6721,221.0868],[126.4549,-8.6705,214.2521],[126.4504,-8.6683,207.0796],[126.4502,-8.6661,219.651],[126.4479,-8.6656,205.6223],[126.4477,-8.6619,212.6087],[126.4448,-8.661,239.8528],[126.4469,-8.6562,178.4182],[126.449,-8.6552,176.5855],[126.4484,-8.6527,169.1906],[126.4546,-8.6469,168.5432],[126.4542,-8.6425,179.4537],[126.4589,-8.6406,153.7485],[126.4633,-8.6314,146.0183],[126.468,-8.629,144.2375],[126.4695,-8.6265,129.9178],[126.4674,-8.623,126.9203],[126.4633,-8.6228,125.103],[126.4603,-8.6208,120.4676],[126.4622,-8.6172,117.0842],[126.462,-8.6127,112.7946],[126.4595,-8.6127,113.4311],[126.459,-8.6106,115.2937],[126.4611,-8.6088,112.1275],[126.4658,-8.6091,107.9057],[126.466,-8.6052,109.217],[126.4623,-8.6041,107.6027],[126.4651,-8.5975,132.0398],[126.4609,-8.595,100.2451],[126.4537,-8.6008,95.1034],[126.4511,-8.5947,95.2994],[126.4544,-8.5939,88.6909],[126.4558,-8.5916,97.1308],[126.4542,-8.5872,82.5833],[126.4558,-8.5843,118.5512],[126.4551,-8.5816,84.9619],[126.4505,-8.5795,80.6283],[126.4395,-8.5792,134.5448],[126.4314,-8.575,157.9554],[126.4283,-8.575,188.9667],[126.4229,-8.578,232.5883],[126.4139,-8.5762,333.3289],[126.4093,-8.5774,376.5185],[126.4,-8.5763,493.282],[126.396,-8.5737,518.2663],[126.3925,-8.5749,535.8914],[126.3894,-8.5729,576.5649],[126.3856,-8.5749,584.1412],[126.3852,-8.5782,625.4634],[126.3744,-8.5794,707.1575],[126.3631,-8.577,720.0942],[126.3611,-8.5781,727.9291],[126.3568,-8.5838,753.3239],[126.3621,-8.5889,763.439],[126.3638,-8.5939,767.5286],[126.3726,-8.6069,797.3578],[126.3652,-8.6126,704.1097],[126.3622,-8.6174,650.2495],[126.3526,-8.6195,534.0115],[126.3468,-8.6227,490.5475],[126.3288,-8.6433,485.6096],[126.3251,-8.6494,825.0009],[126.3195,-8.6505,977.8622],[126.3185,-8.6542,840.8912],[126.3065,-8.6643,590.5729],[126.2953,-8.67,481.2682],[126.2911,-8.6693,460.6482],[126.3091,-8.6817,664.4174],[126.3173,-8.6811,789.967],[126.3227,-8.6785,855.7509],[126.324,-8.6757,871.4071],[126.3328,-8.6726,887.4645],[126.335,-8.6738,893.1376],[126.3382,-8.6809,937.5828],[126.3435,-8.6838,801.2241],[126.3518,-8.6806,756.6323],[126.3546,-8.6769,747.1072],[126.3581,-8.6773,734.8432],[126.357,-8.6717,726.5751],[126.3593,-8.6724,733.398],[126.3605,-8.6699,716.9662],[126.3643,-8.6691,710.2413],[126.3674,-8.6658,716.1509],[126.3762,-8.6658,706.4995],[126.3785,-8.6628,663.7789],[126.3806,-8.6625,669.0271],[126.3811,-8.6598,660.0477],[126.3852,-8.6604,653.5729],[126.3844,-8.6581,656.2678],[126.3866,-8.658,659.7571],[126.3878,-8.656,646.9175],[126.3938,-8.6583,631.1724],[126.3951,-8.6569,637.3363],[126.3977,-8.6596,629.0007],[126.395,-8.6602,635.819],[126.3906,-8.665,741.5978],[126.3906,-8.6731,957.7247],[126.3954,-8.6769,1124.4993],[126.3951,-8.6808,1184.8519],[126.3999,-8.6895,1352.6523],[126.4267,-8.6985,607.1707],[126.4424,-8.7019,316.6721],[126.4476,-8.6996,257.7613],[126.4487,-8.6939,255.262],[126.4529,-8.6913,238.4439],[126.4505,-8.6893,236.3789],[126.4501,-8.6853,242.3712],[126.4556,-8.6847,233.3515],[126.4563,-8.6825,235.0326],[126.4549,-8.6785,218.8756],[126.4535,-8.679,218.8756],[126.453,-8.6776,220.4635]]]]}
,"properties": {"GID_2": "TLS.4.6_1","GID_0": "TLS","country": "Timor-Leste","GID_1": "TLS.4_1","province": "Baucau","NL_NAME_1": "NA","county": "Venilale","VARNAME_2": "NA","NL_NAME_2": "NA","TYPE_2": "Subdistrito","ENGTYPE_2": "Subdistrict","CC_2": "NA","HASC_2": "NA","name": "Venilale.county","area_km2": 150.9252,"hist_schema_id": "Elevation0-9000","hist_area_km2": {"75": 0.7967,"100": 2.1593,"125": 2.5575,"150": 2.0335,"175": 2.6414,"200": 2.7042,"225": 3.2492,"250": 2.9767,"275": 3.2281,"300": 3.5845,"325": 3.1863,"350": 3.1023,"375": 2.9137,"400": 3.4168,"425": 3.9618,"450": 4.6326,"475": 4.7164,"500": 4.6955,"525": 5.3663,"550": 5.1147,"575": 4.5697,"600": 4.8213,"625": 5.0728,"650": 5.8273,"675": 5.995,"700": 7.2737,"725": 7.9236,"750": 8.5315,"775": 7.9444,"800": 6.5399,"825": 5.8481,"850": 4.4227,"875": 2.7458,"900": 2.662,"925": 0.7755,"950": 0.3563,"975": 0.2515,"1000": 0.2096,"1025": 0.1258,"1050": 0.2306,"1075": 0.1467,"1100": 0.2515,"1125": 0.2515,"1150": 0.1886,"1175": 0.3354,"1200": 0.1886,"1225": 0.2515,"1250": 0.0838,"1275": 0.0419,"1300": 0.021}}}