{"type": "Feature","bbox": [125.4959,-8.7825,125.5601,-8.7208],"geometry": {"type": "MultiPolygon","coordinates": [[[[125.5601,-8.7546,907.838],[125.5503,-8.7458,933.9851],[125.5335,-8.7208,1129.2415],[125.5278,-8.7248,1237.7926],[125.5232,-8.7258,1248.1667],[125.5223,-8.728,1287.0389],[125.5166,-8.7317,1236.1437],[125.5102,-8.7308,1176.2173],[125.502,-8.7319,1176.9973],[125.4992,-8.7384,1082.6844],[125.4989,-8.7443,1212.4742],[125.5041,-8.7506,1072.5852],[125.4988,-8.7542,1121.6036],[125.4998,-8.7578,1118.349],[125.4961,-8.7605,1205.7408],[125.4959,-8.7672,1340.3584],[125.5193,-8.7794,1223.5583],[125.5379,-8.7825,1361.3848],[125.5487,-8.7806,1184.1553],[125.5503,-8.7743,1084.4585],[125.5538,-8.7716,1010.5026],[125.5544,-8.768,1004.5444],[125.5519,-8.7611,940.6752],[125.5547,-8.761,927.889],[125.5565,-8.7567,914.4762],[125.5601,-8.7546,907.838]]]]}
,"properties": {"GID_3": "TLS.1.1.17_1","GID_0": "TLS","country": "Timor-Leste","GID_1": "TLS.1_1","province": "Aileu","NL_NAME_1": "NA","GID_2": "TLS.1.1_1","county": "Aileu","NL_NAME_2": "NA","city": "SukuLiurai","VARNAME_3": "Sukuliurai","NL_NAME_3": "NA","TYPE_3": "Suco","ENGTYPE_3": "Community","CC_3": "NA","HASC_3": "NA","name": "Suku_Liurai.city","area_km2": 31.4747,"hist_schema_id": "Elevation0-9000","hist_area_km2": {"900": 0.20955,"925": 1.76024,"950": 1.84406,"975": 2.32604,"1000": 2.87091,"1025": 3.03857,"1050": 2.5356,"1075": 1.80217,"1100": 2.03265,"1125": 2.03266,"1150": 1.67643,"1175": 1.7393,"1200": 1.34113,"1225": 1.57161,"1250": 1.08965,"1275": 0.85913,"1300": 0.7334,"1325": 0.60767,"1350": 0.46099,"1375": 0.35622,"1400": 0.2305,"1425": 0.23049,"1450": 0.12572}}}