{"type":"Feature","properties":{"GID_3":"TLS.4.5.5_1","GID_0":"TLS","country":"Timor-Leste","GID_1":"TLS.4_1","province":"Baucau","NL_NAME_1":"NA","GID_2":"TLS.4.5_1","county":"Vemasse","NL_NAME_2":"NA","city":"Uai-Gae","VARNAME_3":"UaiGae","NL_NAME_3":"NA","TYPE_3":"Suco","ENGTYPE_3":"Community","CC_3":"NA","HASC_3":"NA","name":"Uai-Gae.city"},
"geometry":{"type": "MultiPolygon","coordinates": [[[[126.1927,-8.5742,249.2009],[126.197,-8.5798,340.1601],[126.1922,-8.5995,291.782],[126.1961,-8.6043,297.0088],[126.2026,-8.6034,99.3271],[126.2051,-8.6081,111.3377],[126.2091,-8.6068,101.6381],[126.2099,-8.6087,103.016],[126.2132,-8.6095,114.4071],[126.2154,-8.606,148.1362],[126.2178,-8.6079,115.1543],[126.2202,-8.6009,175.9724],[126.2246,-8.6001,166.0591],[126.2296,-8.603,189.9401],[126.2318,-8.6018,195.3053],[126.2327,-8.6041,191.743],[126.2361,-8.6034,226.8172],[126.2397,-8.5997,212.4495],[126.2461,-8.6035,237.501],[126.2472,-8.6016,235.7162],[126.2524,-8.6011,273.7094],[126.2553,-8.599,286.9564],[126.2542,-8.5941,314.5563],[126.2573,-8.5883,315.4764],[126.2585,-8.5817,344.7954],[126.2545,-8.5768,380.2491],[126.2557,-8.5688,426.6862],[126.246,-8.5609,262.163],[126.2446,-8.5558,265.297],[126.2396,-8.5511,193.6619],[126.2277,-8.5517,132.7508],[126.2233,-8.5562,123.0893],[126.2247,-8.5591,115.5218],[126.2217,-8.5611,89.8848],[126.2133,-8.5614,65.9301],[126.2109,-8.5596,58.9692],[126.2105,-8.5557,60.2083],[126.2022,-8.5561,112.1242],[126.1953,-8.5601,179.0071],[126.1954,-8.566,248.7111],[126.1927,-8.5742,249.2009]]]]}}