{"type":"Feature","properties":{"GID_3":"TLS.2.1.3_1","GID_0":"TLS","country":"Timor-Leste","GID_1":"TLS.2_1","province":"Ainaro","NL_NAME_1":"NA","GID_2":"TLS.2.1_1","county":"Ainaro","NL_NAME_2":"NA","city":"Manutasi","VARNAME_3":"NA","NL_NAME_3":"NA","TYPE_3":"Suco","ENGTYPE_3":"Community","CC_3":"NA","HASC_3":"NA","name":"Manutasi.city"},
"geometry":{"type": "MultiPolygon","coordinates": [[[[125.5119,-8.994,790.3959],[125.5214,-8.9944,939.4618],[125.5244,-8.9924,983.7542],[125.5325,-8.9786,666.0089],[125.531,-8.9753,680.9496],[125.5343,-8.9681,716.1929],[125.5287,-8.9652,763.3732],[125.5273,-8.9628,830.678],[125.5235,-8.9624,819.6422],[125.5153,-8.9485,1014.5784],[125.5011,-8.9407,1514.2107],[125.4999,-8.9356,1715.9421],[125.4977,-8.9358,1863.5315],[125.4916,-8.9317,2207.7273],[125.489,-8.9244,2389.6226],[125.482,-8.9214,2598.2002],[125.4796,-8.9249,2659.6851],[125.4806,-8.9299,2680.2458],[125.4756,-8.9339,2552.8003],[125.487,-8.9445,2349.9922],[125.4914,-8.9509,1978.3743],[125.4938,-8.9511,1925.8102],[125.4972,-8.9544,1647.9497],[125.5006,-8.9631,1271.9196],[125.5075,-8.9733,943.8726],[125.5064,-8.9816,865.5682],[125.5111,-8.9888,806.0331],[125.5119,-8.994,790.3959]]]]}}