{"type":"Feature","properties":{"GID_3":"TLS.5.3.14_1","GID_0":"TLS","country":"Timor-Leste","GID_1":"TLS.5_1","province":"Bobonaro","NL_NAME_1":"NA","GID_2":"TLS.5.3_1","county":"Bobonaro","NL_NAME_2":"NA","city":"Oeleu","VARNAME_3":"NA","NL_NAME_3":"NA","TYPE_3":"Suco","ENGTYPE_3":"Community","CC_3":"NA","HASC_3":"NA","name":"Oeleu.city"},
"geometry":{"type": "MultiPolygon","coordinates": [[[[125.3005,-9.0301,1024.0154],[125.314,-9.019,754.3362],[125.3117,-9.0123,729.6621],[125.3104,-9.0151,759.5567],[125.3023,-9.0159,871.8654],[125.2995,-9.0182,978.055],[125.2853,-9.0178,937.4372],[125.278,-9.0207,1196.9824],[125.2643,-9.0434,1630.6602],[125.2645,-9.0497,1418.5587],[125.2703,-9.0524,1229.3481],[125.2961,-9.0573,791.666],[125.3059,-9.0495,532.3882],[125.3067,-9.0461,581.7264],[125.3053,-9.0376,864.6775],[125.3005,-9.0301,1024.0154]]]]}}