{"type":"Feature","properties":{"GID_3":"TLS.1.1.12_1","GID_0":"TLS","country":"Timor-Leste","GID_1":"TLS.1_1","province":"Aileu","NL_NAME_1":"NA","GID_2":"TLS.1.1_1","county":"Aileu","NL_NAME_2":"NA","city":"Lausi","VARNAME_3":"Lau-Si","NL_NAME_3":"NA","TYPE_3":"Suco","ENGTYPE_3":"Community","CC_3":"NA","HASC_3":"NA","name":"Lausi.city"},
"geometry":{"type": "MultiPolygon","coordinates": [[[[125.5975,-8.7907,990.7897],[125.5984,-8.7948,1060.2219],[125.5965,-8.8001,1189.7771],[125.5967,-8.806,1385.4729],[125.6071,-8.8079,1194.0645],[125.6089,-8.8028,1095.8079],[125.6052,-8.7949,1009.0361],[125.606,-8.7905,965.6034],[125.6083,-8.788,946.46489999999994],[125.6018,-8.7872,958.9027],[125.5975,-8.7907,990.7897]]]]}}