{"type": "Feature","bbox": [125.4027,-8.8662,125.444,-8.8128],"geometry": {"type": "MultiPolygon","coordinates": [[[[125.4027,-8.823,1097.2545],[125.4081,-8.8411,1355.1359],[125.4066,-8.8441,1254.4768],[125.4084,-8.8534,973.5566],[125.4064,-8.8594,833.0704],[125.4135,-8.8602,890.9285],[125.4195,-8.8568,895.9136],[125.4236,-8.8602,935.0345],[125.4258,-8.8651,951.2276],[125.4272,-8.8638,945.1568],[125.4284,-8.8662,969.7618],[125.4314,-8.8661,984.5281],[125.441,-8.8545,1169.9219],[125.444,-8.8453,1386.9917],[125.4363,-8.8371,1495.2504],[125.4377,-8.8261,1370.3184],[125.4321,-8.8262,1279.1265],[125.4285,-8.8213,1283.6713],[125.4212,-8.8221,1332.6074],[125.417,-8.8202,1228.9214],[125.4163,-8.8181,1196.2808],[125.4138,-8.8177,1157.5276],[125.4134,-8.815,1129.7513],[125.4106,-8.8142,1105.678],[125.4123,-8.814,1119.0256],[125.4113,-8.8128,1138.6104],[125.4041,-8.8231,1135.8103],[125.4027,-8.823,1097.2545]]]]}
,"properties": {"GID_3": "TLS.8.4.8_1","GID_0": "TLS","country": "Timor-Leste","GID_1": "TLS.8_1","province": "Ermera","NL_NAME_1": "NA","GID_2": "TLS.8.4_1","county": "Letefoho","NL_NAME_2": "NA","city": "Letefoho","VARNAME_3": "LeteFoho","NL_NAME_3": "NA","TYPE_3": "Suco","ENGTYPE_3": "Community","CC_3": "NA","HASC_3": "NA","name": "Letefoho.city","area_km2": 16.15268,"hist_schema_id": "Elevation0-9000","hist_area_km2": {"825": 0.02095,"850": 0.0419,"875": 0.06285,"900": 0.14665,"925": 0.37709,"950": 0.33519,"975": 0.35614,"1000": 0.43994,"1025": 0.46089,"1050": 0.46089,"1075": 0.56564,"1100": 0.79609,"1125": 0.7961,"1150": 0.90085,"1175": 0.92181,"1200": 0.64946,"1225": 0.62852,"1250": 0.69137,"1275": 0.71232,"1300": 0.67042,"1325": 0.85898,"1350": 0.83803,"1375": 0.90088,"1400": 0.85898,"1425": 0.77518,"1450": 0.77518,"1475": 0.50282,"1500": 0.33521,"1525": 0.23046,"1550": 0.0419}}}