{"type":"Feature","properties":{"GID_3":"TLS.8.2.2_1","GID_0":"TLS","country":"Timor-Leste","GID_1":"TLS.8_1","province":"Ermera","NL_NAME_1":"NA","GID_2":"TLS.8.2_1","county":"Ermera","NL_NAME_2":"NA","city":"Lauala","VARNAME_3":"NA","NL_NAME_3":"NA","TYPE_3":"Suco","ENGTYPE_3":"Community","CC_3":"NA","HASC_3":"NA","name":"Lauala.city"},
"geometry":{"type": "MultiPolygon","coordinates": [[[[125.4758,-8.7437,828.8544],[125.4736,-8.7425,807.3601],[125.4761,-8.7389,810.9583],[125.4757,-8.7368,786.1627],[125.4649,-8.7298,752.2676],[125.4588,-8.7298,744.939],[125.4538,-8.7244,725.7216],[125.4543,-8.7232,725.7216],[125.4496,-8.7211,717.0134],[125.4464,-8.7232,732.1945],[125.4465,-8.7168,705.8596],[125.4446,-8.7142,703.9053],[125.4417,-8.7149,701.3152],[125.4399,-8.7116,696.3923],[125.4367,-8.711,689.128],[125.4363,-8.7214,707.0056],[125.4488,-8.7384,760.5116],[125.4492,-8.7411,766.6665],[125.4451,-8.7514,926.6401],[125.4481,-8.7569,969.1139],[125.4475,-8.7648,1232.1996],[125.4496,-8.7652,1244.1554],[125.447,-8.7675,1261.7018],[125.4477,-8.7704,1214.0452],[125.4579,-8.7711,1262.1924],[125.4611,-8.7737,1182.7749],[125.4648,-8.7668,1130.4006],[125.464,-8.7655,1071.8663],[125.468,-8.7651,1074.4011],[125.471,-8.7623,1006.6827],[125.4718,-8.76,1008.5966],[125.4695,-8.7557,975.5422],[125.47,-8.7535,904.7035],[125.4733,-8.7504,863.36],[125.4758,-8.7437,828.8544]]]]}}