{"type": "Feature","bbox": [125.1747,-9.2018,125.2166,-9.1628],"geometry": {"type": "MultiPolygon","coordinates": [[[[125.1747,-9.175,600.3988],[125.1821,-9.179,549.1498],[125.1837,-9.1816,589.6035],[125.1871,-9.1821,523.0453],[125.1894,-9.1875,518.8896],[125.1982,-9.1948,488.863],[125.1969,-9.2002,454.0082],[125.1988,-9.2018,431.7074],[125.204,-9.1984,657.2552],[125.2166,-9.1729,545.4731],[125.2107,-9.1704,554.5018],[125.1961,-9.1688,757.8975],[125.1836,-9.1628,982.6739],[125.1794,-9.1664,806.0922],[125.1747,-9.175,600.3988]]]]}
,"properties": {"GID_3": "TLS.6.5.10_1","GID_0": "TLS","country": "Timor-Leste","GID_1": "TLS.6_1","province": "Covalima","NL_NAME_1": "NA","GID_2": "TLS.6.5_1","county": "SuaiKota","NL_NAME_2": "NA","city": "Lela","VARNAME_3": "Holpilat","NL_NAME_3": "NA","TYPE_3": "Suco","ENGTYPE_3": "Community","CC_3": "NA","HASC_3": "NA","name": "Lela.city","area_km2": 9.37695,"hist_schema_id": "Elevation0-9000","hist_area_km2": {"425": 0.020929,"450": 0.041859,"475": 0.104648,"500": 0.23023,"525": 0.188372,"550": 0.272098,"575": 0.376749,"600": 0.481403,"625": 0.502332,"650": 0.481403,"675": 0.418613,"700": 0.460475,"725": 0.481409,"750": 0.648854,"775": 0.648856,"800": 0.8163,"825": 0.920952,"850": 0.837235,"875": 0.690716,"900": 0.376756,"925": 0.167448,"950": 0.146518,"975": 0.062795}}}