{"type":"Feature","properties":{"GID_3":"TLS.4.4.12_1","GID_0":"TLS","country":"Timor-Leste","GID_1":"TLS.4_1","province":"Baucau","NL_NAME_1":"NA","GID_2":"TLS.4.4_1","county":"Quelicai","NL_NAME_2":"NA","city":"Maluro","VARNAME_3":"NA","NL_NAME_3":"NA","TYPE_3":"Suco","ENGTYPE_3":"Community","CC_3":"NA","HASC_3":"NA","name":"Maluro.city"},
"geometry":{"type": "MultiPolygon","coordinates": [[[[126.5257,-8.6647,460.3716],[126.5238,-8.6706,389.6295],[126.5261,-8.6751,378.6113],[126.5249,-8.6767,369.429],[126.5257,-8.6808,351.9324],[126.5304,-8.6822,383.9528],[126.5334,-8.681,426.6861],[126.5349,-8.6781,474.2558],[126.5257,-8.6647,460.3716]]]]}}