{"type": "Feature","bbox": [125.5645,-8.5745,125.574,-8.5567],"geometry": {"type": "MultiPolygon","coordinates": [[[[125.5724,-8.5644,6.9885],[125.5719,-8.5575,5.2393],[125.5688,-8.558,6.2122],[125.5688,-8.5567,6.0],[125.5645,-8.5594,7.5656],[125.5661,-8.5745,51.146],[125.574,-8.5745,272.5204],[125.5705,-8.5677,76.9308],[125.5724,-8.5644,6.9885]]]]}
,"properties": {"GID_3": "TLS.7.2.10_1","GID_0": "TLS","country": "Timor-Leste","GID_1": "TLS.7_1","province": "Dili","NL_NAME_1": "NA","GID_2": "TLS.7.2_1","county": "DiliBarat","NL_NAME_2": "NA","city": "Haksolok","VARNAME_3": "VilaVerde","NL_NAME_3": "NA","TYPE_3": "Suco","ENGTYPE_3": "Community","CC_3": "NA","HASC_3": "NA","name": "Haksolok.city","area_km2": 1.446634,"hist_schema_id": "Elevation0-9000","hist_area_km2": {"0": 0.52415,"25": 0.44028,"50": 0.125793,"75": 0.041931,"100": 0.125793,"125": 0.041931,"150": 0.020965,"175": 0.041931,"200": 0.062896,"275": 0.020965}}}