{"type": "Feature","bbox": [125.3376,-8.7045,125.5273,-8.5553],"geometry": {"type": "MultiPolygon","coordinates": [[[[125.3699,-8.7013,567.108],[125.3726,-8.6969,652.0093],[125.3797,-8.6914,937.3779],[125.3961,-8.6894,839.5746],[125.3988,-8.6847,767.1082],[125.3979,-8.6753,661.3892],[125.4,-8.6698,599.2335],[125.4039,-8.6681,578.0817],[125.4098,-8.6725,551.7351],[125.4165,-8.6702,532.3746],[125.4326,-8.6601,471.9608],[125.4356,-8.6536,473.6632],[125.4436,-8.6503,448.9323],[125.4472,-8.6452,522.3753],[125.4525,-8.6463,449.0745],[125.4551,-8.6489,448.7727],[125.4596,-8.6453,417.2878],[125.462,-8.6491,409.164],[125.4642,-8.648,429.754],[125.4642,-8.6454,388.188],[125.4671,-8.6468,361.2701],[125.4734,-8.6422,360.9979],[125.4798,-8.644,324.7875],[125.4854,-8.6435,284.3147],[125.4927,-8.6389,284.7169],[125.501,-8.6404,230.017],[125.5039,-8.6351,209.9698],[125.5139,-8.6349,181.8911],[125.5145,-8.6325,168.591],[125.5125,-8.629,165.9086],[125.5152,-8.6235,131.8384],[125.5239,-8.6189,111.1328],[125.5273,-8.6137,121.7658],[125.5188,-8.6129,388.2061],[125.5166,-8.6106,435.5302],[125.5184,-8.6034,314.6507],[125.5172,-8.5978,383.301],[125.519,-8.5966,383.301],[125.5202,-8.5913,410.131],[125.5187,-8.5859,359.3683],[125.5178,-8.5841,368.0081],[125.5073,-8.5805,198.0762],[125.5073,-8.5751,170.0559],[125.5015,-8.5713,147.9655],[125.5007,-8.5679,140.3631],[125.4934,-8.5616,77.8673],[125.4982,-8.5562,0.0],[125.4917,-8.5569,1.4024],[125.4856,-8.5553,0.0],[125.4803,-8.5568,1.963],[125.485,-8.5614,8.8529],[125.4856,-8.5656,0.8613],[125.4786,-8.5739,0.0],[125.473,-8.5732,0.0],[125.4709,-8.5672,0.0],[125.4647,-8.5686,2.0542],[125.4611,-8.5669,0.0],[125.4527,-8.5704,0.0],[125.45,-8.568,5.3018],[125.4478,-8.5714,13.4558],[125.4435,-8.5681,6.3793],[125.44,-8.5686,1.459],[125.4374,-8.5664,0.0],[125.4342,-8.5675,1.8478],[125.4256,-8.5628,0.0],[125.42,-8.5633,7.0305],[125.4167,-8.5617,7.6914],[125.4011,-8.5642,0.0],[125.3922,-8.5639,0.0],[125.3883,-8.5661,0.0],[125.3833,-8.5664,0.0],[125.3775,-8.5719,5.3653],[125.3719,-8.5731,17.9564],[125.3681,-8.5764,6.8192],[125.3617,-8.5768,0.8296],[125.3564,-8.5797,9.6253],[125.3525,-8.5789,0.0],[125.3447,-8.5833,3.7237],[125.3384,-8.5831,4.4538],[125.3376,-8.6066,149.0566],[125.3403,-8.6106,265.4573],[125.3389,-8.6142,194.1641],[125.3423,-8.6183,308.8933],[125.3431,-8.6227,300.0375],[125.3606,-8.6322,775.7659],[125.3634,-8.6351,1009.4645],[125.3641,-8.6399,907.6769],[125.3588,-8.6384,846.7011],[125.3583,-8.6405,881.9415],[125.3597,-8.6437,895.2581],[125.3642,-8.6471,1076.902],[125.3641,-8.6512,1170.0242],[125.3677,-8.6572,982.6903],[125.368,-8.6626,931.2975],[125.3653,-8.6723,855.1725],[125.3617,-8.6729,865.7533],[125.3614,-8.6751,842.0054],[125.3589,-8.6771,898.658],[125.3608,-8.6781,993.7004],[125.3617,-8.6869,922.795],[125.358,-8.6998,450.5115],[125.3636,-8.7012,506.0922],[125.3652,-8.7045,484.1604],[125.3676,-8.701,536.7759],[125.3699,-8.7013,567.108]]]]}
,"properties": {"GID_2": "TLS.10.1_1","GID_0": "TLS","country": "Timor-Leste","GID_1": "TLS.10_1","province": "Liquiçá","NL_NAME_1": "NA","county": "BazarTete","VARNAME_2": "Bazartete","NL_NAME_2": "NA","TYPE_2": "Subdistrito","ENGTYPE_2": "Subdistrict","CC_2": "NA","HASC_2": "NA","name": "Bazar_Tete.county","area_km2": 189.1277,"hist_schema_id": "Elevation0-9000","hist_area_km2": {"0": 8.0927,"25": 9.2456,"50": 7.4006,"75": 6.5829,"100": 6.3732,"125": 6.3732,"150": 5.6394,"175": 5.6393,"200": 5.6393,"225": 5.3248,"250": 4.633,"275": 4.7168,"300": 4.4023,"325": 4.57,"350": 4.5491,"375": 4.3603,"400": 3.7943,"425": 3.6476,"450": 3.5427,"475": 4.1087,"500": 4.8004,"525": 6.058,"550": 4.6536,"575": 4.5697,"600": 5.2823,"625": 5.6806,"650": 5.3243,"675": 4.6745,"700": 3.836,"725": 4.0666,"750": 2.8718,"775": 2.4315,"800": 1.7817,"825": 1.5302,"850": 1.6768,"875": 2.0122,"900": 1.6978,"925": 1.614,"950": 1.7607,"975": 1.6349,"1000": 1.4672,"1025": 1.1528,"1050": 1.6768,"1075": 1.3624,"1100": 1.3205,"1125": 1.069,"1150": 0.9642,"1175": 0.8803,"1200": 0.7336,"1225": 0.4611,"1250": 0.4821,"1275": 0.1467,"1300": 0.3354,"1325": 0.1677,"1350": 0.2096,"1375": 0.1048}}}