{"type":"Feature","properties":{"GID_3":"TLS.8.3.8_1","GID_0":"TLS","country":"Timor-Leste","GID_1":"TLS.8_1","province":"Ermera","NL_NAME_1":"NA","GID_2":"TLS.8.3_1","county":"Hatólia","NL_NAME_2":"NA","city":"LemiaSorinbalu","VARNAME_3":"LeimeaSorin|Balo","NL_NAME_3":"NA","TYPE_3":"Suco","ENGTYPE_3":"Community","CC_3":"NA","HASC_3":"NA","name":"Lemia_Sorinbalu.city"},
"geometry":{"type": "MultiPolygon","coordinates": [[[[125.3823,-8.8673,649.5696],[125.3867,-8.8655,687.9739],[125.3852,-8.8596,918.653],[125.3884,-8.8513,1108.6304],[125.3809,-8.8425,807.4023],[125.3782,-8.8431,792.7059],[125.3777,-8.8464,786.3226],[125.3739,-8.8497,722.376],[125.3678,-8.8502,668.0508],[125.3623,-8.8535,573.9889],[125.3593,-8.853,562.8273],[125.3533,-8.8588,479.1978],[125.3493,-8.8581,424.9221],[125.3428,-8.8657,339.7808],[125.3537,-8.8719,386.7842],[125.3586,-8.8682,399.8937],[125.3601,-8.8698,455.1003],[125.3632,-8.8696,459.1342],[125.3649,-8.8678,525.8387],[125.3724,-8.8697,550.7924],[125.3737,-8.8675,614.1968],[125.3773,-8.8687,619.0814],[125.3823,-8.8673,649.5696]]]]}}