{"type": "Feature","bbox": [125.3943,-9.1291,125.4142,-9.0945],"geometry": {"type": "MultiPolygon","coordinates": [[[[125.4072,-9.1291,342.2405],[125.4142,-9.1041,302.6768],[125.404,-9.0963,349.2874],[125.4017,-9.0963,400.8958],[125.4013,-9.0945,365.2765],[125.3987,-9.0945,372.4006],[125.3943,-9.1232,248.2114],[125.402,-9.1242,371.2706],[125.4072,-9.1291,342.2405]]]]}
,"properties": {"GID_3": "TLS.6.4.3_1","GID_0": "TLS","country": "Timor-Leste","GID_1": "TLS.6_1","province": "Covalima","NL_NAME_1": "NA","GID_2": "TLS.6.4_1","county": "Mape","NL_NAME_2": "NA","city": "Lepo","VARNAME_3": "NA","NL_NAME_3": "NA","TYPE_3": "Suco","ENGTYPE_3": "Community","CC_3": "NA","HASC_3": "NA","name": "Lepo.city","area_km2": 5.128999,"hist_schema_id": "Elevation0-9000","hist_area_km2": {"250": 0.083736,"275": 0.188407,"300": 0.14654,"325": 0.31402,"350": 0.711773,"375": 0.586169,"400": 0.85832,"425": 0.628046,"450": 0.43963,"475": 0.418698,"500": 0.418699,"525": 0.230284,"550": 0.104676}}}