{"type":"Feature","properties":{"GID_3":"TLS.3.3.11_1","GID_0":"TLS","country":"Timor-Leste","GID_1":"TLS.3_1","province":"Ambeno","NL_NAME_1":"NA","GID_2":"TLS.3.3_1","county":"PanteMacassar","NL_NAME_2":"NA","city":"TaibocoII","VARNAME_3":"Taiboco","NL_NAME_3":"NA","TYPE_3":"Suco","ENGTYPE_3":"Community","CC_3":"NA","HASC_3":"NA","name":"Taiboco_I_I.city"},
"geometry":{"type": "MultiPolygon","coordinates": [[[[124.2797,-9.3186,415.2465],[124.2791,-9.3134,462.0252],[124.2849,-9.3093,353.7991],[124.2901,-9.3081,253.0588],[124.2937,-9.3103,210.2657],[124.2954,-9.3082,194.3912],[124.2993,-9.3077,162.1787],[124.3024,-9.2991,305.0795],[124.3124,-9.2899,260.0326],[124.2865,-9.2875,522.9788],[124.2655,-9.2875,552.6304],[124.2408,-9.29,151.8671],[124.2413,-9.2988,250.2648],[124.2392,-9.3032,283.1416],[124.2425,-9.3065,298.217],[124.2247,-9.3153,608.0012],[124.2186,-9.3315,905.451],[124.2338,-9.3332,643.8815],[124.2365,-9.3309,614.9932],[124.2405,-9.3316,533.6852],[124.2458,-9.3283,485.5364],[124.2491,-9.321,382.0365],[124.2569,-9.3286,558.249],[124.2609,-9.3369,692.7324],[124.2633,-9.3371,707.6099],[124.2675,-9.3222,656.2736],[124.2703,-9.318,667.7761],[124.2746,-9.317,537.7639],[124.2797,-9.3186,415.2465]]]]}}