{"type": "Feature","bbox": [126.369,-8.6665,126.4252,-8.6322],"geometry": {"type": "MultiPolygon","coordinates": [[[[126.424,-8.6481,518.5396],[126.4215,-8.6322,878.0652],[126.4191,-8.6327,904.0869],[126.4139,-8.6397,791.8882],[126.3932,-8.6359,804.7502],[126.3856,-8.6424,793.1528],[126.3801,-8.6446,809.8533],[126.3762,-8.6442,825.0377],[126.3732,-8.6472,819.7095],[126.371,-8.6564,765.4175],[126.369,-8.6577,797.1697],[126.3725,-8.6606,747.9482],[126.3699,-8.6665,705.3682],[126.3762,-8.6658,706.4995],[126.3785,-8.6628,663.7789],[126.3806,-8.6625,669.0271],[126.3811,-8.6598,660.0477],[126.3852,-8.6604,653.5729],[126.3844,-8.6581,656.2678],[126.3866,-8.658,659.7571],[126.3882,-8.6559,646.9175],[126.3938,-8.6583,631.1724],[126.3951,-8.6569,637.3363],[126.4039,-8.6624,711.101],[126.411,-8.6576,527.2083],[126.4236,-8.654,474.2745],[126.4252,-8.6519,483.3244],[126.424,-8.6481,518.5396]]]]}
,"properties": {"GID_3": "TLS.4.6.4_1","GID_0": "TLS","country": "Timor-Leste","GID_1": "TLS.4_1","province": "Baucau","NL_NAME_1": "NA","GID_2": "TLS.4.6_1","county": "Venilale","NL_NAME_2": "NA","city": "Uailaho","VARNAME_3": "UaiLaha","NL_NAME_3": "NA","TYPE_3": "Suco","ENGTYPE_3": "Community","CC_3": "NA","HASC_3": "NA","name": "Uailaho.city","area_km2": 12.723374,"hist_schema_id": "Elevation0-9000","hist_area_km2": {"475": 0.104804,"500": 0.230569,"525": 0.188648,"550": 0.209609,"575": 0.146726,"600": 0.20961,"625": 0.272492,"650": 0.670745,"675": 1.048037,"700": 1.194767,"725": 1.362457,"750": 1.11093,"775": 1.572087,"800": 1.362484,"825": 1.236723,"850": 1.15288,"875": 0.524036,"900": 0.125769}}}