{"type": "Feature","bbox": [124.9771,-9.2764,125.0417,-9.1767],"geometry": {"type": "MultiPolygon","coordinates": [[[[124.9792,-9.2334,682.6836],[124.9795,-9.2336,682.6836],[124.979,-9.2329,674.9667],[124.978,-9.2326,683.1326],[124.9781,-9.233,682.6836],[124.9792,-9.2334,682.6836]]],
[[[124.9778,-9.2316,683.1326],[124.9779,-9.232,683.1326],[124.9781,-9.2313,674.9667],[124.9772,-9.2303,664.1104],[124.9771,-9.2307,664.1104],[124.9778,-9.2316,683.1326]]],
[[[124.9911,-9.2696,867.3094],[124.9967,-9.2764,748.3409],[125.0083,-9.2725,999.6996],[125.0181,-9.274,717.6004],[125.0233,-9.2702,700.2333],[125.0338,-9.27,878.028],[125.0404,-9.2653,811.4381],[125.041,-9.2628,749.3745],[125.0364,-9.2571,610.9203],[125.0417,-9.2524,537.1907],[125.0349,-9.2479,556.2618],[125.035,-9.2382,625.1379],[125.0325,-9.2345,719.4985],[125.0304,-9.2192,698.1209],[125.028,-9.217,639.5143],[125.0283,-9.2102,576.4957],[125.0235,-9.2074,563.3223],[125.0157,-9.2061,535.9038],[125.0124,-9.2026,533.0486],[125.0033,-9.201,498.125],[124.9984,-9.1957,509.3666],[124.9969,-9.1911,472.3614],[124.9931,-9.1883,466.0225],[124.9919,-9.1849,472.549],[124.9945,-9.1802,460.1675],[124.9928,-9.1767,442.8791],[124.9904,-9.1787,552.194],[124.9883,-9.1895,566.2609],[124.9845,-9.192,610.4874],[124.9827,-9.1914,642.042],[124.9814,-9.2111,819.8848],[124.9838,-9.2308,782.2041],[124.9821,-9.2354,690.2173],[124.983,-9.2409,714.8954],[124.9814,-9.242,729.7657],[124.9838,-9.2428,717.4028],[124.9853,-9.2462,719.9901],[124.9848,-9.2515,736.8937],[124.9883,-9.2552,756.3909],[124.9874,-9.2608,790.587],[124.9911,-9.2696,867.3094]]]]}
,"properties": {"GID_3": "TLS.6.2.1_1","GID_0": "TLS","country": "Timor-Leste","GID_1": "TLS.6_1","province": "Covalima","NL_NAME_1": "NA","GID_2": "TLS.6.2_1","county": "FatuMean","NL_NAME_2": "NA","city": "BelulikCraic","VARNAME_3": "Belulik-Leten","NL_NAME_3": "NA","TYPE_3": "Suco","ENGTYPE_3": "Community","CC_3": "NA","HASC_3": "NA","name": "Belulik_Craic.city","area_km2": 44.47063,"hist_schema_id": "Elevation0-9000","hist_area_km2": {"450": 0.04186,"475": 0.25116,"500": 0.64883,"525": 0.85811,"550": 0.89995,"575": 1.08828,"600": 1.44406,"625": 1.44403,"650": 1.65333,"675": 1.84165,"700": 2.44857,"725": 2.72059,"750": 2.80425,"775": 3.13909,"800": 2.99257,"825": 3.30646,"850": 3.09721,"875": 2.65774,"900": 2.49027,"925": 3.49476,"950": 2.36472,"975": 1.13002,"1000": 0.96259,"1025": 0.41851,"1050": 0.25111,"1075": 0.02093}}}