{"type":"Feature","properties":{"GID_3":"TLS.4.2.9_1","GID_0":"TLS","country":"Timor-Leste","GID_1":"TLS.4_1","province":"Baucau","NL_NAME_1":"NA","GID_2":"TLS.4.2_1","county":"Baucau","NL_NAME_2":"NA","city":"Samalari","VARNAME_3":"NA","NL_NAME_3":"NA","TYPE_3":"Suco","ENGTYPE_3":"Community","CC_3":"NA","HASC_3":"NA","name":"Samalari.city"},
"geometry":{"type": "MultiPolygon","coordinates": [[[[126.4592,-8.5192,202.8876],[126.4656,-8.522,99.3833],[126.4717,-8.527,38.2792],[126.4706,-8.5303,40.9561],[126.4749,-8.5344,43.7006],[126.4831,-8.5385,142.8563],[126.491,-8.5466,96.4809],[126.4961,-8.5487,80.6717],[126.4964,-8.5528,101.6135],[126.4989,-8.5557,140.9551],[126.5044,-8.5551,182.8409],[126.5084,-8.5611,220.586],[126.5157,-8.5666,364.5837],[126.5165,-8.5612,294.566],[126.5226,-8.5564,233.9553],[126.5234,-8.554,166.3361],[126.5202,-8.5497,147.7779],[126.5116,-8.5446,100.0421],[126.5092,-8.54,90.6494],[126.5061,-8.5377,89.521],[126.504,-8.5253,55.2039],[126.5008,-8.519,42.4249],[126.4977,-8.5228,40.2464],[126.495,-8.5235,44.4457],[126.4881,-8.5166,26.9267],[126.4884,-8.5139,29.5577],[126.4849,-8.5149,29.0213],[126.4794,-8.5132,35.459],[126.476,-8.516,50.7547],[126.4628,-8.5093,237.712],[126.4571,-8.5168,231.2484],[126.4592,-8.5192,202.8876]]]]}}