{"type": "Feature","bbox": [125.9247,-8.7309,126.0969,-8.4842],"geometry": {"type": "MultiPolygon","coordinates": [[[[126.0961,-8.6968,274.1696],[126.0969,-8.6949,273.4531],[126.095,-8.6969,309.6191],[126.085,-8.697,407.225],[126.0802,-8.6874,604.6309],[126.0746,-8.6854,699.5615],[126.0757,-8.6641,333.1398],[126.0727,-8.661,320.035],[126.0736,-8.6597,309.9214],[126.0715,-8.6556,286.947],[126.0738,-8.6372,218.2612],[126.0724,-8.634,218.5514],[126.0751,-8.6264,211.6317],[126.0787,-8.6262,209.4588],[126.0811,-8.629,199.592],[126.0819,-8.6265,196.804],[126.0804,-8.6255,190.4363],[126.0842,-8.6241,179.0517],[126.087,-8.6194,169.3184],[126.0843,-8.6164,166.8529],[126.0826,-8.6178,171.3654],[126.078,-8.6169,194.3536],[126.0737,-8.6185,188.8106],[126.0734,-8.615,238.1807],[126.0664,-8.6074,468.7333],[126.0642,-8.6003,618.647],[126.0666,-8.5934,680.8596],[126.062,-8.5861,510.9629],[126.0596,-8.5743,256.9055],[126.0635,-8.5664,195.889],[126.067,-8.565,173.1875],[126.0748,-8.5492,134.2079],[126.0819,-8.5459,76.0899],[126.0855,-8.541,57.0538],[126.0872,-8.5337,67.0423],[126.0857,-8.5322,34.132],[126.0867,-8.531,29.1066],[126.0854,-8.5283,27.1262],[126.0867,-8.5264,29.1993],[126.0854,-8.5188,0.2506],[126.0743,-8.5173,0.0],[126.0689,-8.5229,5.1416],[126.0677,-8.5225,2.4679],[126.0683,-8.5156,11.715],[126.0639,-8.5125,0.0],[126.0564,-8.5136,1.8119],[126.0512,-8.5169,1.6007],[126.0419,-8.5117,3.2417],[126.0283,-8.5128,0.0],[126.0255,-8.5109,0.0],[126.0194,-8.5114,5.0288],[126.0137,-8.5083,3.4793],[126.0097,-8.5026,0.0],[125.9958,-8.4978,0.7364],[125.9869,-8.4877,0.0],[125.9783,-8.4842,0.0],[125.9793,-8.4912,91.9351],[125.9767,-8.4956,129.0892],[125.9773,-8.5013,250.1953],[125.9723,-8.5089,298.192],[125.9741,-8.5105,260.2197],[125.9743,-8.5238,41.8679],[125.9662,-8.5383,43.6345],[125.9596,-8.5411,46.4782],[125.9594,-8.537,52.5655],[125.9546,-8.535,81.7834],[125.9535,-8.5312,117.1174],[125.9493,-8.53,140.3552],[125.9453,-8.526,217.3636],[125.9439,-8.5214,321.1263],[125.9369,-8.5199,653.3228],[125.9344,-8.5165,723.1062],[125.9272,-8.5172,997.7303],[125.9247,-8.5248,696.66],[125.9251,-8.5288,432.5451],[125.9282,-8.5304,365.2109],[125.927,-8.5334,267.8165],[125.9314,-8.5437,114.7945],[125.9346,-8.5473,95.9774],[125.9417,-8.5465,70.3624],[125.9447,-8.548,60.2126],[125.9643,-8.5678,141.8981],[125.9615,-8.5731,196.8899],[125.9701,-8.5749,103.4368],[125.9713,-8.5822,113.5348],[125.9694,-8.5867,127.4481],[125.9735,-8.5947,139.7211],[125.9694,-8.6029,154.8556],[125.9678,-8.6104,160.5219],[125.9768,-8.6154,194.4058],[125.9801,-8.6219,192.2476],[125.9772,-8.6316,214.8684],[125.9819,-8.6429,241.7122],[125.9832,-8.6595,289.4669],[125.9819,-8.6654,354.7417],[125.9846,-8.6693,370.3753],[125.9826,-8.6715,354.9727],[125.9852,-8.6738,345.9213],[125.9881,-8.682,387.9036],[125.9872,-8.6851,386.6093],[125.9852,-8.6858,394.7467],[125.9798,-8.6931,434.5393],[125.9818,-8.6949,445.7758],[125.9771,-8.7014,477.0854],[125.982,-8.7039,531.0921],[125.9828,-8.7099,772.2398],[125.9881,-8.7152,953.2565],[125.9875,-8.7183,1027.6223],[125.992,-8.7249,1041.8593],[125.995,-8.7204,928.6227],[125.9986,-8.7195,864.743],[126.0027,-8.7158,738.9288],[126.0064,-8.7154,663.494],[126.0109,-8.7118,602.1255],[126.0184,-8.7187,739.1155],[126.0209,-8.7189,776.1449],[126.0356,-8.7299,1072.5093],[126.0434,-8.7309,1007.1494],[126.0504,-8.7266,922.0929],[126.0545,-8.7164,924.5593],[126.0574,-8.7132,902.9261],[126.0648,-8.71,892.414],[126.0709,-8.7111,818.1297],[126.0815,-8.7093,509.1634],[126.0873,-8.7061,513.0183],[126.0961,-8.6968,274.1696]]]]}
,"properties": {"GID_2": "TLS.11.5_1","GID_0": "TLS","country": "Timor-Leste","GID_1": "TLS.11_1","province": "Manatuto","NL_NAME_1": "NA","county": "Manatuto","VARNAME_2": "NA","NL_NAME_2": "NA","TYPE_2": "Subdistrito","ENGTYPE_2": "Subdistrict","CC_2": "NA","HASC_2": "NA","name": "Manatuto.county","area_km2": 270.3863,"hist_schema_id": "Elevation0-9000","hist_area_km2": {"0": 11.9101,"25": 17.7178,"50": 19.2269,"75": 13.943,"100": 9.8962,"125": 8.3655,"150": 7.1283,"175": 6.0799,"200": 6.5829,"225": 6.9392,"250": 7.547,"275": 9.3706,"300": 9.5172,"325": 10.6071,"350": 12.2002,"375": 13.3948,"400": 14.3798,"425": 11.6338,"450": 10.9628,"475": 9.8095,"500": 7.6086,"525": 7.0845,"550": 5.6382,"575": 4.4854,"600": 4.129,"625": 3.3115,"650": 2.9552,"675": 2.5989,"700": 2.515,"725": 2.0749,"750": 2.0749,"775": 1.6557,"800": 1.6138,"825": 0.8383,"850": 0.8383,"875": 0.6916,"900": 0.7335,"925": 0.4401,"950": 0.5239,"975": 0.5658,"1000": 0.3353,"1025": 0.2096,"1050": 0.1886,"1075": 0.0419,"1100": 0.021}}}