{"type":"Feature","properties":{"GID_3":"TLS.8.4.2_1","GID_0":"TLS","country":"Timor-Leste","GID_1":"TLS.8_1","province":"Ermera","NL_NAME_1":"NA","GID_2":"TLS.8.4_1","county":"Letefoho","NL_NAME_2":"NA","city":"Eraulu","VARNAME_3":"EraUlu","NL_NAME_3":"NA","TYPE_3":"Suco","ENGTYPE_3":"Community","CC_3":"NA","HASC_3":"NA","name":"Eraulu.city"},
"geometry":{"type": "MultiPolygon","coordinates": [[[[125.4607,-8.7738,1182.7749],[125.4584,-8.7712,1262.1924],[125.4491,-8.7703,1214.0452],[125.4432,-8.7729,1243.8135],[125.4384,-8.7854,1183.2856],[125.4347,-8.7874,1207.6477],[125.4344,-8.7916,1170.5612],[125.4391,-8.7935,1187.2323],[125.4446,-8.7924,1202.9209],[125.4515,-8.7956,1314.7815],[125.4528,-8.8095,1304.7037],[125.4591,-8.814,1424.8567],[125.4582,-8.8222,1515.9659],[125.4616,-8.824,1563.4458],[125.4694,-8.8223,1617.2795],[125.4834,-8.8246,1605.2712],[125.4886,-8.8304,1632.7942],[125.4937,-8.8328,1596.5232],[125.4929,-8.8278,1501.603],[125.4946,-8.8243,1469.2959],[125.4933,-8.8207,1451.1871],[125.4865,-8.8133,1403.5211],[125.4826,-8.8044,1408.4409],[125.4798,-8.8041,1412.3134],[125.4779,-8.7983,1326.9321],[125.4761,-8.7987,1326.9321],[125.4768,-8.7997,1348.8748],[125.4727,-8.7987,1330.5126],[125.4695,-8.8007,1357.8159],[125.4676,-8.7984,1310.7434],[125.4636,-8.8022,1402.3096],[125.4623,-8.797,1279.8162],[125.4605,-8.7963,1313.4001],[125.4593,-8.7863,1281.8999],[125.4538,-8.7808,1203.347],[125.4607,-8.7738,1182.7749]]]]}}