{"type": "Feature","bbox": [125.2442,-9.315,125.3706,-9.2299],"geometry": {"type": "MultiPolygon","coordinates": [[[[125.2689,-9.262,140.3719],[125.2478,-9.2614,550.115],[125.2442,-9.2726,270.1974],[125.2442,-9.2771,201.7442],[125.2466,-9.2794,186.6848],[125.2499,-9.2784,228.8687],[125.2539,-9.2859,128.1571],[125.2605,-9.2752,222.741],[125.2711,-9.2714,82.2265],[125.275,-9.2751,74.2787],[125.278,-9.2754,67.6315],[125.2769,-9.2774,62.5954],[125.2794,-9.2774,60.272],[125.2781,-9.279,64.326],[125.2805,-9.2804,53.9747],[125.2786,-9.2816,53.3124],[125.2794,-9.2841,60.5616],[125.2818,-9.2851,43.3055],[125.2818,-9.2875,42.5926],[125.2843,-9.2883,40.0545],[125.284,-9.2899,40.7212],[125.2856,-9.29,38.1696],[125.2865,-9.2923,35.365],[125.284,-9.2955,36.5021],[125.2854,-9.3036,21.9365],[125.278,-9.3082,26.2247],[125.2754,-9.3119,24.7735],[125.2807,-9.315,18.1411],[125.2851,-9.3146,15.2086],[125.2864,-9.3121,16.4878],[125.2927,-9.3099,13.2899],[125.2956,-9.3043,18.5352],[125.3173,-9.2839,36.9717],[125.3192,-9.2752,39.5213],[125.328,-9.2777,27.8529],[125.3364,-9.2833,14.9003],[125.345,-9.2947,0.0],[125.3706,-9.2744,5.639],[125.3631,-9.2642,26.237],[125.3603,-9.2638,24.1848],[125.3533,-9.2579,47.9163],[125.3475,-9.2573,48.8047],[125.3431,-9.2536,53.863],[125.3401,-9.2475,69.9212],[125.3394,-9.2391,80.3392],[125.3409,-9.235,115.0373],[125.3382,-9.2299,97.6419],[125.3278,-9.2419,178.3134],[125.3037,-9.2587,77.77],[125.3061,-9.2726,56.5569],[125.3012,-9.2724,62.8119],[125.2911,-9.2684,276.9842],[125.2867,-9.2695,270.968],[125.2788,-9.2644,206.7511],[125.2689,-9.262,140.3719]]]]}
,"properties": {"GID_3": "TLS.6.5.9_1","GID_0": "TLS","country": "Timor-Leste","GID_1": "TLS.6_1","province": "Covalima","NL_NAME_1": "NA","GID_2": "TLS.6.5_1","county": "SuaiKota","NL_NAME_2": "NA","city": "Labarai","VARNAME_3": "NA","NL_NAME_3": "NA","TYPE_3": "Suco","ENGTYPE_3": "Community","CC_3": "NA","HASC_3": "NA","name": "Labarai.city","area_km2": 42.60358,"hist_schema_id": "Elevation0-9000","hist_area_km2": {"0": 2.4691,"25": 11.04812,"50": 11.36233,"75": 3.64104,"100": 2.51109,"125": 1.98797,"150": 1.79963,"175": 1.6112899999999999,"200": 1.27647,"225": 1.04628,"250": 1.08812,"275": 0.69053,"300": 0.69054,"325": 0.43943,"350": 0.23018,"375": 0.12555,"400": 0.29296,"425": 0.02093,"450": 0.16741,"475": 0.02093,"500": 0.02093,"525": 0.02093,"575": 0.04185}}}