{"type":"Feature","properties":{"GID_3":"TLS.8.1.3_1","GID_0":"TLS","country":"Timor-Leste","GID_1":"TLS.8_1","province":"Ermera","NL_NAME_1":"NA","GID_2":"TLS.8.1_1","county":"Atsabe","NL_NAME_2":"NA","city":"Baboikraik","VARNAME_3":"BaboeCraic","NL_NAME_3":"NA","TYPE_3":"Suco","ENGTYPE_3":"Community","CC_3":"NA","HASC_3":"NA","name":"Baboikraik.city"},
"geometry":{"type": "MultiPolygon","coordinates": [[[[125.4756,-8.9339,2552.8003],[125.4806,-8.9299,2680.2458],[125.4796,-8.9255,2659.6851],[125.4687,-8.9286,2521.5432],[125.4622,-8.9282,2253.2295],[125.4561,-8.9333,2144.0186],[125.4472,-8.9324,1994.4016],[125.4359,-8.9277,1785.5928],[125.4342,-8.9238,1653.2059],[125.4297,-8.9211,1514.3188],[125.4272,-8.9171,1212.8835],[125.414,-8.9138,1064.9542],[125.4102,-8.91,1001.4037],[125.4085,-8.9106,980.3855],[125.4011,-8.9072,947.03],[125.396,-8.9102,880.1304],[125.3945,-8.9079,910.3761],[125.3922,-8.9078,818.5656],[125.3921,-8.9045,829.4773],[125.3888,-8.9068,791.7161],[125.3884,-8.9047,775.4995],[125.3838,-8.9051,717.668],[125.3817,-8.9038,696.9046],[125.3783,-8.9048,673.1187],[125.3872,-8.9118,864.9584],[125.3906,-8.9128,923.9071],[125.3978,-8.9197,1160.962],[125.4057,-8.9199,1297.5601],[125.4138,-8.927,1525.7733],[125.4206,-8.9279,1641.5071],[125.4234,-8.9314,1792.7717],[125.4216,-8.9429,1668.4253],[125.4262,-8.9417,1789.8577],[125.438,-8.9431,2134.7148],[125.4541,-8.952,2508.7922],[125.4602,-8.9439,2378.8149],[125.4661,-8.9392,2414.2632],[125.4728,-8.9383,2494.2434],[125.4727,-8.9362,2618.5002],[125.4756,-8.9339,2552.8003]]]]}}