{"type":"Feature","properties":{"GID_3":"TLS.1.3.1_1","GID_0":"TLS","country":"Timor-Leste","GID_1":"TLS.1_1","province":"Aileu","NL_NAME_1":"NA","GID_2":"TLS.1.3_1","county":"Lequidoe","NL_NAME_2":"NA","city":"Acobilitoho","VARNAME_3":"AsuBiliToho","NL_NAME_3":"NA","TYPE_3":"Suco","ENGTYPE_3":"Community","CC_3":"NA","HASC_3":"NA","name":"Acobilitoho.city"},
"geometry":{"type": "MultiPolygon","coordinates": [[[[125.6848,-8.7013,715.8909],[125.6779,-8.696,781.9347],[125.6726,-8.6947,779.5031],[125.6663,-8.6953,796.1611],[125.6635,-8.6987,830.1892],[125.6642,-8.7004,849.3799],[125.6605,-8.714,1164.4705],[125.6607,-8.7207,1153.7888],[125.6643,-8.7273,1034.1252],[125.6538,-8.7347,935.6369],[125.651,-8.7412,886.9736],[125.6524,-8.7444,823.4331],[125.6551,-8.7437,823.2644],[125.6559,-8.7462,819.7142],[125.6589,-8.7469,822.8608],[125.6578,-8.7434,816.0397],[125.6655,-8.742,830.2195],[125.6713,-8.7438,810.6955],[125.6715,-8.7422,865.9326],[125.6731,-8.7422,827.11],[125.6765,-8.7446,837.0132],[125.6861,-8.7441,804.4881],[125.6849,-8.7385,974.4464],[125.6868,-8.7232,964.8514],[125.6842,-8.7205,942.1924],[125.6762,-8.7188,1095.9412],[125.6724,-8.7151,1158.2329],[125.6739,-8.7093,962.6942],[125.6777,-8.7052,824.749],[125.6848,-8.7013,715.8909]]]]}}