{"type": "Feature","bbox": [125.3555,-9.0056,125.3904,-8.986],"geometry": {"type": "MultiPolygon","coordinates": [[[[125.3798,-8.986,818.0969],[125.3733,-8.9861,750.2885],[125.3658,-8.9924,659.3056],[125.3588,-8.994,621.6292],[125.3555,-8.9978,603.3917],[125.3622,-9.0045,638.862],[125.3724,-9.0053,776.6409],[125.3777,-9.0027,865.6453],[125.3831,-9.0056,912.0474],[125.3895,-9.0037,1045.5173],[125.3904,-9.0008,1051.8539],[125.3824,-8.999,921.3619],[125.384,-8.9977,961.7262],[125.3837,-8.9957,981.4149],[125.3865,-8.9948,1036.921],[125.3868,-8.9925,1063.3448],[125.3807,-8.9888,886.0981],[125.3798,-8.986,818.0969]]]]}
,"properties": {"GID_3": "TLS.5.3.12_1","GID_0": "TLS","country": "Timor-Leste","GID_1": "TLS.5_1","province": "Bobonaro","NL_NAME_1": "NA","GID_2": "TLS.5.3_1","county": "Bobonaro","NL_NAME_2": "NA","city": "Maliubu","VARNAME_3": "NA","NL_NAME_3": "NA","TYPE_3": "Suco","ENGTYPE_3": "Community","CC_3": "NA","HASC_3": "NA","name": "Maliubu.city","area_km2": 5.088748,"hist_schema_id": "Elevation0-9000","hist_area_km2": {"600": 0.125648,"625": 0.272236,"650": 0.251296,"675": 0.125648,"700": 0.272237,"725": 0.397887,"750": 0.31412,"775": 0.502594,"800": 0.502593,"825": 0.460711,"850": 0.418827,"875": 0.272238,"900": 0.251297,"925": 0.18847,"950": 0.230354,"975": 0.041882,"1000": 0.272237,"1025": 0.125648,"1050": 0.041883,"1075": 0.020942}}}