{"type":"Feature","properties":{"GID_3":"TLS.4.3.6_1","GID_0":"TLS","country":"Timor-Leste","GID_1":"TLS.4_1","province":"Baucau","NL_NAME_1":"NA","GID_2":"TLS.4.3_1","county":"Laga","NL_NAME_2":"NA","city":"Sagadate","VARNAME_3":"SagaDate","NL_NAME_3":"NA","TYPE_3":"Suco","ENGTYPE_3":"Community","CC_3":"NA","HASC_3":"NA","name":"Sagadate.city"},
"geometry":{"type": "MultiPolygon","coordinates": [[[[126.7409,-8.5291,263.171],[126.7322,-8.5252,199.4851],[126.7305,-8.5212,222.4591],[126.7253,-8.519,229.9199],[126.723,-8.52,205.2108],[126.7244,-8.5178,165.3879],[126.7225,-8.5114,152.6863],[126.7236,-8.503,155.3116],[126.7198,-8.5077,142.2667],[126.7156,-8.5077,205.0344],[126.709,-8.5019,256.5264],[126.706,-8.5031,233.8937],[126.702,-8.5003,288.1732],[126.6948,-8.5026,346.7177],[126.692,-8.5008,402.5408],[126.6833,-8.4999,462.6496],[126.6804,-8.4966,521.7286],[126.6786,-8.4994,540.3295],[126.6795,-8.5044,489.5255],[126.6745,-8.5164,694.8342],[126.6737,-8.5228,748.9083],[126.6685,-8.528,891.3964],[126.6763,-8.5379,897.055],[126.6856,-8.5349,760.7802],[126.6974,-8.534,592.6892],[126.7074,-8.5366,438.5992],[126.7134,-8.5361,278.0184],[126.7232,-8.5417,453.9225],[126.7285,-8.5405,419.394],[126.7361,-8.5331,302.2659],[126.7409,-8.5309,236.4229],[126.7409,-8.5291,263.171]]]]}}