{"type": "Feature","bbox": [125.4244,-9.163,125.5693,-8.9214],"geometry": {"type": "MultiPolygon","coordinates": [[[[125.5329,-8.9791,666.0089],[125.531,-8.9757,680.9496],[125.5341,-8.9704,723.9639],[125.5338,-8.9672,755.0311],[125.5287,-8.9652,763.3732],[125.5273,-8.9628,830.678],[125.5235,-8.9624,819.6422],[125.5153,-8.9485,1014.5784],[125.5011,-8.9407,1514.2107],[125.4999,-8.9356,1715.9421],[125.4977,-8.9358,1863.5315],[125.4916,-8.9317,2207.7273],[125.489,-8.9244,2389.6226],[125.482,-8.9214,2598.2002],[125.4796,-8.9249,2659.6851],[125.4802,-8.9304,2680.2458],[125.4727,-8.9362,2618.5002],[125.4728,-8.9383,2494.2434],[125.4661,-8.9392,2414.2632],[125.4602,-8.9439,2378.8149],[125.4519,-8.9545,2507.6489],[125.4565,-8.9644,2283.1943],[125.4508,-8.9702,2173.356],[125.451,-8.974,2204.6824],[125.4286,-8.9861,2381.8711],[125.42529999999999,-8.9917,2313.4695],[125.4244,-8.9973,2209.439],[125.4259,-9.0034,1941.5173],[125.4296,-9.0071,1745.7853],[125.4344,-9.0074,1562.2524],[125.4411,-9.0108,1205.6194],[125.4433,-9.0143,1073.2301],[125.4434,-9.0184,938.5143],[125.4477,-9.0218,855.7516],[125.45,-9.0262,847.1017],[125.4501,-9.029,783.5391],[125.4454,-9.0385,631.5219],[125.4489,-9.042,543.6838],[125.4471,-9.0483,537.5688],[125.4488,-9.0506,450.0687],[125.4451,-9.0554,443.5606],[125.4442,-9.0618,399.6809],[125.4637,-9.0655,306.4365],[125.4668,-9.0682,291.287],[125.468,-9.072,281.6527],[125.4757,-9.0774,268.9968],[125.4765,-9.0822,253.6238],[125.4744,-9.0873,239.0104],[125.4797,-9.0965,226.2541],[125.4811,-9.1055,198.7406],[125.4775,-9.1172,174.0669],[125.4736,-9.1242,160.4326],[125.4739,-9.1274,154.2733],[125.4812,-9.132,319.5366],[125.4857,-9.1321,191.9633],[125.488,-9.1359,174.5208],[125.4941,-9.1385,129.6277],[125.4946,-9.1428,110.3303],[125.4966,-9.1437,114.5369],[125.5209,-9.1421,285.2321],[125.525,-9.1468,257.8378],[125.5251,-9.1519,282.2457],[125.5298,-9.1593,148.5718],[125.54,-9.163,64.5238],[125.5441,-9.1456,90.5555],[125.5498,-9.1331,105.6577],[125.5501,-9.1257,120.6078],[125.5521,-9.1236,121.2317],[125.5568,-9.1031,149.2623],[125.5639,-9.0984,169.2535],[125.5633,-9.0855,177.9392],[125.5693,-9.0791,205.4507],[125.5663,-9.0768,225.958],[125.5643,-9.0693,208.8448],[125.5609,-9.0645,222.0295],[125.561,-9.0558,236.2149],[125.558,-9.0525,253.5491],[125.5533,-9.0423,290.3806],[125.5536,-9.0368,272.1498],[125.5563,-9.0319,317.7632],[125.5531,-9.0283,293.6973],[125.5571,-9.0174,325.4489],[125.5623,-9.0154,331.6014],[125.5599,-9.0143,425.189],[125.5584,-9.0103,385.2175],[125.5594,-9.0065,409.7036],[125.5569,-9.0077,410.6217],[125.5514,-8.9997,499.9713],[125.5535,-8.995,541.3245],[125.5519,-8.9901,563.7881],[125.5492,-8.9883,613.3304],[125.55,-8.9855,611.1531],[125.5454,-8.9844,596.8768],[125.5416,-8.9811,636.3324],[125.5381,-8.9813,643.0182],[125.5329,-8.9791,666.0089]]]]}
,"properties": {"GID_2": "TLS.2.1_1","GID_0": "TLS","country": "Timor-Leste","GID_1": "TLS.2_1","province": "Ainaro","NL_NAME_1": "NA","county": "Ainaro","VARNAME_2": "NA","NL_NAME_2": "NA","TYPE_2": "Subdistrito","ENGTYPE_2": "Subdistrict","CC_2": "NA","HASC_2": "NA","name": "Ainaro.county","area_km2": 235.4577,"hist_schema_id": "Elevation0-9000","hist_area_km2": {"75": 1.4443,"100": 1.3188,"125": 2.6167,"150": 3.8937,"175": 5.2754,"200": 6.8666,"225": 9.0021,"250": 9.6512,"275": 10.9703,"300": 10.5308,"325": 8.2698,"350": 7.8722,"375": 6.2812,"400": 5.5485,"425": 5.2345,"450": 4.9414,"475": 5.758,"500": 5.1718,"525": 4.3971,"550": 4.439,"575": 3.8946,"600": 3.5806,"625": 3.2456,"650": 3.141,"675": 3.141,"700": 3.0992,"725": 3.6437,"750": 2.9108,"775": 2.7014,"800": 3.7903,"825": 3.1202,"850": 3.4972,"875": 3.6857,"900": 2.9946,"925": 3.0784,"950": 3.0574,"975": 3.3716,"1000": 3.1412,"1025": 3.0365,"1050": 2.2617,"1075": 1.9266,"1100": 2.1151,"1125": 1.8847,"1150": 2.0104,"1175": 1.5916,"1200": 1.5078,"1225": 1.6335,"1250": 1.5497,"1275": 1.2356,"1300": 1.1099,"1325": 1.2147,"1350": 1.2146,"1375": 1.1728,"1400": 1.0262,"1425": 1.0471,"1450": 0.9634,"1475": 0.8587,"1500": 0.9843,"1525": 0.7958,"1550": 1.0471,"1575": 1.11,"1600": 0.9424,"1625": 0.9843,"1650": 0.7749,"1675": 0.8377,"1700": 1.0052,"1725": 0.733,"1750": 0.6702,"1775": 0.733,"1800": 0.733,"1825": 0.6073,"1850": 0.5655,"1875": 0.6492,"1900": 0.5864,"1925": 0.6702,"1950": 0.6492,"1975": 0.6702,"2000": 0.6074,"2025": 0.4608,"2050": 0.4398,"2075": 0.5026,"2100": 0.7958,"2125": 0.5445,"2150": 0.4817,"2175": 0.5655,"2200": 0.5655,"2225": 0.4398,"2250": 0.4608,"2275": 0.4398,"2300": 0.6911,"2325": 0.5026,"2350": 0.5655,"2375": 0.3979,"2400": 0.2094,"2425": 0.377,"2450": 0.2513,"2475": 0.5236,"2500": 0.4817,"2525": 0.398,"2550": 0.3142,"2575": 0.3351,"2600": 0.1047,"2625": 0.0628,"2650": 0.1676,"2675": 0.0838}}}