{"type":"Feature","properties":{"GID_3":"TLS.5.6.2_1","GID_0":"TLS","country":"Timor-Leste","GID_1":"TLS.5_1","province":"Bobonaro","NL_NAME_1":"NA","GID_2":"TLS.5.6_1","county":"Maliana","NL_NAME_2":"NA","city":"Lahomea","VARNAME_3":"NA","NL_NAME_3":"NA","TYPE_3":"Suco","ENGTYPE_3":"Community","CC_3":"NA","HASC_3":"NA","name":"Lahomea.city"},
"geometry":{"type": "MultiPolygon","coordinates": [[[[125.2363,-9.0171,673.4603],[125.2389,-9.018,712.0249],[125.2449,-9.0259,887.2501],[125.2479,-9.0271,983.7131],[125.2526,-9.0335,1091.7025],[125.2549,-9.0346,1163.2921],[125.2585,-9.0304,1184.046],[125.2545,-9.0162,756.9319],[125.2561,-9.0023,543.566],[125.2527,-8.9987,472.8085],[125.2522,-8.9952,408.8422],[125.2483,-8.9918,378.2758],[125.2405,-8.992,283.7414],[125.2361,-8.9887,272.0726],[125.2317,-8.9886,242.7659],[125.2248,-8.9837,239.4146],[125.2217,-8.9836,240.979],[125.219,-8.9914,254.3609],[125.2282,-8.9937,281.2229],[125.2263,-8.9993,345.5825],[125.229,-9.0032,408.3291],[125.2288,-9.0078,454.078],[125.2312,-9.0123,562.468],[125.2363,-9.0171,673.4603]]]]}}