{"type": "Feature","bbox": [125.5311,-8.6509,125.5589,-8.6308],"geometry": {"type": "MultiPolygon","coordinates": [[[[125.5471,-8.6506,1260.818],[125.5485,-8.6509,1240.9048],[125.5495,-8.6461,1143.2537],[125.5589,-8.6364,715.3126],[125.5394,-8.6346,756.5214],[125.5316,-8.6308,427.4094],[125.5311,-8.6366,768.8942],[125.5369,-8.6449,853.6657],[125.5451,-8.648,1114.891],[125.5471,-8.6506,1260.818]]]]}
,"properties": {"GID_3": "TLS.1.2.9_1","GID_0": "TLS","country": "Timor-Leste","GID_1": "TLS.1_1","province": "Aileu","NL_NAME_1": "NA","GID_2": "TLS.1.2_1","county": "LauLara","NL_NAME_2": "NA","city": "Tohumeta","VARNAME_3": "Tuhumeta","NL_NAME_3": "NA","TYPE_3": "Suco","ENGTYPE_3": "Community","CC_3": "NA","HASC_3": "NA","name": "Tohumeta.city","area_km2": 3.14424,"hist_schema_id": "Elevation0-9000","hist_area_km2": {"500": 0.020962,"550": 0.020962,"575": 0.020962,"600": 0.020962,"625": 0.020962,"650": 0.020962,"675": 0.062886,"700": 0.020962,"725": 0.146733,"750": 0.167694,"775": 0.209618,"800": 0.167694,"825": 0.377311,"850": 0.146732,"875": 0.188654,"900": 0.209616,"925": 0.209615,"950": 0.188653,"975": 0.167692,"1000": 0.167692,"1025": 0.083846,"1050": 0.104807,"1075": 0.125768,"1100": 0.041923,"1125": 0.125768,"1150": 0.041922,"1175": 0.020961,"1200": 0.020961,"1250": 0.020961}}}