{"type":"Feature","properties":{"GID_3":"TLS.1.3.2_1","GID_0":"TLS","country":"Timor-Leste","GID_1":"TLS.1_1","province":"Aileu","NL_NAME_1":"NA","GID_2":"TLS.1.3_1","county":"Lequidoe","NL_NAME_2":"NA","city":"Berelau","VARNAME_3":"Bereleu","NL_NAME_3":"NA","TYPE_3":"Suco","ENGTYPE_3":"Community","CC_3":"NA","HASC_3":"NA","name":"Berelau.city"},
"geometry":{"type": "MultiPolygon","coordinates": [[[[125.6861,-8.7441,804.4881],[125.691,-8.7445,799.5504],[125.6936,-8.7504,818.2155],[125.6868,-8.7555,770.6974],[125.6841,-8.7608,735.572],[125.689,-8.7592,749.1409],[125.6915,-8.7614,792.8154],[125.6937,-8.7606,782.6029],[125.6964,-8.7640999999999991,802.3509],[125.7005,-8.7647,749.5927],[125.7023,-8.7619,708.366],[125.7065,-8.7623,686.616],[125.7101,-8.7664,685.3164],[125.7141,-8.7676,666.1547],[125.7152,-8.77,669.4197],[125.7259,-8.7653,837.6395],[125.7256,-8.7617,893.42],[125.7284,-8.7558,809.1744],[125.7328,-8.7526,699.7856],[125.7333,-8.7503,661.2646],[125.7273,-8.7401,904.076],[125.7223,-8.7387,741.3514],[125.7187,-8.7346,740.0265],[125.7188,-8.7274,689.0338],[125.713,-8.7243,753.2248],[125.7124,-8.7174,879.4439],[125.7063,-8.7138,1023.6375],[125.7044,-8.7065,820.9607],[125.7055,-8.7,624.8209],[125.7008,-8.7023,659.3204],[125.6989,-8.7007,667.7939],[125.6871,-8.7029,710.9072],[125.6848,-8.7013,715.8909],[125.6777,-8.7052,824.749],[125.6739,-8.7093,962.6942],[125.6726,-8.7155,1158.2329],[125.6762,-8.7188,1095.9412],[125.6842,-8.7205,942.1924],[125.6868,-8.7232,964.8514],[125.6849,-8.7385,974.4464],[125.6861,-8.7441,804.4881]]]]}}