{"type":"Feature","properties":{"GID_3":"TLS.7.2.8_1","GID_0":"TLS","country":"Timor-Leste","GID_1":"TLS.7_1","province":"Dili","NL_NAME_1":"NA","GID_2":"TLS.7.2_1","county":"DiliBarat","NL_NAME_2":"NA","city":"Fatuhada","VARNAME_3":"BeiraMar","NL_NAME_3":"NA","TYPE_3":"Suco","ENGTYPE_3":"Community","CC_3":"NA","HASC_3":"NA","name":"Fatuhada.city"},
"geometry":{"type": "MultiPolygon","coordinates": [[[[125.5573,-8.5476,0.0],[125.5482,-8.5438,0.0],[125.5437,-8.5469,11.052],[125.5425,-8.5544,20.5794],[125.5582,-8.554,7.6995],[125.5562,-8.5489,6.6912],[125.5573,-8.5476,0.0]]]]}}