{"type": "Feature","bbox": [125.0838,-9.2768,125.1204,-9.222],"geometry": {"type": "MultiPolygon","coordinates": [[[[125.109,-9.223,1597.7393],[125.0883,-9.2406,1489.02],[125.0852,-9.2459,1284.0221],[125.0856,-9.2524,1348.4314],[125.0838,-9.2566,1355.1786],[125.0857,-9.2618,990.425],[125.0933,-9.2648,811.3719],[125.0981,-9.2707,573.4644],[125.1032,-9.2714,499.0497],[125.1041,-9.2745,381.1607],[125.1103,-9.2735,302.6034],[125.1134,-9.2749,285.3593],[125.1136,-9.2767,330.607],[125.1159,-9.2768,230.2376],[125.1172,-9.2733,238.1211],[125.1201,-9.2737,244.4418],[125.1204,-9.2713,251.3401],[125.1156,-9.2637,503.2767],[125.1159,-9.2595,584.6835],[125.1124,-9.2506,791.8316],[125.1157,-9.2276,1264.2061],[125.1142,-9.222,1556.5001],[125.109,-9.223,1597.7393]]]]}
,"properties": {"GID_3": "TLS.6.3.4_1","GID_0": "TLS","country": "Timor-Leste","GID_1": "TLS.6_1","province": "Covalima","NL_NAME_1": "NA","GID_2": "TLS.6.3_1","county": "Fohorem","NL_NAME_2": "NA","city": "Laktos","VARNAME_3": "Lactos","NL_NAME_3": "NA","TYPE_3": "Suco","ENGTYPE_3": "Community","CC_3": "NA","HASC_3": "NA","name": "Laktos.city","area_km2": 14.25091,"hist_schema_id": "Elevation0-9000","hist_area_km2": {"225": 0.02092,"250": 0.02093,"275": 0.06278,"300": 0.18833,"325": 0.14648,"350": 0.0837,"375": 0.27203,"400": 0.14648,"425": 0.0837,"450": 0.12555,"475": 0.14648,"500": 0.10463,"525": 0.20926,"550": 0.1674,"575": 0.27203,"600": 0.29296,"625": 0.18833,"650": 0.31388,"675": 0.23018,"700": 0.18833,"725": 0.20926,"750": 0.20926,"775": 0.18833,"800": 0.18833,"825": 0.31389,"850": 0.50223,"875": 0.41852,"900": 0.56501,"925": 0.54408,"950": 0.69057,"975": 0.56502,"1000": 0.54409,"1025": 0.58595,"1050": 0.50224,"1075": 0.33483,"1100": 0.56502,"1125": 0.5441,"1150": 0.33483,"1175": 0.25112,"1200": 0.27205,"1225": 0.18834,"1250": 0.27205,"1275": 0.2302,"1300": 0.20927,"1325": 0.16741,"1350": 0.18835,"1375": 0.14649,"1400": 0.14649,"1425": 0.16742,"1450": 0.10464,"1475": 0.14649,"1500": 0.12557,"1525": 0.12557,"1550": 0.18835,"1575": 0.12557,"1600": 0.04186,"1625": 0.06278,"1650": 0.02093}}}