{"type": "Feature","bbox": [124.9926,-9.2577,125.097,-9.1688],"geometry": {"type": "MultiPolygon","coordinates": [[[[125.0286,-9.1696,503.1385],[125.0251,-9.1713,503.2231],[125.0144,-9.1691,455.1241],[125.0117,-9.1739,601.787],[125.009,-9.1748,588.9266],[125.0055,-9.1746,498.8624],[125.003,-9.1724,509.2766],[124.9997,-9.1742,458.0901],[124.9943,-9.1724,428.4768],[124.993,-9.1766,442.8791],[124.9949,-9.1812,451.183],[124.9926,-9.1873,465.5018],[125.0046,-9.202,505.0267],[125.0124,-9.2026,533.0486],[125.0157,-9.2061,535.9038],[125.0235,-9.2074,563.3223],[125.0281,-9.2099,576.4957],[125.028,-9.217,639.5143],[125.0304,-9.2192,698.1209],[125.0325,-9.2345,719.4985],[125.035,-9.2382,625.1379],[125.0349,-9.2479,556.2618],[125.0384,-9.2494,545.2929],[125.0394,-9.252,568.7648],[125.0478,-9.2527,500.3896],[125.0491,-9.2552,514.0961],[125.054,-9.2577,453.3769],[125.0528,-9.2523,477.008],[125.0541,-9.2478,521.4291],[125.058,-9.2448,524.8344],[125.0582,-9.2412,626.5637],[125.0705,-9.2306,666.1389],[125.0726,-9.2248,709.582],[125.0756,-9.2214,725.9864],[125.0777,-9.2212,763.2192],[125.0804,-9.2162,794.4135],[125.097,-9.2018,1169.5812],[125.0911,-9.1954,967.297],[125.0863,-9.193,949.7921],[125.0834,-9.1895,868.3604],[125.08,-9.1886,809.6379],[125.0746,-9.1754,710.5833],[125.068,-9.1758,670.6594],[125.0654,-9.1733,655.575],[125.0603,-9.173,672.4724],[125.0527,-9.1688,616.3892],[125.0419,-9.1743,558.9763],[125.0395,-9.1732,552.8452],[125.0361,-9.1744,544.843],[125.0331,-9.1702,514.2762],[125.0286,-9.1696,503.1385]]]]}
,"properties": {"GID_3": "TLS.6.2.4_1","GID_0": "TLS","country": "Timor-Leste","GID_1": "TLS.6_1","province": "Covalima","NL_NAME_1": "NA","GID_2": "TLS.6.2_1","county": "FatuMean","NL_NAME_2": "NA","city": "Fatumean","VARNAME_3": "NA","NL_NAME_3": "NA","TYPE_3": "Suco","ENGTYPE_3": "Community","CC_3": "NA","HASC_3": "NA","name": "Fatumean.city","area_km2": 57.40907,"hist_schema_id": "Elevation0-9000","hist_area_km2": {"425": 0.02093,"450": 0.31396,"475": 0.96277,"500": 1.17207,"525": 1.486,"550": 1.46507,"575": 2.09295,"600": 2.07201,"625": 2.09295,"650": 2.07202,"675": 2.30223,"700": 2.38595,"725": 2.44871,"750": 2.82545,"775": 2.97195,"800": 2.72081,"825": 2.99288,"850": 3.13939,"875": 2.69988,"900": 2.34406,"925": 2.49059,"950": 2.17663,"975": 2.09291,"1000": 2.13479,"1025": 1.77897,"1050": 1.50689,"1075": 1.29759,"1100": 0.85809,"1125": 0.83716,"1150": 0.35579,"1175": 0.48137,"1200": 0.20929,"1225": 0.25115,"1250": 0.16743,"1275": 0.14651,"1300": 0.04186}}}