{"type":"Feature","properties":{"GID_2":"TLS.6.6_1","GID_0":"TLS","country":"Timor-Leste","GID_1":"TLS.6_1","province":"Covalima","NL_NAME_1":"NA","county":"Tilomar","VARNAME_2":"NA","NL_NAME_2":"NA","TYPE_2":"Subdistrito","ENGTYPE_2":"Subdistrict","CC_2":"NA","HASC_2":"NA","name":"Tilomar.county"},
"geometry":{"type": "MultiPolygon","coordinates": [[[[125.0879,-9.4582,6.3796],[125.0894,-9.4606,0.0],[125.1056,-9.4422,4.5392],[125.1167,-9.4328,3.2164],[125.1406,-9.4194,1.4274],[125.16,-9.4139,2.415],[125.1881,-9.4097,0.0],[125.1953,-9.4092,4.0381],[125.2078,-9.4119,0.0],[125.21,-9.4108,2.4489],[125.2319,-9.3878,5.5829],[125.2461,-9.3753,0.7348],[125.2473,-9.3724,4.5088],[125.2412,-9.3718,8.0953],[125.2386,-9.3699,10.0362],[125.2455,-9.3626,7.9213],[125.2472,-9.3581,5.0115],[125.2432,-9.3511,10.884],[125.2339,-9.3448,13.4517],[125.2257,-9.3518,19.5983],[125.215,-9.3574,24.2561],[125.1901,-9.3548,43.6052],[125.1854,-9.3508,49.9278],[125.1823,-9.3409,57.6684],[125.174,-9.3394,83.2129],[125.1704,-9.3371,75.5231],[125.162,-9.3372,86.8794],[125.1547,-9.3341,97.9648],[125.1507,-9.3273,91.0922],[125.1509,-9.3211,102.4213],[125.153,-9.3162,103.2952],[125.1317,-9.3105,128.8578],[125.1296,-9.3046,134.5216],[125.1185,-9.3067,157.6242],[125.116,-9.3088,154.0333],[125.1131,-9.3079,241.0735],[125.1112,-9.3104,168.6376],[125.1042,-9.3089,185.466],[125.0984,-9.3098,193.9467],[125.0886,-9.3043,211.6698],[125.0841,-9.299,243.5959],[125.0749,-9.297,281.6624],[125.073,-9.2979,290.0654],[125.0667,-9.2955,312.0388],[125.0642,-9.2972,310.8396],[125.061,-9.297,315.9914],[125.0624,-9.3089,552.6039],[125.0614,-9.3119,614.7773],[125.0566,-9.3181,567.5489],[125.0517,-9.3208,454.2422],[125.0483,-9.3248,367.3832],[125.0523,-9.3312,370.5907],[125.05029999999999,-9.3343,324.7159],[125.0512,-9.3448,253.2246],[125.0489,-9.3539,208.0504],[125.0497,-9.3552,211.3546],[125.0513,-9.3542,210.7585],[125.0507,-9.3602,171.0952],[125.0534,-9.3641,159.5248],[125.0587,-9.3669,150.9976],[125.0588,-9.3707,141.5478],[125.0668,-9.3736,134.9981],[125.0678,-9.3793,124.8072],[125.071,-9.3828,117.004],[125.0751,-9.3838,116.3285],[125.0795,-9.3907,88.8163],[125.077,-9.4024,76.1178],[125.0811,-9.4125,71.2542],[125.0779,-9.4183,56.7519],[125.0787,-9.4206,52.6624],[125.081,-9.4213,58.9215],[125.0782,-9.4264,44.6555],[125.0806,-9.4272,42.7111],[125.0793,-9.4301,35.8555],[125.0815,-9.432,61.472],[125.0787,-9.4347,31.7281],[125.0809,-9.4387,33.3121],[125.0787,-9.4426,24.1012],[125.0812,-9.4439,47.7882],[125.0837,-9.4497,18.6871],[125.0873,-9.4513,15.8371],[125.0847,-9.4546,11.3015],[125.0879,-9.4582,6.3796]]]]}}