{"type": "Feature","bbox": [125.6846,-8.6054,125.7703,-8.5588],"geometry": {"type": "MultiPolygon","coordinates": [[[[125.6975,-8.6053,621.7432],[125.6986,-8.6043,628.9819],[125.7014,-8.6054,634.6508],[125.7044,-8.6025,641.8363],[125.7057,-8.6035,617.503],[125.7085,-8.6024,614.8038],[125.7114,-8.6002,635.7095],[125.7112,-8.5981,605.0818],[125.7139,-8.5985,607.1908],[125.7142,-8.5965,613.4081],[125.7185,-8.595,586.4128],[125.7173,-8.5943,621.178],[125.7199,-8.5944,581.2825],[125.7266,-8.5901,576.5277],[125.7284,-8.5837,579.9902],[125.733,-8.5889,561.1123],[125.7324,-8.5908,561.4392],[125.7343,-8.5897,544.7684],[125.7338,-8.5919,543.3608],[125.7367,-8.5944,525.0791],[125.7384,-8.5898,510.3881],[125.7423,-8.5905,495.8739],[125.7408,-8.5887,512.67],[125.7448,-8.5852,514.7634],[125.7531,-8.5883,466.9344],[125.7556,-8.5856,473.2976],[125.7651,-8.5886,425.426],[125.7703,-8.5872,418.5867],[125.7661,-8.571,893.4053],[125.7607,-8.5663,819.7643],[125.7567,-8.5678,789.859],[125.7536,-8.5639,758.4409],[125.7454,-8.5644,656.0525],[125.7408,-8.5671,700.5107],[125.7347,-8.5639,679.1757],[125.7315,-8.5654,687.1067],[125.7218,-8.5636,683.9032],[125.7128,-8.5655,505.4938],[125.706,-8.5613,287.5815],[125.6975,-8.5588,92.3385],[125.6966,-8.5603,106.5228],[125.6945,-8.5598,111.6334],[125.6908,-8.5682,223.1531],[125.6877,-8.5689,296.6885],[125.6856,-8.572,314.1398],[125.6856,-8.5771,456.4588],[125.688,-8.5821,750.3977],[125.6855,-8.5881,788.0206],[125.6846,-8.6001,634.9175],[125.6904,-8.6037,625.1237],[125.6975,-8.6053,621.7432]]]]}
,"properties": {"GID_3": "TLS.1.4.9_1","GID_0": "TLS","country": "Timor-Leste","GID_1": "TLS.1_1","province": "Aileu","NL_NAME_1": "NA","GID_2": "TLS.1.4_1","county": "Remexio","NL_NAME_2": "NA","city": "SukuLiurai","VARNAME_3": "Sukuliurai","NL_NAME_3": "NA","TYPE_3": "Suco","ENGTYPE_3": "Community","CC_3": "NA","HASC_3": "NA","name": "Suku_Liurai.city","area_km2": 29.24605,"hist_schema_id": "Elevation0-9000","hist_area_km2": {"100": 0.0629,"125": 0.08386,"150": 0.14676,"175": 0.1258,"200": 0.14676,"225": 0.12579,"250": 0.12579,"275": 0.27255,"300": 0.27255,"325": 0.18869,"350": 0.31448,"375": 0.25159,"400": 0.18869,"425": 0.31448,"450": 0.44027,"475": 0.4193,"500": 0.56605,"525": 0.62895,"550": 0.83859,"575": 0.92245,"600": 2.26421,"625": 4.04623,"650": 5.1154,"675": 4.42357,"700": 2.80928,"725": 1.19499,"750": 0.73377,"775": 0.7757,"800": 0.64991,"825": 0.44027,"850": 0.23061,"875": 0.10483,"900": 0.02097}}}