{"type":"Feature","properties":{"GID_3":"TLS.8.4.3_1","GID_0":"TLS","country":"Timor-Leste","GID_1":"TLS.8_1","province":"Ermera","NL_NAME_1":"NA","GID_2":"TLS.8.4_1","county":"Letefoho","NL_NAME_2":"NA","city":"Goulolo","VARNAME_3":"NA","NL_NAME_3":"NA","TYPE_3":"Suco","ENGTYPE_3":"Community","CC_3":"NA","HASC_3":"NA","name":"Goulolo.city"},
"geometry":{"type": "MultiPolygon","coordinates": [[[[125.4189,-8.8101,1133.3264],[125.4134,-8.8116,1126.4194],[125.4138,-8.8177,1157.5276],[125.4212,-8.8221,1332.6074],[125.4285,-8.8213,1283.6713],[125.4321,-8.8262,1279.1265],[125.4377,-8.8261,1370.3184],[125.438,-8.8228,1303.0979],[125.4453,-8.8236,1312.5437],[125.4582,-8.8222,1515.9659],[125.4591,-8.814,1424.8567],[125.4528,-8.8095,1304.7037],[125.4521,-8.7964,1338.7479],[125.4446,-8.7924,1202.9209],[125.4391,-8.7935,1187.2323],[125.4344,-8.7916,1170.5612],[125.4337,-8.7972,1154.4307],[125.4277,-8.8009,1157.7205],[125.4249,-8.8085,1164.3173],[125.4189,-8.8101,1133.3264]]]]}}