{"type": "Feature","bbox": [125.2339,-9.3744,125.29,-9.3259],"geometry": {"type": "MultiPolygon","coordinates": [[[[125.2654,-9.3259,19.5249],[125.253,-9.3296,13.6467],[125.2511,-9.3332,10.0185],[125.2471,-9.3341,9.8751],[125.2339,-9.3448,13.4517],[125.2432,-9.3511,10.884],[125.2472,-9.3581,5.0115],[125.2455,-9.3626,7.9213],[125.2386,-9.3699,10.0362],[125.2412,-9.3718,8.0953],[125.2473,-9.3724,4.5088],[125.2464,-9.3744,4.5377],[125.252,-9.37,1.1176],[125.2558,-9.3614,2.2111],[125.2625,-9.3536,0.0],[125.2706,-9.351,2.2306],[125.2761,-9.3542,0.0],[125.2828,-9.3489,0.0],[125.29,-9.3358,0.0],[125.2797,-9.328,12.3604],[125.2654,-9.3259,19.5249]]]]}
,"properties": {"GID_3": "TLS.6.5.15_1","GID_0": "TLS","country": "Timor-Leste","GID_1": "TLS.6_1","province": "Covalima","NL_NAME_1": "NA","GID_2": "TLS.6.5_1","county": "SuaiKota","NL_NAME_2": "NA","city": "Suai-Loro","VARNAME_3": "SuaiLoro","NL_NAME_3": "NA","TYPE_3": "Suco","ENGTYPE_3": "Community","CC_3": "NA","HASC_3": "NA","name": "Suai-Loro.city","area_km2": 15.77431,"hist_schema_id": "Elevation0-9000","hist_area_km2": {"0": 14.45625,"25": 1.31806}}}