{"type": "Feature","bbox": [125.4031,-8.7192,125.4367,-8.6754],"geometry": {"type": "MultiPolygon","coordinates": [[[[125.4232,-8.7169,672.0721],[125.432,-8.7127,685.7169],[125.4367,-8.7003,747.9724],[125.4308,-8.692,637.9983],[125.4295,-8.6794,530.4431],[125.4269,-8.6769,527.628],[125.4274,-8.6754,518.4937],[125.423,-8.6781,563.0458],[125.4185,-8.6852,624.3013],[125.4166,-8.6947,708.2858],[125.4031,-8.6966,1071.6967],[125.4085,-8.7067,754.6423],[125.406,-8.7151,650.5842],[125.4158,-8.7192,661.7968],[125.4232,-8.7169,672.0721]]]]}
,"properties": {"GID_3": "TLS.8.5.9_1","GID_0": "TLS","country": "Timor-Leste","GID_1": "TLS.8_1","province": "Ermera","NL_NAME_1": "NA","GID_2": "TLS.8.5_1","county": "Railaco","NL_NAME_2": "NA","city": "Tokoluli","VARNAME_3": "NA","NL_NAME_3": "NA","TYPE_3": "Suco","ENGTYPE_3": "Community","CC_3": "NA","HASC_3": "NA","name": "Tokoluli.city","area_km2": 9.66173,"hist_schema_id": "Elevation0-9000","hist_area_km2": {"525": 0.041919,"550": 0.146715,"575": 0.314389,"600": 0.544936,"625": 0.377259,"650": 0.670664,"675": 1.00598,"700": 0.817362,"725": 0.733529,"750": 0.880236,"775": 0.733532,"800": 0.607784,"825": 0.52395,"850": 0.356287,"875": 0.502994,"900": 0.314371,"925": 0.356288,"950": 0.398204,"975": 0.146707,"1000": 0.062875,"1025": 0.041917,"1050": 0.062875,"1075": 0.020958}}}