{"type":"Feature","properties":{"GID_3":"TLS.6.3.1_1","GID_0":"TLS","country":"Timor-Leste","GID_1":"TLS.6_1","province":"Covalima","NL_NAME_1":"NA","GID_2":"TLS.6.3_1","county":"Fohorem","NL_NAME_2":"NA","city":"Dato-Rua","VARNAME_3":"Datorua","NL_NAME_3":"NA","TYPE_3":"Suco","ENGTYPE_3":"Community","CC_3":"NA","HASC_3":"NA","name":"Dato-Rua.city"},
"geometry":{"type": "MultiPolygon","coordinates": [[[[125.097,-9.2018,1169.5812],[125.0804,-9.2162,794.4135],[125.0777,-9.2212,763.2192],[125.0751,-9.2218,725.9864],[125.0705,-9.2306,666.1389],[125.0608,-9.2382,622.3227],[125.0582,-9.2412,626.5637],[125.058,-9.2448,524.8344],[125.0541,-9.2478,521.4291],[125.0528,-9.2523,477.008],[125.054,-9.2577,453.3769],[125.0496,-9.2727,451.1132],[125.0516,-9.2745,395.3027],[125.0523,-9.2854,372.5441],[125.0584,-9.2962,327.0115],[125.0635,-9.2974,310.8396],[125.0667,-9.2955,312.0388],[125.073,-9.2979,290.0654],[125.0796,-9.2976,268.6219],[125.0773,-9.2887,428.0039],[125.081,-9.2842,533.6533],[125.0778,-9.2782,640.7671],[125.0818,-9.2755,717.7231],[125.0822,-9.2599,1092.239],[125.0856,-9.2524,1348.4314],[125.0852,-9.2459,1284.0221],[125.0896,-9.2392,1540.8781],[125.109,-9.223,1597.7393],[125.1031,-9.2138,1222.256],[125.1063,-9.1971,953.0992],[125.1023,-9.1958,978.8666],[125.1025,-9.1972,993.9274],[125.097,-9.2018,1169.5812]]]]}}