{"type":"Feature","properties":{"GID_3":"TLS.9.1.3_1","GID_0":"TLS","country":"Timor-Leste","GID_1":"TLS.9_1","province":"Lautém","NL_NAME_1":"NA","GID_2":"TLS.9.1_1","county":"Iliomar","NL_NAME_2":"NA","city":"Fuat","VARNAME_3":"NA","NL_NAME_3":"NA","TYPE_3":"Suco","ENGTYPE_3":"Community","CC_3":"NA","HASC_3":"NA","name":"Fuat.city"},
"geometry":{"type": "MultiPolygon","coordinates": [[[[126.8296,-8.7041,336.9991],[126.8348,-8.709,317.547],[126.8463,-8.7082,191.6556],[126.855,-8.7037,495.6427],[126.8613,-8.7044,319.314],[126.8706,-8.7027,127.9802],[126.8727,-8.6895,248.4425],[126.8802,-8.6833,130.9293],[126.8823,-8.6825,116.6619],[126.885,-8.6838,100.8977],[126.8873,-8.6822,150.7332],[126.8958,-8.6729,355.7324],[126.8998,-8.662,332.1607],[126.9058,-8.6605,260.4935],[126.9186,-8.6528,94.3392],[126.9301,-8.6516,43.2473],[126.9336,-8.6453,100.3038],[126.9331,-8.6399,100.8078],[126.9282,-8.6332,40.5164],[126.9353,-8.6283,57.0273],[126.9353,-8.6249,50.7621],[126.9318,-8.6223,58.4632],[126.9313,-8.618,64.5694],[126.9246,-8.6122,86.2647],[126.9276,-8.6071,129.0593],[126.9242,-8.608,94.8388],[126.9227,-8.6052,127.9668],[126.9175,-8.6031,108.4452],[126.9189,-8.5995,173.2328],[126.9174,-8.5984,154.6299],[126.9149,-8.5983,142.4163],[126.9121,-8.6011,113.8414],[126.9078,-8.6014,221.5088],[126.9047,-8.6041,230.4868],[126.8998,-8.6036,333.2878],[126.8925,-8.599,465.4599],[126.8848,-8.6012,509.5587],[126.8787,-8.5995,449.9561],[126.8764,-8.5965,415.9949],[126.8758,-8.5904,376.5317],[126.874,-8.589,330.9171],[126.8749,-8.5856,329.164],[126.8774,-8.5839,302.712],[126.8776,-8.58,343.3666],[126.8725,-8.5696,248.012],[126.8712,-8.5699,248.012],[126.8718,-8.5725,249.1613],[126.8702,-8.5722,255.1628],[126.8688,-8.5743,268.875],[126.87,-8.5768,266.3093],[126.8626,-8.578,289.5809],[126.8635,-8.5796,278.4773],[126.861,-8.5808,283.5977],[126.8616,-8.584,295.2406],[126.856,-8.5893,332.7779],[126.8553,-8.5979,330.6383],[126.8523,-8.6027,390.9833],[126.8471,-8.6063,450.458],[126.8444,-8.616,408.366],[126.8403,-8.6193,386.7635],[126.8416,-8.6266,397.3584],[126.8437,-8.629,372.2913],[126.8431,-8.632,412.267],[126.8334,-8.6364,527.5739],[126.831,-8.6435,526.276],[126.8285,-8.646,538.8766],[126.8298,-8.6519,547.5313],[126.8338,-8.6536,517.7969],[126.832,-8.6544,560.6152],[126.832,-8.656,637.1321],[126.8338,-8.6565,640.6244],[126.8326,-8.6589,667.5073],[126.8389,-8.6634,694.9898],[126.8362,-8.6662,789.6701],[126.837,-8.6688,676.4562],[126.8349,-8.6699,691.1411],[126.8372,-8.6732,651.6765],[126.8374,-8.6801,532.8614],[126.8297,-8.6884,414.9826],[126.8326,-8.693,279.9071],[126.8287,-8.6988,340.758],[126.8296,-8.7041,336.9991]]]]}}