{"type": "Feature","bbox": [126.7022,-8.6479,126.8122,-8.5569],"geometry": {"type": "MultiPolygon","coordinates": [[[[126.7131,-8.6036,499.9144],[126.7221,-8.6059,500.7095],[126.7277,-8.6151,311.0215],[126.7371,-8.6214,166.8912],[126.7394,-8.6293,137.5508],[126.7438,-8.6302,186.0608],[126.7519,-8.6359,222.5851],[126.7608,-8.6395,160.1605],[126.7636,-8.6422,91.7185],[126.7656,-8.6479,80.7775],[126.7675,-8.6446,84.31],[126.7747,-8.6394,94.2032],[126.781,-8.6275,112.7388],[126.7838,-8.6253,136.792],[126.7874,-8.6232,150.7912],[126.7972,-8.6229,168.2827],[126.804,-8.6201,172.4515],[126.8103,-8.6216,152.0017],[126.8103,-8.6174,179.8055],[126.8085,-8.6162,177.6858],[126.8122,-8.6134,168.683],[126.8092,-8.6071,175.7079],[126.8104,-8.6045,192.0892],[126.8087,-8.599,189.4234],[126.8045,-8.599,236.1837],[126.8014,-8.5925,349.2875],[126.7968,-8.5877,385.4034],[126.7945,-8.5877,410.8523],[126.7926,-8.5844,450.6729],[126.7855,-8.5819,593.2611],[126.7858,-8.577,717.2563],[126.7831,-8.5666,1151.4946],[126.7656,-8.5569,834.3047],[126.7605,-8.562,826.9692],[126.757,-8.5684,1043.3622],[126.7437,-8.5746,1003.2346],[126.735,-8.576,921.4788],[126.7255,-8.5803,1006.5104],[126.7165,-8.5814,923.5704],[126.7043,-8.5776,610.2186],[126.7022,-8.5846,746.3247],[126.7088,-8.5869,901.2143],[126.7132,-8.5954,654.9822],[126.7131,-8.6036,499.9144]]]]}
,"properties": {"GID_3": "TLS.4.1.11_1","GID_0": "TLS","country": "Timor-Leste","GID_1": "TLS.4_1","province": "Baucau","NL_NAME_1": "NA","GID_2": "TLS.4.1_1","county": "Baguia","NL_NAME_2": "NA","city": "Uaikala","VARNAME_3": "Vakala","NL_NAME_3": "NA","TYPE_3": "Suco","ENGTYPE_3": "Community","CC_3": "NA","HASC_3": "NA","name": "Uaikala.city","area_km2": 60.66917,"hist_schema_id": "Elevation0-9000","hist_area_km2": {"75": 0.18865,"100": 1.55117,"125": 1.42543,"150": 1.80276,"175": 3.10248,"200": 4.04582,"225": 3.20732,"250": 3.14445,"275": 2.83003,"300": 2.20116,"325": 1.86575,"350": 1.99155,"375": 1.65613,"400": 1.55132,"425": 1.40458,"450": 1.21591,"475": 1.21591,"500": 1.29977,"525": 1.23688,"550": 1.00628,"575": 0.94338,"600": 0.92242,"625": 0.96435,"650": 0.96436,"675": 1.25786,"700": 1.13208,"725": 1.04822,"750": 0.96437,"775": 0.83858,"800": 0.85955,"825": 0.98534,"850": 1.04824,"875": 1.0692,"900": 1.23693,"925": 1.11114,"950": 1.17404,"975": 1.15308,"1000": 1.15309,"1025": 1.36274,"1050": 1.00634,"1075": 0.6709,"1100": 0.56607,"1125": 0.23062,"1150": 0.04193,"1175": 0.02097}}}