{"type": "Feature","bbox": [125.6979,-8.6538,125.7794,-8.5837],"geometry": {"type": "MultiPolygon","coordinates": [[[[125.7158,-8.633,1138.2753],[125.7233,-8.6449,1003.0117],[125.7299,-8.6492,1000.4024],[125.733,-8.6538,907.916],[125.7376,-8.6532,889.305],[125.7419,-8.649,852.7709],[125.7447,-8.6491,829.5923],[125.7489,-8.6461,810.136],[125.7573,-8.6478,749.9926],[125.7585,-8.6518,642.0343],[125.7627,-8.6515,648.4031],[125.7698,-8.6472,613.6487],[125.7747,-8.6471,558.0549],[125.7794,-8.6446,507.8082],[125.7774,-8.6387,664.7081],[125.7741,-8.6356,722.8688],[125.7756,-8.6259,896.0624],[125.7778,-8.6235,816.7173],[125.7737,-8.6229,905.1304],[125.771,-8.6207,952.0308],[125.7674,-8.6171,1069.8097],[125.7668,-8.6124,960.6668],[125.7641,-8.6114,1014.9031],[125.7583,-8.6044,868.5867],[125.7601,-8.5991,795.8053],[125.7655,-8.5975,691.0164],[125.7675,-8.5953,602.6935],[125.7703,-8.5872,418.5867],[125.7651,-8.5886,425.426],[125.7556,-8.5856,473.2976],[125.7531,-8.5883,466.9344],[125.7448,-8.5852,514.7634],[125.7408,-8.5887,512.67],[125.7423,-8.5905,495.8739],[125.7384,-8.5898,510.3881],[125.7367,-8.5944,525.0791],[125.7338,-8.5919,543.3608],[125.7343,-8.5897,544.7684],[125.7324,-8.5908,561.4392],[125.733,-8.5889,561.1123],[125.7284,-8.5837,579.9902],[125.7266,-8.5901,576.5277],[125.7235,-8.5922,571.0515],[125.7173,-8.5943,621.178],[125.7185,-8.595,586.4128],[125.7142,-8.5965,613.4081],[125.7139,-8.5985,607.1908],[125.7112,-8.5981,605.0818],[125.7114,-8.6002,635.7095],[125.7085,-8.6024,614.8038],[125.7057,-8.6035,617.503],[125.7044,-8.6025,641.8363],[125.7014,-8.6054,634.6508],[125.6979,-8.6044,633.5404],[125.6988,-8.6196,943.0845],[125.7071,-8.6207,944.6611],[125.7158,-8.633,1138.2753]]]]}
,"properties": {"GID_3": "TLS.1.4.10_1","GID_0": "TLS","country": "Timor-Leste","GID_1": "TLS.1_1","province": "Aileu","NL_NAME_1": "NA","GID_2": "TLS.1.4_1","county": "Remexio","NL_NAME_2": "NA","city": "Tulatakeu","VARNAME_3": "TulaTakeu","NL_NAME_3": "NA","TYPE_3": "Suco","ENGTYPE_3": "Community","CC_3": "NA","HASC_3": "NA","name": "Tulatakeu.city","area_km2": 43.62348,"hist_schema_id": "Elevation0-9000","hist_area_km2": {"400": 0.02096,"425": 0.10482,"450": 0.18868,"475": 0.20964,"500": 0.39832,"525": 0.41928,"550": 0.83855,"575": 0.77567,"600": 1.13203,"625": 1.67708,"650": 2.07538,"675": 2.43174,"700": 2.4527,"725": 2.05439,"750": 1.90763,"775": 2.09628,"800": 1.9705,"825": 2.4107,"850": 2.07529,"875": 2.01238,"900": 1.78179,"925": 1.97045,"950": 1.86564,"975": 1.73987,"1000": 1.46736,"1025": 1.92851,"1050": 1.97044,"1075": 1.90755,"1100": 1.15291,"1125": 0.41924,"1150": 0.12577,"1175": 0.04192}}}