{"type":"Feature","properties":{"GID_3":"TLS.1.1.8_1","GID_0":"TLS","country":"Timor-Leste","GID_1":"TLS.1_1","province":"Aileu","NL_NAME_1":"NA","GID_2":"TLS.1.1_1","county":"Aileu","NL_NAME_2":"NA","city":"Hohulo","VARNAME_3":"Sukuliurai","NL_NAME_3":"NA","TYPE_3":"Suco","ENGTYPE_3":"Community","CC_3":"NA","HASC_3":"NA","name":"Hohulo.city"},
"geometry":{"type": "MultiPolygon","coordinates": [[[[125.5108,-8.8134,1708.9801],[125.4899,-8.8158,1412.7443],[125.4945,-8.8239,1487.729],[125.4929,-8.8278,1501.603],[125.4972,-8.8508,1850.3939],[125.5019,-8.8495,2077.3564],[125.5052,-8.8503,2212.5625],[125.5077,-8.8485,2284.9404],[125.5114,-8.8452,2291.9531],[125.5125,-8.8401,2245.7324],[125.5167,-8.8346,2067.5098],[125.5144,-8.8244,1935.4669],[125.5204,-8.8179,1752.2286],[125.5213,-8.8136,1713.4403],[125.5108,-8.8134,1708.9801]]]]}}