{"type": "Feature","bbox": [125.0335,-9.2784,125.054,-9.2521],"geometry": {"type": "MultiPolygon","coordinates": [[[[125.0335,-9.2701,825.0563],[125.0511,-9.2784,398.6636],[125.0502,-9.2683,417.7207],[125.054,-9.2577,453.3769],[125.0458,-9.2521,497.481],[125.0383,-9.2543,559.9001],[125.0363,-9.2576,610.9203],[125.0408,-9.2624,749.3745],[125.0406,-9.2645,786.841],[125.0335,-9.2701,825.0563]]]]}
,"properties": {"GID_3": "TLS.6.2.3_1","GID_0": "TLS","country": "Timor-Leste","GID_1": "TLS.6_1","province": "Covalima","NL_NAME_1": "NA","GID_2": "TLS.6.2_1","county": "FatuMean","NL_NAME_2": "NA","city": "Dakolo","VARNAME_3": "Dakolok","NL_NAME_3": "NA","TYPE_3": "Suco","ENGTYPE_3": "Community","CC_3": "NA","HASC_3": "NA","name": "Dakolo.city","area_km2": 3.57829,"hist_schema_id": "Elevation0-9000","hist_area_km2": {"400": 0.020925,"425": 0.04185,"450": 0.292957,"475": 0.167404,"500": 0.230183,"525": 0.29296,"550": 0.313886,"575": 0.272036,"600": 0.272034,"625": 0.125555,"650": 0.272035,"675": 0.167406,"700": 0.230183,"725": 0.209256,"750": 0.125554,"775": 0.104629,"800": 0.167405,"825": 0.125553,"850": 0.062777,"875": 0.062776,"900": 0.020926}}}