{"type": "Feature","bbox": [125.482,-8.9667,125.5462,-8.8718],"geometry": {"type": "MultiPolygon","coordinates": [[[[125.5328,-8.9667,726.5173],[125.5325,-8.9637,758.9806],[125.5343,-8.9631,766.733],[125.536,-8.9585,774.5269],[125.5404,-8.9559,795.329],[125.5408,-8.9527,837.9288],[125.5462,-8.9488,847.0638],[125.542,-8.9401,966.4308],[125.5388,-8.9369,1053.2639],[125.5399,-8.9298,1320.1237],[125.5351,-8.9271,1482.7181],[125.5325,-8.9233,1696.8611],[125.5306,-8.9127,1743.686],[125.5257,-8.9108,1824.5946],[125.5221,-8.9046,1834.3153],[125.5236,-8.902,1832.9531],[125.5214,-8.8893,1902.0189],[125.5297,-8.8794,2105.4246],[125.5257,-8.8743,2237.7419],[125.5258,-8.8721,2281.2302],[125.524,-8.8718,2328.5469],[125.5176,-8.8779,2259.4138],[125.5041,-8.8832,2295.8198],[125.4996,-8.8926,2493.0586],[125.4921,-8.8967,2569.2542],[125.4944,-8.9118,2764.0642],[125.4912,-8.9159,2725.5732],[125.482,-8.9214,2598.2002],[125.489,-8.9244,2389.6226],[125.4916,-8.9317,2207.7273],[125.4977,-8.9358,1863.5315],[125.4999,-8.9356,1715.9421],[125.5011,-8.9407,1514.2107],[125.5153,-8.9485,1014.5784],[125.5235,-8.9624,819.6422],[125.5269,-8.9626,830.678],[125.5287,-8.9652,763.3732],[125.5328,-8.9667,726.5173]]]]}
,"properties": {"GID_3": "TLS.2.2.3_1","GID_0": "TLS","country": "Timor-Leste","GID_1": "TLS.2_1","province": "Ainaro","NL_NAME_1": "NA","GID_2": "TLS.2.2_1","county": "HatoBuilico","NL_NAME_2": "NA","city": "Nonumogue","VARNAME_3": "NunoMoge","NL_NAME_3": "NA","TYPE_3": "Suco","ENGTYPE_3": "Community","CC_3": "NA","HASC_3": "NA","name": "Nonumogue.city","area_km2": 33.36649,"hist_schema_id": "Elevation0-9000","hist_area_km2": {"725": 0.06283,"750": 0.12566,"775": 0.1466,"800": 0.18849,"825": 0.29321,"850": 0.31416,"875": 0.3351,"900": 0.37699,"925": 0.35605,"950": 0.46077,"975": 0.25133,"1000": 0.41888,"1025": 0.23039,"1050": 0.377,"1075": 0.37699,"1100": 0.48172,"1125": 0.43983,"1150": 0.41889,"1175": 0.35606,"1200": 0.377,"1225": 0.377,"1250": 0.35606,"1275": 0.31417,"1300": 0.27228,"1325": 0.31417,"1350": 0.20945,"1375": 0.23039,"1400": 0.31417,"1425": 0.20945,"1450": 0.43984,"1475": 0.31417,"1500": 0.29323,"1525": 0.29323,"1550": 0.33512,"1575": 0.1885,"1600": 0.39796,"1625": 0.25134,"1650": 0.12567,"1675": 0.33512,"1700": 0.10472,"1725": 0.31418,"1750": 0.33513,"1775": 0.35607,"1800": 0.27229,"1825": 0.37702,"1850": 0.52365,"1875": 0.62838,"1900": 0.71217,"1925": 0.73313,"1950": 0.81691,"1975": 0.81692,"2000": 0.75407,"2025": 0.71218,"2050": 0.98449,"2075": 1.04732,"2100": 0.60745,"2125": 0.94259,"2150": 0.85882,"2175": 0.8588,"2200": 1.21491,"2225": 0.75409,"2250": 0.56556,"2275": 0.87976,"2300": 0.67029,"2325": 0.52366,"2350": 0.29325,"2375": 0.43988,"2400": 0.25136,"2425": 0.2723,"2450": 0.35609,"2475": 0.33514,"2500": 0.23041,"2525": 0.18852,"2550": 0.16757,"2575": 0.18852,"2600": 0.23041,"2625": 0.16757,"2650": 0.16757,"2675": 0.10473,"2700": 0.14662,"2725": 0.12568,"2750": 0.18852,"2775": 0.08378,"2800": 0.02095,"2825": 0.02095,"2850": 0.04189,"2900": 0.02095}}}