{"type": "Feature","bbox": [125.5797,-8.5677,125.5879,-8.5559],"geometry": {"type": "MultiPolygon","coordinates": [[[[125.5831,-8.5677,29.8169],[125.5829,-8.5653,22.9407],[125.5853,-8.5653,23.808],[125.5879,-8.563,25.8331],[125.5828,-8.5559,4.5208],[125.5798,-8.5564,5.2731],[125.5797,-8.5591,6.3079],[125.5831,-8.5677,29.8169]]]]}
,"properties": {"GID_3": "TLS.7.3.19_1","GID_0": "TLS","country": "Timor-Leste","GID_1": "TLS.7_1","province": "Dili","NL_NAME_1": "NA","GID_2": "TLS.7.3_1","county": "DiliTimur","NL_NAME_2": "NA","city": "SantaCruz","VARNAME_3": "NA","NL_NAME_3": "NA","TYPE_3": "Suco","ENGTYPE_3": "Community","CC_3": "NA","HASC_3": "NA","name": "Santa_Cruz.city","area_km2": 0.5870474,"hist_schema_id": "Elevation0-9000","hist_area_km2": {"0": 0.3144913,"25": 0.2725562}}}