{"type":"Feature","properties":{"GID_3":"TLS.3.4.1_1","GID_0":"TLS","country":"Timor-Leste","GID_1":"TLS.3_1","province":"Ambeno","NL_NAME_1":"NA","GID_2":"TLS.3.4_1","county":"Passabe","NL_NAME_2":"NA","city":"Abani","VARNAME_3":"NA","NL_NAME_3":"NA","TYPE_3":"Suco","ENGTYPE_3":"Community","CC_3":"NA","HASC_3":"NA","name":"Abani.city"},
"geometry":{"type": "MultiPolygon","coordinates": [[[[124.3496,-9.4286,810.369],[124.3243,-9.423,674.1307],[124.3188,-9.4205,461.8333],[124.3165,-9.4288,539.9381],[124.3188,-9.4332,793.4948],[124.3136,-9.4423,944.0246],[124.3122,-9.4557,961.5848],[124.3092,-9.462,979.9211],[124.332,-9.4633,587.3821],[124.3413,-9.4655,575.892],[124.3575,-9.4637,513.386],[124.3637,-9.4614,506.9983],[124.3651,-9.4596,498.6202],[124.3621,-9.4461,781.5658],[124.352,-9.4408,824.4169],[124.3482,-9.434,903.1468],[124.3496,-9.4286,810.369]]]]}}