{"type": "Feature","bbox": [126.5621,-8.6295,126.6124,-8.5516],"geometry": {"type": "MultiPolygon","coordinates": [[[[126.6124,-8.6095,1521.3984],[126.6102,-8.6074,1451.9744],[126.6078,-8.5932,1133.1453],[126.6009,-8.5887,692.3003],[126.5992,-8.5738,460.6197],[126.5966,-8.5661,352.1479],[126.5869,-8.5588,197.1835],[126.5865,-8.5549,165.8654],[126.5848,-8.5542,166.9103],[126.5753,-8.5516,263.002],[126.5656,-8.553,397.4594],[126.5621,-8.5659,384.2876],[126.5665,-8.5679,337.371],[126.5678,-8.5718,310.956],[126.5717,-8.5746,489.3967],[126.569,-8.5798,528.9033],[126.568,-8.5872,556.4485],[126.5699,-8.5924,653.6111],[126.578,-8.5999,644.0677],[126.5767,-8.6083,775.333],[126.5793,-8.6201,1049.2039],[126.578,-8.6228,1046.0706],[126.5784,-8.6295,1268.2219],[126.5849,-8.625,1212.7284],[126.5928,-8.6251,1261.0076],[126.5954,-8.6234,1251.9713],[126.6071,-8.6264,1471.7351],[126.6036,-8.6151,1869.8726],[126.6124,-8.6095,1521.3984]]]]}
,"properties": {"GID_3": "TLS.4.4.14_1","GID_0": "TLS","country": "Timor-Leste","GID_1": "TLS.4_1","province": "Baucau","NL_NAME_1": "NA","GID_2": "TLS.4.4_1","county": "Quelicai","NL_NAME_2": "NA","city": "Uaitame","VARNAME_3": "NA","NL_NAME_3": "NA","TYPE_3": "Suco","ENGTYPE_3": "Community","CC_3": "NA","HASC_3": "NA","name": "Uaitame.city","area_km2": 26.62477,"hist_schema_id": "Elevation0-9000","hist_area_km2": {"150": 0.04193,"175": 0.33546,"200": 0.41932,"225": 0.58705,"250": 0.73381,"275": 0.96442,"300": 0.88056,"325": 1.11118,"350": 0.90152,"375": 1.00634,"400": 0.92248,"425": 0.85957,"450": 0.71281,"475": 0.88052,"500": 0.75473,"525": 1.09016,"550": 0.88051,"575": 0.9434,"600": 0.64989,"625": 0.69181,"650": 0.5241,"675": 0.35639,"700": 0.37735,"725": 0.35639,"750": 0.4612,"775": 0.31446,"800": 0.31446,"825": 0.35638,"850": 0.48216,"875": 0.2306,"900": 0.39831,"925": 0.35638,"950": 0.25156,"975": 0.35637,"1000": 0.20963,"1025": 0.27252,"1050": 0.35637,"1075": 0.37734,"1100": 0.35637,"1125": 0.33541,"1150": 0.35637,"1175": 0.37733,"1200": 0.3983,"1225": 0.23059,"1250": 0.1677,"1275": 0.04193,"1300": 0.10482,"1325": 0.20963,"1350": 0.1677,"1375": 0.25156,"1400": 0.18867,"1425": 0.10481,"1450": 0.04193,"1475": 0.06289,"1500": 0.10481,"1525": 0.06289,"1550": 0.04193,"1575": 0.14674,"1600": 0.08385,"1625": 0.08385,"1650": 0.18867,"1675": 0.08385,"1700": 0.18867,"1725": 0.08385,"1750": 0.08385,"1775": 0.10482,"1800": 0.08385,"1825": 0.06289,"1850": 0.04193,"1875": 0.04193,"1925": 0.02096}}}