{"type":"Feature","properties":{"GID_3":"TLS.5.2.6_1","GID_0":"TLS","country":"Timor-Leste","GID_1":"TLS.5_1","province":"Bobonaro","NL_NAME_1":"NA","GID_2":"TLS.5.2_1","county":"Balibó","NL_NAME_2":"NA","city":"Sanirin","VARNAME_3":"Banirin","NL_NAME_3":"NA","TYPE_3":"Suco","ENGTYPE_3":"Community","CC_3":"NA","HASC_3":"NA","name":"Sanirin.city"},
"geometry":{"type": "MultiPolygon","coordinates": [[[[125.0043,-8.8783,0.0],[124.9997,-8.8953,7.1543],[124.9925,-8.9044,1.4921],[124.9889,-8.9197,2.1897],[124.9857,-8.9256,0.0],[124.9799,-8.9298,0.0],[124.9928,-8.9343,62.8643],[124.9986,-8.9328,69.3148],[125.0035,-8.9363,360.7315],[125.0163,-8.93,542.8864],[125.0234,-8.9285,663.1066],[125.036,-8.9346,493.1849],[125.0378,-8.9381,454.7191],[125.0404,-8.9335,449.0875],[125.0452,-8.9311,514.4915],[125.0482,-8.9244,491.6461],[125.0471,-8.9198,447.6594],[125.0514,-8.9166,334.314],[125.0486,-8.9118,345.1104],[125.0484,-8.8929,276.5555],[125.0496,-8.887,245.1898],[125.0486,-8.8777,71.0425],[125.0447,-8.874,24.5544],[125.0443,-8.8703,21.4179],[125.0367,-8.8701,15.7033],[125.0329,-8.8679,11.4933],[125.0279,-8.8677,7.7098],[125.0233,-8.8692,9.2641],[125.0163,-8.8758,2.0],[125.0094,-8.8759,4.0802],[125.0065,-8.8787,5.7623],[125.0043,-8.8783,0.0]]]]}}