{"type":"Feature","properties":{"GID_3":"TLS.8.3.1_1","GID_0":"TLS","country":"Timor-Leste","GID_1":"TLS.8_1","province":"Ermera","NL_NAME_1":"NA","GID_2":"TLS.8.3_1","county":"Hatólia","NL_NAME_2":"NA","city":"Ailelo","VARNAME_3":"NA","NL_NAME_3":"NA","TYPE_3":"Suco","ENGTYPE_3":"Community","CC_3":"NA","HASC_3":"NA","name":"Ailelo.city"},
"geometry":{"type": "MultiPolygon","coordinates": [[[[125.2792,-8.8236,117.9999],[125.2861,-8.8242,130.7361],[125.2894,-8.8205,155.4426],[125.3009,-8.8196,318.921],[125.3077,-8.824,331.6125],[125.3137,-8.8195,449.8402],[125.3136,-8.8167,492.5257],[125.3192,-8.8086,648.4529],[125.3297,-8.8088,832.4171],[125.3344,-8.8028,1014.4012],[125.3348,-8.7988,1062.7188],[125.332,-8.7996,1040.4089],[125.3308,-8.8018,996.9172],[125.3278,-8.8011,988.265],[125.3179,-8.8052,738.3646],[125.3157,-8.8039,757.6188],[125.3135,-8.7977,821.7126],[125.314,-8.7956,803.4706],[125.3272,-8.7931,1162.3777],[125.3262,-8.7827,630.049],[125.3211,-8.7809,543.7979],[125.3165,-8.7842,494.7025],[125.3114,-8.7846,410.7659],[125.3044,-8.7895,330.6582],[125.3014,-8.7852,321.6115],[125.2949,-8.7812,199.0766],[125.293,-8.7839,189.5537],[125.2868,-8.782,149.3359],[125.281,-8.7826,134.2643],[125.2713,-8.7865,111.7826],[125.2639,-8.7834,109.8363],[125.2587,-8.7772,86.9426],[125.2498,-8.7809,72.7822],[125.258,-8.7902,81.2892],[125.2792,-8.8236,117.9999]]]]}}