{"type":"Feature","properties":{"GID_2":"TLS.13.1_1","GID_0":"TLS","country":"Timor-Leste","GID_1":"TLS.13_1","province":"Viqueque","NL_NAME_1":"NA","county":"Lacluta","VARNAME_2":"NA","NL_NAME_2":"NA","TYPE_2":"Subdistrito","ENGTYPE_2":"Subdistrict","CC_2":"NA","HASC_2":"NA","name":"Lacluta.county"},
"geometry":{"type": "MultiPolygon","coordinates": [[[[126.2257,-8.8543,282.9267],[126.2242,-8.8509,198.411],[126.2255,-8.8456,192.2424],[126.2238,-8.8387,211.2092],[126.2259,-8.8296,227.1909],[126.2197,-8.8159,617.7196],[126.2227,-8.8093,725.5145],[126.2212,-8.8024,587.7252],[126.225,-8.7921,762.2998],[126.2235,-8.7873,558.8214],[126.2242,-8.7823,489.1884],[126.2214,-8.7758,556.8932],[126.2228,-8.7725,474.5893],[126.2284,-8.7682,322.0464],[126.2307,-8.7613,398.9025],[126.2256,-8.7499,766.1193],[126.2286,-8.7441,520.8005],[126.2275,-8.7316,648.3672],[126.2316,-8.7258,683.043],[126.2292,-8.723,606.7779],[126.2286,-8.7116,424.7838],[126.2226,-8.7062,319.8564],[126.2212,-8.6975,242.3905],[126.2183,-8.6968,249.3321],[126.2174,-8.6929,243.1029],[126.2148,-8.6912,260.5868],[126.2136,-8.6917,231.6375],[126.2141,-8.6951,236.0449],[126.2121,-8.6956,239.6787],[126.208,-8.6865,230.9205],[126.2023,-8.6878,240.3372],[126.2008,-8.6857,262.2572],[126.1984,-8.6919,232.4201],[126.1958,-8.6885,231.2134],[126.1936,-8.6922,227.2654],[126.1921,-8.6898,227.6422],[126.1882,-8.6921,206.9507],[126.1874,-8.6879,220.221],[126.1833,-8.6891,194.3125],[126.1786,-8.6876,195.8339],[126.1737,-8.6807,180.8092],[126.1683,-8.6766,182.5833],[126.1649,-8.6761,207.7989],[126.1601,-8.6791,167.7576],[126.1551,-8.6732,156.4559],[126.1481,-8.6728,149.0594],[126.1425,-8.6672,138.5478],[126.1319,-8.67,161.5885],[126.1295,-8.6678,188.2308],[126.125,-8.6669,169.9585],[126.1177,-8.6706,186.1835],[126.1117,-8.6689,210.1314],[126.1122,-8.6723,209.152],[126.1084,-8.6735,203.5576],[126.1045,-8.6821,233.554],[126.0984,-8.6871,246.9034],[126.0974,-8.6897,257.5604],[126.0985,-8.6922,260.3531],[126.0956,-8.6939,258.8352],[126.0972,-8.6951,273.4531],[126.0966,-8.6991,286.499],[126.0981,-8.6991,308.2939],[126.0991,-8.7021,298.6906],[126.0968,-8.7037,305.6466],[126.0978,-8.7055,318.0516],[126.0947,-8.7077,377.5888],[126.0968,-8.7127,345.5213],[126.0974,-8.7216,395.7422],[126.0909,-8.7261,424.2915],[126.0915,-8.7275,422.9906],[126.0882,-8.7336,525.2086],[126.0764,-8.7455,588.6882],[126.0711,-8.7473,674.8789],[126.0615,-8.7571,550.8483],[126.0564,-8.7569,687.1974],[126.0495,-8.7606,765.672],[126.0513,-8.7646,676.4429],[126.0479,-8.7697,491.2754],[126.0463,-8.7769,339.0436],[126.0518,-8.7873,303.5907],[126.0479,-8.7956,273.3408],[126.0549,-8.7997,248.1838],[126.0555,-8.8043,241.0709],[126.0581,-8.8036,237.7333],[126.0594,-8.8068,243.7671],[126.073,-8.8174,215.3457],[126.0754,-8.8236,189.5669],[126.0748,-8.8324,195.7163],[126.079,-8.837,177.6071],[126.089,-8.8411,151.6391],[126.0945,-8.849,148.1383],[126.0931,-8.8571,137.5188],[126.0886,-8.8628,124.0744],[126.092,-8.8728,109.4364],[126.0878,-8.8769,120.0634],[126.0847,-8.8845,95.4918],[126.0881,-8.8844,210.6455],[126.0878,-8.8879,98.403],[126.0925,-8.8923,81.5855],[126.0923,-8.8972,87.5347],[126.0976,-8.9032,117.0134],[126.1002,-8.9098,89.1798],[126.1006,-8.9225,56.4329],[126.1044,-8.9362,47.8262],[126.1042,-8.9407,44.6954],[126.1082,-8.9465,40.0372],[126.1111,-8.9471,37.9034],[126.1152,-8.9402,35.0882],[126.1231,-8.9356,31.1812],[126.1253,-8.9308,40.1849],[126.1905,-8.8912,128.1057],[126.2044,-8.8848,101.6768],[126.214,-8.8856,49.9728],[126.2165,-8.8883,52.7504],[126.2182,-8.8881,49.0088],[126.2202,-8.9022,39.798],[126.2281,-8.9027,53.3735],[126.233,-8.9068,78.3695],[126.2417,-8.903,191.4754],[126.2427,-8.8996,236.2654],[126.2379,-8.8846,72.684],[126.2357,-8.8828,72.2145],[126.2374,-8.8825,72.2145],[126.2371,-8.8792,87.3647],[126.239,-8.8773,110.0667],[126.2408,-8.8698,155.673],[126.2387,-8.8671,101.3445],[126.2318,-8.8637,138.7844],[126.2311,-8.8591,172.0242],[126.2257,-8.8543,282.9267]]]]}}