{"type": "Feature","bbox": [126.5085,-8.646,126.5424,-8.6175],"geometry": {"type": "MultiPolygon","coordinates": [[[[126.5113,-8.6177,242.1919],[126.5119,-8.6243,259.0697],[126.5085,-8.6291,249.3192],[126.5103,-8.6316,269.5431],[126.5091,-8.6355,311.0109],[126.511,-8.6377,304.0145],[126.5141,-8.6379,365.3354],[126.5206,-8.6436,397.7424],[126.5424,-8.646,752.0558],[126.5424,-8.6417,713.0454],[126.5391,-8.6352,596.877],[126.5409,-8.6301,547.5824],[126.5362,-8.6244,488.5197],[126.5323,-8.6226,446.3558],[126.5227,-8.6227,348.1213],[126.5165,-8.6202,271.732],[126.5139,-8.6175,247.9524],[126.5113,-8.6177,242.1919]]]]}
,"properties": {"GID_3": "TLS.4.4.8_1","GID_0": "TLS","country": "Timor-Leste","GID_1": "TLS.4_1","province": "Baucau","NL_NAME_1": "NA","GID_2": "TLS.4.4_1","county": "Quelicai","NL_NAME_2": "NA","city": "LaisorolaiBawah","VARNAME_3": "LaisorulaiDebaixo","NL_NAME_3": "NA","TYPE_3": "Suco","ENGTYPE_3": "Community","CC_3": "NA","HASC_3": "NA","name": "Laisorolai_Bawah.city","area_km2": 7.672089,"hist_schema_id": "Elevation0-9000","hist_area_km2": {"225": 0.041926,"250": 0.188663,"275": 0.35636,"300": 0.440208,"325": 0.377321,"350": 0.482129,"375": 0.482129,"400": 0.524053,"425": 0.461165,"450": 0.524051,"475": 0.565974,"500": 0.628858,"525": 0.54501,"550": 0.461159,"575": 0.419235,"600": 0.398272,"625": 0.293462,"650": 0.209615,"675": 0.167692,"700": 0.104807}}}