{"type": "Feature","bbox": [125.0036,-8.9243,125.2202,-8.736],"geometry": {"type": "MultiPolygon","coordinates": [[[[125.2052,-8.8434,54.9029],[125.2047,-8.8381,52.9025],[125.2101,-8.8296,51.0254],[125.209,-8.8218,49.4569],[125.2117,-8.8125,46.8944],[125.2195,-8.8063,51.2669],[125.2202,-8.8041,47.4262],[125.2166,-8.8,45.7529],[125.215,-8.7915,43.0977],[125.2101,-8.789,48.2479],[125.2071,-8.782,44.1757],[125.2085,-8.774,39.1632],[125.2026,-8.7716,39.8753],[125.2027,-8.7689,37.6198],[125.1964,-8.7635,35.1107],[125.1899,-8.7536,31.2335],[125.1854,-8.7524,30.1908],[125.1835,-8.7493,28.3762],[125.1803,-8.7479,28.1424],[125.1704,-8.753,43.8141],[125.1603,-8.7504,21.6611],[125.1564,-8.7514,21.2147],[125.1517,-8.7499,19.2889],[125.1461,-8.7513,48.3892],[125.1366,-8.7445,14.3438],[125.1249,-8.7421,12.1435],[125.1202,-8.7374,9.5985],[125.1031,-8.7383,3.626],[125.0925,-8.736,1.6673],[125.0923,-8.7377,1.3461],[125.0912,-8.7375,0.5128],[125.0933,-8.7491,3.8269],[125.0942,-8.7683,0.0],[125.0977,-8.7867,6.2137],[125.0956,-8.7981,48.3694],[125.0792,-8.8161,2.7378999999999998],[125.0758,-8.8172,0.0],[125.0692,-8.8244,2.2328],[125.0553,-8.8292,0.0],[125.0411,-8.8283,8.1304],[125.0356,-8.8322,0.0],[125.0357,-8.8343,45.624],[125.0328,-8.8376,0.0],[125.0283,-8.8381,7.0715],[125.0053,-8.8642,0.0],[125.0036,-8.8758,0.0],[125.0046,-8.8792,0.0],[125.0094,-8.8759,4.0802],[125.0163,-8.8758,2.0],[125.0233,-8.8692,9.2641],[125.0279,-8.8677,7.7098],[125.044,-8.8705,21.4179],[125.0461,-8.8671,28.6025],[125.05,-8.8663,50.2983],[125.0506,-8.8641,34.2817],[125.0546,-8.8634,69.3169],[125.0558,-8.8594,93.0064],[125.0603,-8.859,60.0523],[125.0636,-8.8563,138.2583],[125.0662,-8.8606,150.2253],[125.0697,-8.8623,152.9014],[125.0748,-8.8613,165.1368],[125.0794,-8.8678,186.3466],[125.0835,-8.8702,194.7099],[125.0789,-8.8772,224.4806],[125.0802,-8.8846,290.3221],[125.0902,-8.898,253.0243],[125.0903,-8.9001,249.6784],[125.094,-8.8997,253.611],[125.0972,-8.903,282.4851],[125.1002,-8.9102,207.7599],[125.102,-8.9105,188.6752],[125.1055,-8.9157,175.0286],[125.1117,-8.9176,137.74],[125.1143,-8.9209,123.9312],[125.1183,-8.9207,115.3953],[125.1232,-8.9229,106.3555],[125.1239,-8.9214,106.3555],[125.1249,-8.9231,120.48],[125.1304,-8.922,101.3946],[125.1318,-8.9243,91.7075],[125.1357,-8.922,90.6786],[125.1401,-8.9219,83.1947],[125.1399,-8.9185,83.1964],[125.1468,-8.905,77.0045],[125.1524,-8.9017,75.6117],[125.155,-8.902,74.6876],[125.1562,-8.8964,76.5878],[125.1655,-8.8953,74.3289],[125.1674,-8.8939,70.648],[125.1675,-8.8901,69.0004],[125.1721,-8.8899,68.5026],[125.1762,-8.8859,73.976],[125.1808,-8.8856,66.6256],[125.1857,-8.8819,65.8555],[125.1858,-8.8762,65.1281],[125.1945,-8.8621,59.6977],[125.195,-8.8515,56.575],[125.2052,-8.8434,54.9029]]]]}
,"properties": {"GID_2": "TLS.5.1_1","GID_0": "TLS","country": "Timor-Leste","GID_1": "TLS.5_1","province": "Bobonaro","NL_NAME_1": "NA","county": "Atabai","VARNAME_2": "Atabae","NL_NAME_2": "NA","TYPE_2": "Subdistrito","ENGTYPE_2": "Subdistrict","CC_2": "NA","HASC_2": "NA","name": "Atabai.county","area_km2": 252.6899,"hist_schema_id": "Elevation0-9000","hist_area_km2": {"0": 15.4841,"25": 14.0383,"50": 15.8609,"75": 19.547,"100": 15.1058,"125": 14.2467,"150": 14.1,"175": 23.003,"200": 20.049,"225": 17.3467,"250": 14.9165,"275": 12.8005,"300": 10.6847,"325": 7.5213,"350": 7.1652,"375": 4.9862,"400": 4.4625,"425": 3.5198,"450": 2.4514,"475": 2.0743,"500": 1.8438,"525": 1.76,"550": 1.8648,"575": 1.76,"600": 1.5086,"625": 1.0057,"650": 0.8591,"675": 0.7962,"700": 0.44,"725": 0.3353,"750": 0.2933,"775": 0.2095,"800": 0.1886,"825": 0.1257,"850": 0.1048,"875": 0.0838,"900": 0.0629,"925": 0.0419,"950": 0.0419}}}