{"type": "Feature","bbox": [124.3399,-9.34,124.4433,-9.2755],"geometry": {"type": "MultiPolygon","coordinates": [[[[124.4202,-9.3356,255.7032],[124.4219,-9.3363,277.5439],[124.4265,-9.3318,293.7],[124.4311,-9.3339,303.9025],[124.4342,-9.3315,293.5053],[124.4353,-9.3349,337.7574],[124.4365,-9.3333,325.1328],[124.4385,-9.3337,319.2844],[124.4399,-9.3151,543.4128],[124.4433,-9.3127,707.3199],[124.4238,-9.2966,847.5639],[124.4186,-9.2953,762.0446],[124.4164,-9.2909,647.4918],[124.4111,-9.2869,521.4453],[124.3906,-9.2842,93.5379],[124.3858,-9.2857,87.0688],[124.379,-9.2832,76.8119],[124.3748,-9.284,71.8901],[124.371,-9.2813,67.952],[124.3617,-9.2807,59.5209],[124.3547,-9.2755,51.1083],[124.3419,-9.2805,82.4755],[124.3399,-9.2854,63.9056],[124.3425,-9.2862,63.6617],[124.3441,-9.2958,85.3227],[124.349,-9.2998,83.9465],[124.358,-9.2981,90.822],[124.3672,-9.3082,118.4838],[124.3753,-9.309,125.301],[124.3805,-9.3141,142.2729],[124.384,-9.3138,140.5307],[124.3854,-9.3183,187.4741],[124.3835,-9.3244,154.2182],[124.3857,-9.3275,161.0113],[124.3891,-9.3284,164.8522],[124.3906,-9.3317,190.0342],[124.3946,-9.3307,203.0874],[124.3969,-9.3362,192.4048],[124.4009,-9.3366,218.4473],[124.4035,-9.34,222.5478],[124.4094,-9.3369,232.6223],[124.412,-9.3383,253.5967],[124.4146,-9.3357,253.3435],[124.4202,-9.3356,255.7032]]]]}
,"properties": {"GID_3": "TLS.3.3.8_1","GID_0": "TLS","country": "Timor-Leste","GID_1": "TLS.3_1","province": "Ambeno","NL_NAME_1": "NA","GID_2": "TLS.3.3_1","county": "PanteMacassar","NL_NAME_2": "NA","city": "Naimeco","VARNAME_3": "NaiMeco","NL_NAME_3": "NA","TYPE_3": "Suco","ENGTYPE_3": "Community","CC_3": "NA","HASC_3": "NA","name": "Naimeco.city","area_km2": 40.6327,"hist_schema_id": "Elevation0-9000","hist_area_km2": {"50": 1.59027,"75": 3.24326,"100": 2.13423,"125": 1.25542,"150": 1.71571,"175": 1.48556,"200": 1.31815,"225": 1.40183,"250": 1.50644,"275": 1.1926,"300": 1.35996,"325": 1.40181,"350": 1.21351,"375": 1.42273,"400": 1.10889,"425": 1.19259,"450": 0.98337,"475": 1.21351,"500": 1.12982,"525": 1.29721,"550": 1.1926,"575": 0.87876,"600": 0.94154,"625": 1.0043,"650": 0.66953,"675": 0.83692,"700": 0.60677,"725": 0.73231,"750": 0.64861,"775": 0.73231,"800": 0.64862,"825": 0.58585,"850": 0.46031,"875": 0.46031,"900": 0.29293,"925": 0.33477,"950": 0.20923,"975": 0.20923,"1000": 0.02092}}}