{"type": "Feature","bbox": [125.372,-8.9865,125.451,-8.9567],"geometry": {"type": "MultiPolygon","coordinates": [[[[125.451,-8.973,2204.6824],[125.4453,-8.9687,1971.0115],[125.4355,-8.9662,1857.7383],[125.4327,-8.9592,1728.1912],[125.4273,-8.9567,1667.7736],[125.4077,-8.9609,1534.8545],[125.3841,-8.9632,1221.1089],[125.3756,-8.9735,933.6256],[125.372,-8.985,753.752],[125.3729,-8.9865,737.5875],[125.3844,-8.9857,893.957],[125.3869,-8.9839,1011.2565],[125.3938,-8.9836,1282.7627],[125.3971,-8.9818,1323.5353],[125.4001,-8.9827,1392.9688],[125.4144,-8.9782,1968.4115],[125.4257,-8.9844,2277.27],[125.43,-8.9852,2386.887],[125.4488,-8.9759,2323.4954],[125.451,-8.973,2204.6824]]]]}
,"properties": {"GID_3": "TLS.8.1.1_1","GID_0": "TLS","country": "Timor-Leste","GID_1": "TLS.8_1","province": "Ermera","NL_NAME_1": "NA","GID_2": "TLS.8.1_1","county": "Atsabe","NL_NAME_2": "NA","city": "Atara","VARNAME_3": "NA","NL_NAME_3": "NA","TYPE_3": "Suco","ENGTYPE_3": "Community","CC_3": "NA","HASC_3": "NA","name": "Atara.city","area_km2": 17.6757,"hist_schema_id": "Elevation0-9000","hist_area_km2": {"750": 0.06283,"775": 0.10471,"800": 0.16754,"825": 0.08377,"850": 0.23036,"875": 0.16754,"900": 0.1466,"925": 0.33508,"950": 0.16754,"975": 0.1466,"1000": 0.18848,"1025": 0.2932,"1050": 0.33508,"1075": 0.1466,"1100": 0.27225,"1125": 0.18849,"1150": 0.23037,"1175": 0.23037,"1200": 0.2932,"1225": 0.16754,"1250": 0.35603,"1275": 0.12566,"1300": 0.25131,"1325": 0.20943,"1350": 0.31414,"1375": 0.27226,"1400": 0.16754,"1425": 0.20943,"1450": 0.25131,"1475": 0.31414,"1500": 0.27226,"1525": 0.20943,"1550": 0.1466,"1575": 0.25132,"1600": 0.33509,"1625": 0.35603,"1650": 0.43981,"1675": 0.27226,"1700": 0.35603,"1725": 0.46075,"1750": 0.33509,"1775": 0.48169,"1800": 0.35603,"1825": 0.39792,"1850": 0.52357,"1875": 0.31414,"1900": 0.41886,"1925": 0.52357,"1950": 0.37697,"1975": 0.33509,"2000": 0.39791,"2025": 0.25131,"2050": 0.27225,"2075": 0.25131,"2100": 0.16754,"2125": 0.37697,"2150": 0.23037,"2175": 0.23037,"2200": 0.23037,"2225": 0.20942,"2250": 0.20942,"2275": 0.16754,"2300": 0.25131,"2325": 0.18848,"2350": 0.16754,"2375": 0.12565,"2400": 0.23036,"2425": 0.08377,"2450": 0.04188}}}