{"type":"Feature","properties":{"GID_2":"TLS.8.4_1","GID_0":"TLS","country":"Timor-Leste","GID_1":"TLS.8_1","province":"Ermera","NL_NAME_1":"NA","county":"Letefoho","VARNAME_2":"LeteFoho","NL_NAME_2":"NA","TYPE_2":"Subdistrito","ENGTYPE_2":"Subdistrict","CC_2":"NA","HASC_2":"NA","name":"Letefoho.county"},
"geometry":{"type": "MultiPolygon","coordinates": [[[[125.4359,-8.905,1639.2643],[125.4414,-8.9053,1403.2534],[125.4439,-8.9004,1456.5232],[125.4519,-8.8996,1701.946],[125.4582,-8.897,1670.5607],[125.4641,-8.8918,1715.3459],[125.4682,-8.8917,1763.5199],[125.4721,-8.8844,1793.9443],[125.4772,-8.8824,1830.7703],[125.4926,-8.8872,2058.4661],[125.4936,-8.8903,2166.957],[125.4976,-8.8941,2512.2595],[125.502,-8.8893,2456.9846],[125.5012,-8.8881,2456.9846],[125.5041,-8.8832,2295.8198],[125.5176,-8.8779,2259.4138],[125.5223,-8.8722,2335.1299],[125.5206,-8.8667,2276.8867],[125.5099,-8.855,2326.3723],[125.5074,-8.8487,2284.9404],[125.5052,-8.8503,2212.5625],[125.5019,-8.8495,2077.3564],[125.4972,-8.8508,1850.3939],[125.4929,-8.8278,1501.603],[125.4943,-8.8234,1487.729],[125.4913,-8.8173,1438.8854],[125.4862,-8.8128,1437.5909],[125.4826,-8.8044,1408.4409],[125.4798,-8.8041,1412.3134],[125.4794,-8.7999,1334.5991],[125.4775,-8.798,1326.9321],[125.4768,-8.7997,1348.8748],[125.4727,-8.7987,1330.5126],[125.4695,-8.8007,1357.8159],[125.4676,-8.7984,1310.7434],[125.4636,-8.8022,1402.3096],[125.4623,-8.797,1279.8162],[125.4605,-8.7963,1313.4001],[125.4593,-8.7863,1281.8999],[125.4538,-8.7808,1203.347],[125.4607,-8.7738,1182.7749],[125.4579,-8.7711,1262.1924],[125.4491,-8.7703,1214.0452],[125.4432,-8.7729,1243.8135],[125.4384,-8.7854,1183.2856],[125.4345,-8.7879,1207.6477],[125.4337,-8.7972,1154.4307],[125.4277,-8.8009,1157.7205],[125.4249,-8.8085,1164.3173],[125.4154,-8.8105,1135.4397],[125.4134,-8.8116,1126.4194],[125.4144,-8.8127,1141.5586],[125.4128,-8.8151,1129.7513],[125.4106,-8.8142,1105.678],[125.4123,-8.814,1119.0256],[125.411,-8.8129,1138.6104],[125.4041,-8.8231,1135.8103],[125.4001,-8.8248,1086.0234],[125.3949,-8.8304,1064.2771],[125.3846,-8.8302,996.4305],[125.3821,-8.8347,859.4296],[125.3834,-8.837,848.4114],[125.3809,-8.8425,807.4023],[125.3884,-8.8513,1108.6304],[125.3852,-8.8596,918.653],[125.3867,-8.8655,687.9739],[125.3823,-8.8673,649.5696],[125.3874,-8.8715,847.6396],[125.3882,-8.8762,919.8695],[125.3954,-8.8849,1367.3573],[125.4047,-8.8885,1407.1038],[125.4025,-8.8983,1258.1963],[125.4089,-8.8985,1300.1113],[125.42,-8.8947,1345.444],[125.4285,-8.9049,1793.1199],[125.4359,-8.905,1639.2643]]]]}}