{"type":"Feature","properties":{"GID_3":"TLS.8.5.3_1","GID_0":"TLS","country":"Timor-Leste","GID_1":"TLS.8_1","province":"Ermera","NL_NAME_1":"NA","GID_2":"TLS.8.5_1","county":"Railaco","NL_NAME_2":"NA","city":"Lihu","VARNAME_3":"NA","NL_NAME_3":"NA","TYPE_3":"Suco","ENGTYPE_3":"Community","CC_3":"NA","HASC_3":"NA","name":"Lihu.city"},
"geometry":{"type": "MultiPolygon","coordinates": [[[[125.4547,-8.6799,609.1007],[125.4608,-8.6719,851.2881],[125.4644,-8.6697,764.0687],[125.467,-8.6621,623.4687],[125.4651,-8.6569,484.7639],[125.4584,-8.6538,456.0793],[125.4589,-8.652,458.7017],[125.4559,-8.6498,443.7446],[125.4564,-8.6484,427.0426],[125.4545,-8.6488,448.7727],[125.4551,-8.6475,446.4889],[125.4488,-8.645,468.0253],[125.4469,-8.6454,522.3753],[125.4436,-8.6503,448.9323],[125.4356,-8.6536,473.6632],[125.4326,-8.6601,471.9608],[125.4165,-8.6702,532.3746],[125.4098,-8.6725,551.7351],[125.4039,-8.6681,578.0817],[125.4,-8.6698,599.2335],[125.3977,-8.6814,759.4732],[125.4031,-8.6966,1071.6967],[125.4166,-8.6947,708.2858],[125.4185,-8.6852,624.3013],[125.423,-8.6781,563.0458],[125.4274,-8.6754,518.4937],[125.4269,-8.6769,527.628],[125.4298,-8.6795,530.4431],[125.4489,-8.677,594.5735],[125.4547,-8.6799,609.1007]]]]}}