{"type":"Feature","properties":{"GID_3":"TLS.3.3.5_1","GID_0":"TLS","country":"Timor-Leste","GID_1":"TLS.3_1","province":"Ambeno","NL_NAME_1":"NA","GID_2":"TLS.3.3_1","county":"PanteMacassar","NL_NAME_2":"NA","city":"Lalisuk","VARNAME_3":"NA","NL_NAME_3":"NA","TYPE_3":"Suco","ENGTYPE_3":"Community","CC_3":"NA","HASC_3":"NA","name":"Lalisuk.city"},
"geometry":{"type": "MultiPolygon","coordinates": [[[[124.3643,-9.2421,240.288],[124.3677,-9.2367,502.5735],[124.3709,-9.235,616.4258],[124.3678,-9.2317,559.0024],[124.3488,-9.225,89.9324],[124.3451,-9.2265,44.2849],[124.343,-9.2298,32.0811],[124.3314,-9.2337,21.3714],[124.3275,-9.2303,18.262],[124.324,-9.223,14.9743],[124.3137,-9.2318,28.4609],[124.3109,-9.2407,32.456],[124.307,-9.2418,40.9789],[124.3,-9.2473,218.9362],[124.2914,-9.2478,318.5965],[124.2928,-9.2518,191.9177],[124.3003,-9.2564,123.2232],[124.3051,-9.2552,74.7585],[124.3051,-9.2534,73.4728],[124.3084,-9.251,70.3847],[124.336,-9.2516,39.428],[124.3434,-9.2566,37.0302],[124.3481,-9.2568,41.6613],[124.3569,-9.2532,66.3496],[124.3639,-9.254,194.9824],[124.3649,-9.2522,303.8939],[124.3618,-9.2476,159.1587],[124.3643,-9.2421,240.288]]]]}}