{"type":"Feature","properties":{"GID_3":"TLS.6.4.1_1","GID_0":"TLS","country":"Timor-Leste","GID_1":"TLS.6_1","province":"Covalima","NL_NAME_1":"NA","GID_2":"TLS.6.4_1","county":"Mape","NL_NAME_2":"NA","city":"BekoIi","VARNAME_3":"BecoIi","NL_NAME_3":"NA","TYPE_3":"Suco","ENGTYPE_3":"Community","CC_3":"NA","HASC_3":"NA","name":"Beko_Ii.city"},
"geometry":{"type": "MultiPolygon","coordinates": [[[[125.3605,-9.1304,177.1335],[125.3604,-9.1385,197.5966],[125.3679,-9.143,156.3423],[125.3779,-9.1565,128.4883],[125.3855,-9.1535,114.8665],[125.3925,-9.1594,104.2277],[125.3952,-9.1688,90.1219],[125.3935,-9.1767,118.5776],[125.3965,-9.1855,64.188],[125.4133,-9.2136,41.1403],[125.4205,-9.2162,20.5769],[125.4263,-9.2259,13.2254],[125.4256,-9.2289,12.2657],[125.4289,-9.2331,8.6529],[125.4282,-9.2374,16.1432],[125.4339,-9.2447,6.0751],[125.4346,-9.2506,8.484],[125.4305,-9.2588,1.8328],[125.4383,-9.2589,0.7036],[125.4528,-9.2539,1.921],[125.4549,-9.2509,7.1241],[125.4524,-9.2455,5.019],[125.4559,-9.2274,14.2723],[125.4523,-9.2243,11.0521],[125.4497,-9.2193,14.3955],[125.4501,-9.217,14.5989],[125.4485,-9.2176,12.3685],[125.4481,-9.2151,13.1688],[125.4459,-9.2157,11.9528],[125.4409,-9.2117,17.7439],[125.4368,-9.199,27.5934],[125.4361,-9.1924,35.7436],[125.4418,-9.189,42.0478],[125.4397,-9.1784,53.1632],[125.443,-9.1733,61.0894],[125.4431,-9.1698,75.1056],[125.4366,-9.17,148.9108],[125.432,-9.1742,73.5815],[125.4314,-9.172,79.896],[125.4281,-9.1717,110.5943],[125.4265,-9.1665,101.9624],[125.421,-9.1653,114.285],[125.4199,-9.1565,153.7879],[125.4241,-9.1488,170.0562],[125.4138,-9.1337,276.5608],[125.402,-9.1242,371.2706],[125.3958,-9.1243,268.4139],[125.3879,-9.121,364.0738],[125.3834,-9.1167,398.3087],[125.3766,-9.1174,269.2575],[125.3715,-9.1126,225.7286],[125.3657,-9.1192,198.3763],[125.364,-9.1264,198.9309],[125.3605,-9.1304,177.1335]]]]}}