{"type":"Feature","properties":{"GID_3":"TLS.4.5.6_1","GID_0":"TLS","country":"Timor-Leste","GID_1":"TLS.4_1","province":"Baucau","NL_NAME_1":"NA","GID_2":"TLS.4.5_1","county":"Vemasse","NL_NAME_2":"NA","city":"Uatolari","VARNAME_3":"UatuLari","NL_NAME_3":"NA","TYPE_3":"Suco","ENGTYPE_3":"Community","CC_3":"NA","HASC_3":"NA","name":"Uatolari.city"},
"geometry":{"type": "MultiPolygon","coordinates": [[[[126.3432,-8.5507,721.9756],[126.3217,-8.5486,651.3409],[126.3027,-8.5536,356.7642],[126.2977,-8.5528,300.8569],[126.2951,-8.5501,268.6782],[126.2919,-8.5513,227.8796],[126.2896,-8.5503,200.321],[126.2856,-8.5564,152.5096],[126.2889,-8.5647,197.2192],[126.2879,-8.5665,187.1026],[126.292,-8.5696,202.8004],[126.2945,-8.5767,215.0591],[126.3073,-8.5914,517.1635],[126.3148,-8.5848,504.761],[126.3204,-8.5837,570.4819],[126.3244,-8.5792,605.3566],[126.328,-8.5791,652.6276],[126.3358,-8.5746,763.5153],[126.3362,-8.5704,764.4899],[126.3452,-8.56,738.5327],[126.3432,-8.5507,721.9756]]]]}}