{"type":"Feature","properties":{"GID_3":"TLS.5.4.8_1","GID_0":"TLS","country":"Timor-Leste","GID_1":"TLS.5_1","province":"Bobonaro","NL_NAME_1":"NA","GID_2":"TLS.5.4_1","county":"Cailaco","NL_NAME_2":"NA","city":"Raiheu","VARNAME_3":"Raeheu","NL_NAME_3":"NA","TYPE_3":"Suco","ENGTYPE_3":"Community","CC_3":"NA","HASC_3":"NA","name":"Raiheu.city"},
"geometry":{"type": "MultiPolygon","coordinates": [[[[125.3219,-8.9656,332.106],[125.321,-8.962,345.1919],[125.324,-8.9575,366.6389],[125.32,-8.9546,320.3825],[125.323,-8.9515,320.0032],[125.3211,-8.9503,335.5852],[125.3217,-8.9482,305.4724],[125.3186,-8.9493,313.697],[125.3169,-8.9533,328.5641],[125.3133,-8.9528,384.4769],[125.3083,-8.9571,385.3843],[125.302,-8.9566,431.0327],[125.2972,-8.9513,494.332],[125.2931,-8.9506,651.9161],[125.2822,-8.9568,1070.9969],[125.2746,-8.9587,1763.1221],[125.2763,-8.9679,1706.5601],[125.2818,-8.9688,983.6064],[125.2843,-8.9734,835.8271],[125.2919,-8.9797,613.3642],[125.2945,-8.9803,592.6033],[125.2966,-8.9784,545.9352],[125.2999,-8.9783,493.7466],[125.3034,-8.9824,417.4175],[125.3058,-8.9809,462.3704],[125.3068,-8.9766,378.1615],[125.3132,-8.9766,365.5678],[125.3136,-8.973,355.5957],[125.3171,-8.9683,348.3559],[125.3212,-8.9672,335.7014],[125.3219,-8.9656,332.106]]]]}}