{"type": "Feature","bbox": [125.3622,-9.0166,125.3903,-9.0027],"geometry": {"type": "MultiPolygon","coordinates": [[[[125.3768,-9.0155,792.6603],[125.3778,-9.0127,838.1748],[125.3823,-9.009,903.1934],[125.3903,-9.0091,1036.8483],[125.3895,-9.0037,1045.5173],[125.3831,-9.0056,912.0474],[125.3777,-9.0027,865.6453],[125.3724,-9.0053,776.6409],[125.3622,-9.0045,638.862],[125.3661,-9.0147,720.6272],[125.3706,-9.0166,746.6914],[125.3768,-9.0155,792.6603]]]]}
,"properties": {"GID_3": "TLS.5.3.18_1","GID_0": "TLS","country": "Timor-Leste","GID_1": "TLS.5_1","province": "Bobonaro","NL_NAME_1": "NA","GID_2": "TLS.5.3_1","county": "Bobonaro","NL_NAME_2": "NA","city": "Tebabui","VARNAME_3": "TebaBui","NL_NAME_3": "NA","TYPE_3": "Suco","ENGTYPE_3": "Community","CC_3": "NA","HASC_3": "NA","name": "Tebabui.city","area_km2": 2.554759,"hist_schema_id": "Elevation0-9000","hist_area_km2": {"675": 0.146585,"700": 0.167525,"725": 0.272227,"750": 0.251287,"775": 0.230346,"800": 0.314108,"825": 0.146584,"850": 0.188466,"875": 0.230348,"900": 0.167526,"925": 0.146585,"950": 0.083763,"975": 0.062822,"1000": 0.062822,"1025": 0.083763}}}