{"type":"Feature","properties":{"GID_3":"TLS.7.3.11_1","GID_0":"TLS","country":"Timor-Leste","GID_1":"TLS.7_1","province":"Dili","NL_NAME_1":"NA","GID_2":"TLS.7.3_1","county":"DiliTimur","NL_NAME_2":"NA","city":"CentroBenemauk","VARNAME_3":"Becora","NL_NAME_3":"NA","TYPE_3":"Suco","ENGTYPE_3":"Community","CC_3":"NA","HASC_3":"NA","name":"Centro_Benemauk.city"},
"geometry":{"type": "MultiPolygon","coordinates": [[[[125.6335,-8.5901,717.7587],[125.634,-8.5835,517.8709],[125.6363,-8.5786,343.6924],[125.6345,-8.5721,237.1676],[125.6362,-8.5686,178.9583],[125.6302,-8.5706,298.0621],[125.6208,-8.5684,122.25],[125.6187,-8.5708,85.1344],[125.6163,-8.5694,62.7875],[125.6166,-8.5645,56.2505],[125.6149,-8.5643,50.3614],[125.6136,-8.5734,180.0073],[125.6161,-8.5752,86.528],[125.6141,-8.5786,155.4208],[125.6146,-8.5845,310.5884],[125.6179,-8.5828,239.8268],[125.623,-8.5852,357.9199],[125.6252,-8.5844,314.5495],[125.6335,-8.5901,717.7587]]]]}}