{"type":"Feature","properties":{"GID_3":"TLS.1.2.2_1","GID_0":"TLS","country":"Timor-Leste","GID_1":"TLS.1_1","province":"Aileu","NL_NAME_1":"NA","GID_2":"TLS.1.2_1","county":"LauLara","NL_NAME_2":"NA","city":"Fatisi","VARNAME_3":"NA","NL_NAME_3":"NA","TYPE_3":"Suco","ENGTYPE_3":"Community","CC_3":"NA","HASC_3":"NA","name":"Fatisi.city"},
"geometry":{"type": "MultiPolygon","coordinates": [[[[125.5312,-8.6359,696.7589],[125.5317,-8.6259,291.5418],[125.5374,-8.617,126.672],[125.5279,-8.6128,100.8694],[125.5239,-8.6189,111.1328],[125.5152,-8.6235,131.8384],[125.5125,-8.629,165.9086],[125.5145,-8.6325,168.591],[125.5139,-8.6349,181.8911],[125.5039,-8.6351,209.9698],[125.5033,-8.638,205.8013],[125.5111,-8.6437,275.8884],[125.5215,-8.6465,361.1588],[125.5266,-8.644,674.3961],[125.5312,-8.6359,696.7589]]]]}}