{"type": "Feature","bbox": [125.7004,-8.6634,125.7251,-8.633],"geometry": {"type": "MultiPolygon","coordinates": [[[[125.7004,-8.6437,767.6539],[125.7009,-8.6449,779.6064],[125.7025,-8.6431,762.19],[125.7046,-8.644,797.915],[125.7031,-8.6453,742.6625],[125.7031,-8.6528,709.5674],[125.7019,-8.6523,700.4857],[125.7012,-8.6549,678.8295],[125.7048,-8.6559,715.4011],[125.7066,-8.6625,686.9283],[125.7103,-8.6634,640.5167],[125.7161,-8.6613,794.6583],[125.724,-8.6551,1099.2],[125.7251,-8.646,1038.6595],[125.7158,-8.633,1138.2753],[125.7049,-8.636,976.3124],[125.7004,-8.6437,767.6539]]]]}
,"properties": {"GID_3": "TLS.1.4.5_1","GID_0": "TLS","country": "Timor-Leste","GID_1": "TLS.1_1","province": "Aileu","NL_NAME_1": "NA","GID_2": "TLS.1.4_1","county": "Remexio","NL_NAME_2": "NA","city": "FatuRasa","VARNAME_3": "Faturasa","NL_NAME_3": "NA","TYPE_3": "Suco","ENGTYPE_3": "Community","CC_3": "NA","HASC_3": "NA","name": "Fatu_Rasa.city","area_km2": 6.351227,"hist_schema_id": "Elevation0-9000","hist_area_km2": {"675": 0.041921,"700": 0.27249,"725": 0.146726,"750": 0.104804,"775": 0.293453,"800": 0.314415,"825": 0.293454,"850": 0.35634,"875": 0.3773,"900": 0.503068,"925": 0.377302,"950": 0.35634,"975": 0.272496,"1000": 0.335379,"1025": 0.461148,"1050": 0.461147,"1075": 0.356342,"1100": 0.607877,"1125": 0.35634,"1150": 0.062885}}}