{"type": "Feature","bbox": [125.1706,-9.2135,125.3527,-9.0797],"geometry": {"type": "MultiPolygon","coordinates": [[[[125.2801,-9.1237,590.345],[125.2764,-9.1222,630.4329],[125.272,-9.1233,650.053],[125.271,-9.1192,777.1863],[125.2645,-9.1095,1098.4017],[125.2601,-9.1076,1211.4724],[125.2593,-9.1036,1270.7856],[125.2548,-9.1009,1217.5973],[125.2389,-9.0943,1526.6857],[125.2219,-9.0969,1700.8064],[125.2185,-9.0895,1221.1357],[125.2169,-9.0797,1385.8351],[125.2132,-9.088,1114.3345],[125.2031,-9.0935,884.7776],[125.1983,-9.0917,754.6141],[125.1962,-9.0876,679.857],[125.1906,-9.0849,587.6882],[125.1867,-9.0849,548.184],[125.1842,-9.0804,420.1346],[125.1802,-9.0839,432.1736],[125.1774,-9.0955,465.5101],[125.1782,-9.0998,465.3086],[125.1761,-9.1044,480.2332],[125.1732,-9.1061,502.2542],[125.1781,-9.1125,495.8739],[125.1795,-9.1184,516.5543],[125.1732,-9.1182,529.8972],[125.1706,-9.1228,538.2077],[125.1726,-9.1272,561.6881],[125.1731,-9.1341,597.8092],[125.1757,-9.1368,639.871],[125.1763,-9.144,661.3889],[125.1793,-9.1468,694.623],[125.1789,-9.1536,773.9359],[125.1765,-9.1578,837.0382],[125.1792,-9.1662,852.9246],[125.1841,-9.1628,996.767],[125.1948,-9.1684,757.8975],[125.2115,-9.1706,554.5018],[125.2251,-9.1758,476.4617],[125.2296,-9.1796,438.1801],[125.2318,-9.1861,415.207],[125.2278,-9.1913,379.4257],[125.2281,-9.1942,374.1442],[125.2254,-9.2,340.2641],[125.2261,-9.2044,342.3332],[125.2347,-9.2088,310.1113],[125.2382,-9.2083,330.9554],[125.241,-9.2117,355.2131],[125.242,-9.2088,314.3369],[125.246,-9.2075,264.4244],[125.2511,-9.2135,253.1559],[125.2546,-9.2122,298.2256],[125.2588,-9.2077,391.1043],[125.2672,-9.2039,597.736],[125.2785,-9.2107,288.6146],[125.2806,-9.2049,418.5775],[125.2859,-9.2008,543.4258],[125.2969,-9.2022,619.4009],[125.3034,-9.2053,415.8124],[125.3113,-9.1992,250.9337],[125.3197,-9.1951,164.5583],[125.3215,-9.1983,161.2226],[125.3238,-9.1956,192.1747],[125.327,-9.1948,213.0567],[125.3357,-9.1978,355.1557],[125.339,-9.1953,391.1125],[125.3459,-9.1875,301.1827],[125.3452,-9.1812,443.7347],[125.3527,-9.1725,201.1658],[125.3406,-9.1655,265.9309],[125.3292,-9.1632,470.1073],[125.3211,-9.1571,524.7508],[125.3169,-9.156,527.384],[125.3174,-9.1438,826.8546],[125.3262,-9.137,527.6892],[125.329,-9.13,359.59],[125.332,-9.1281,286.2188],[125.3312,-9.1268,297.0402],[125.3246,-9.1258,367.0204],[125.321,-9.1223,573.8494],[125.3195,-9.1194,614.986],[125.3198,-9.1118,399.3581],[125.3119,-9.1132,413.8289],[125.3084,-9.1159,428.9574],[125.3005,-9.1139,456.568],[125.2922,-9.1202,522.0665],[125.2864,-9.1202,541.4182],[125.281,-9.1221,579.2303],[125.2801,-9.1237,590.345]]]]}
,"properties": {"GID_2": "TLS.5.5_1","GID_0": "TLS","country": "Timor-Leste","GID_1": "TLS.5_1","province": "Bobonaro","NL_NAME_1": "NA","county": "Lolotoi","VARNAME_2": "Lebos","NL_NAME_2": "NA","TYPE_2": "Subdistrito","ENGTYPE_2": "Subdistrict","CC_2": "NA","HASC_2": "NA","name": "Lolotoi.county","area_km2": 169.1967,"hist_schema_id": "Elevation0-9000","hist_area_km2": {"150": 0.0209,"175": 0.3558,"200": 0.4605,"225": 0.9419,"250": 1.2349,"275": 1.3814,"300": 1.9465,"325": 2.5744,"350": 2.7209,"375": 2.8256,"400": 3.307,"425": 3.935,"450": 4.3746,"475": 5.0025,"500": 5.3166,"525": 5.1491,"550": 5.9446,"575": 5.5887,"600": 5.8609,"625": 5.6307,"650": 4.7098,"675": 4.7307,"700": 4.5424,"725": 4.8773,"750": 4.1865,"775": 4.6261,"800": 4.5842,"825": 4.2075,"850": 4.6471,"875": 3.9563,"900": 4.5843,"925": 5.1286,"950": 4.9403,"975": 5.4845,"1000": 4.5425,"1025": 5.003,"1050": 4.082,"1075": 3.2238,"1100": 2.9935,"1125": 3.0563,"1150": 2.512,"1175": 1.9469,"1200": 1.277,"1225": 1.2979,"1250": 1.0049,"1275": 0.9211,"1300": 1.1305,"1325": 0.963,"1350": 0.9211,"1375": 0.6281,"1400": 0.6071,"1425": 0.649,"1450": 0.4396,"1475": 0.2512,"1500": 0.2722,"1525": 0.1884,"1550": 0.2722,"1575": 0.2512,"1600": 0.2094,"1625": 0.2094,"1650": 0.3768,"1675": 0.1675,"1700": 0.0209}}}