{"type": "Feature","bbox": [125.3782,-8.7784,125.4318,-8.7139],"geometry": {"type": "MultiPolygon","coordinates": [[[[125.3879,-8.7752,1337.2424],[125.3872,-8.7716,1438.7122],[125.3888,-8.7648,1381.7163],[125.3969,-8.7636,1326.7939],[125.4021,-8.757,1138.4949],[125.4016,-8.7549,1108.9741],[125.4034,-8.7525,1057.5818],[125.4087,-8.7496,984.5394],[125.4028,-8.7465,1120.8082],[125.4038,-8.7417,1058.53],[125.4067,-8.7407,1021.2336],[125.4067,-8.7377,918.5559],[125.4085,-8.7378,931.758],[125.414,-8.7323,839.9517],[125.4196,-8.7304,771.2271],[125.4214,-8.7261,733.8863],[125.4274,-8.733,745.1483],[125.4255,-8.7385,850.4601],[125.4273,-8.7426,799.4161],[125.4281,-8.7441,789.8289],[125.4303,-8.7425,732.8627],[125.4318,-8.7362,736.8792],[125.4288,-8.7318,707.555],[125.4267,-8.7215,683.6301],[125.4232,-8.7169,672.0721],[125.4158,-8.7192,661.7968],[125.4077,-8.7152,651.0041],[125.4034,-8.716,650.496],[125.3908,-8.7139,666.6143],[125.3929,-8.717,745.1135],[125.3927,-8.7198,765.8644],[125.3883,-8.726,854.4034],[125.3888,-8.7299,936.545],[125.3863,-8.731,966.4916],[125.3848,-8.734,1104.2491],[125.3821,-8.7435,1265.7242],[125.3818,-8.7597,1447.5092],[125.3782,-8.7682,1486.4355],[125.3814,-8.7784,1311.3478],[125.3879,-8.7752,1337.2424]]]]}
,"properties": {"GID_3": "TLS.8.2.5_1","GID_0": "TLS","country": "Timor-Leste","GID_1": "TLS.8_1","province": "Ermera","NL_NAME_1": "NA","GID_2": "TLS.8.2_1","county": "Ermera","NL_NAME_2": "NA","city": "Poetete","VARNAME_3": "NA","NL_NAME_3": "NA","TYPE_3": "Suco","ENGTYPE_3": "Community","CC_3": "NA","HASC_3": "NA","name": "Poetete.city","area_km2": 17.3935,"hist_schema_id": "Elevation0-9000","hist_area_km2": {"650": 0.60776,"675": 1.19455,"700": 0.60775,"725": 1.04783,"750": 0.75444,"775": 0.64966,"800": 0.35626,"825": 0.58679,"850": 0.52392,"875": 0.56583,"900": 0.58678,"925": 0.41913,"950": 0.29339,"975": 0.482,"1000": 0.35625,"1025": 0.37721,"1050": 0.50294,"1075": 0.41912,"1100": 0.44007,"1125": 0.46103,"1150": 0.69154,"1175": 0.41911,"1200": 0.33529,"1225": 0.3772,"1250": 0.33529,"1275": 0.33528,"1300": 0.44006,"1325": 0.27241,"1350": 0.31432,"1375": 0.44005,"1400": 0.37719,"1425": 0.35623,"1450": 0.50291,"1475": 0.52387,"1500": 0.33528,"1525": 0.08382,"1550": 0.02095}}}