{"type":"Feature","properties":{"GID_2":"TLS.13.4_1","GID_0":"TLS","country":"Timor-Leste","GID_1":"TLS.13_1","province":"Viqueque","NL_NAME_1":"NA","county":"Uatolari","VARNAME_2":"UatuLari","NL_NAME_2":"NA","TYPE_2":"Subdistrito","ENGTYPE_2":"Subdistrict","CC_2":"NA","HASC_2":"NA","name":"Uatolari.county"},
"geometry":{"type": "MultiPolygon","coordinates": [[[[126.4793,-8.8138,104.9765],[126.477,-8.8166,169.9614],[126.4767,-8.8216,199.784],[126.4846,-8.8277,160.0419],[126.4844,-8.8337,122.492],[126.4901,-8.8404,163.2866],[126.4939,-8.8418,126.9827],[126.4988,-8.8548,20.5579],[126.5007,-8.8534,29.183],[126.501,-8.8556,21.7799],[126.5028,-8.8544,28.3292],[126.508,-8.8576,26.5109],[126.5096,-8.8592,20.7783],[126.5092,-8.8613,18.7064],[126.5109,-8.8619,18.7064],[126.5111,-8.866,14.8146],[126.5185,-8.8701,6.5737],[126.5184,-8.8727,12.2765],[126.5238,-8.8739,5.2429],[126.5249,-8.8757,3.8132],[126.5631,-8.8249,0.8619],[126.57,-8.8186,1.1578],[126.5742,-8.8183,0.0],[126.5861,-8.8025,8.6165],[126.593,-8.7995,13.0262],[126.6044,-8.8003,11.0683],[126.6126,-8.8026,7.9516],[126.618,-8.8018,5.1885],[126.6375,-8.7838,6.2652],[126.6604,-8.7715,0.0],[126.6597,-8.7619,8.7775],[126.6541,-8.755,33.0858],[126.6573,-8.7464,80.0107],[126.6512,-8.7388,150.0918],[126.6523,-8.7335,262.5434],[126.6495,-8.7259,516.5596],[126.6453,-8.7227,590.8731],[126.6444,-8.7149,803.8727],[126.6379,-8.7105,887.6387],[126.6349,-8.7005,1027.3475],[126.6279,-8.6951,1141.9155],[126.61279999999999,-8.6883,999.7985],[126.5982,-8.6728,1588.6454],[126.5951,-8.6675,1889.4587],[126.5876,-8.66,1621.6178],[126.5872,-8.6568,1976.6537],[126.589,-8.6534,2081.2104],[126.5879,-8.6524,2106.7698],[126.5817,-8.6523,1701.8699],[126.5748,-8.6573,1258.2102],[126.5669,-8.6573,1080.8129],[126.5626,-8.6623,900.2158],[126.5529,-8.6657,737.1309],[126.5518,-8.6675,686.2958],[126.5458,-8.6686,625.8978],[126.5311,-8.682,383.9528],[126.5231,-8.6818,363.4483],[126.5149,-8.6778,462.386],[126.5115,-8.6778,436.3214],[126.51,-8.6831,417.984],[126.5025,-8.6894,294.4543],[126.5002,-8.6969,193.3752],[126.506,-8.7033,174.6987],[126.5059,-8.7046,175.3865],[126.5033,-8.7043,191.4658],[126.5014,-8.7069,168.4184],[126.5017,-8.7119,156.4625],[126.5037,-8.7126,174.2192],[126.5023,-8.7144,157.7567],[126.5051,-8.7157,161.168],[126.5055,-8.7179,140.6695],[126.5076,-8.717,186.8719],[126.5067,-8.7206,160.1173],[126.511,-8.721,142.0672],[126.5111,-8.723,123.3068],[126.5145,-8.7232,123.4075],[126.5141,-8.7254,117.091],[126.5158,-8.726,133.8581],[126.5123,-8.7305,109.9451],[126.5052,-8.7275,143.6304],[126.5041,-8.7245,191.1413],[126.5015,-8.7239,185.407],[126.4867,-8.7249,205.891],[126.4834,-8.7338,341.9771],[126.4882,-8.7383,409.4227],[126.4881,-8.7485,514.8708],[126.4836,-8.7542,636.4069],[126.4806,-8.7624,1013.9103],[126.4647,-8.7761,684.0726],[126.4697,-8.7951,194.8539],[126.4736,-8.7988,156.9649],[126.4727,-8.8021,134.2484],[126.475,-8.8036,122.6574],[126.4756,-8.8068,114.2253],[126.479,-8.8081,105.3939],[126.4793,-8.8138,104.9765]]]]}}