{"type":"Feature","properties":{"GID_3":"TLS.7.2.14_1","GID_0":"TLS","country":"Timor-Leste","GID_1":"TLS.7_1","province":"Dili","NL_NAME_1":"NA","GID_2":"TLS.7.2_1","county":"DiliBarat","NL_NAME_2":"NA","city":"Malinamoc","VARNAME_3":"Comoro","NL_NAME_3":"NA","TYPE_3":"Suco","ENGTYPE_3":"Community","CC_3":"NA","HASC_3":"NA","name":"Malinamoc.city"},
"geometry":{"type": "MultiPolygon","coordinates": [[[[125.5273,-8.5996,80.4366],[125.5324,-8.5907,65.4695],[125.5298,-8.5738,36.8704],[125.5362,-8.554,17.9432],[125.5222,-8.5527,11.8602],[125.5045,-8.5583,4.5105],[125.4984,-8.5568,18.7008],[125.4934,-8.5616,77.8673],[125.5007,-8.5679,140.3631],[125.5015,-8.5713,147.9655],[125.5073,-8.5751,170.0559],[125.5073,-8.5805,198.0762],[125.5178,-8.5841,368.0081],[125.5187,-8.5859,359.3683],[125.5202,-8.5913,410.131],[125.519,-8.5966,383.301],[125.5172,-8.5978,383.301],[125.5176,-8.6018,324.8443],[125.5273,-8.5996,80.4366]]]]}}