{"type": "Feature","bbox": [125.5723,-8.5682,125.582,-8.5608],"geometry": {"type": "MultiPolygon","coordinates": [[[[125.582,-8.5656,22.9407],[125.5801,-8.5608,8.0937],[125.5784,-8.5614,5.6441],[125.5776,-8.564,6.7712],[125.5723,-8.5627,5.7388],[125.575,-8.5682,53.9864],[125.5801,-8.5674,31.0642],[125.582,-8.5656,22.9407]]]]}
,"properties": {"GID_3": "TLS.7.2.15_1","GID_0": "TLS","country": "Timor-Leste","GID_1": "TLS.7_1","province": "Dili","NL_NAME_1": "NA","GID_2": "TLS.7.2_1","county": "DiliBarat","NL_NAME_2": "NA","city": "Mascarenhas","VARNAME_3": "Mascarinhas","NL_NAME_3": "NA","TYPE_3": "Suco","ENGTYPE_3": "Community","CC_3": "NA","HASC_3": "NA","name": "Mascarenhas.city","area_km2": 0.4402808,"hist_schema_id": "Elevation0-9000","hist_area_km2": {"0": 0.2515896,"25": 0.1677257,"50": 0.0209656}}}