{"type":"Feature","properties":{"GID_3":"TLS.7.3.1_1","GID_0":"TLS","country":"Timor-Leste","GID_1":"TLS.7_1","province":"Dili","NL_NAME_1":"NA","GID_2":"TLS.7.3_1","county":"DiliTimur","NL_NAME_2":"NA","city":"10Junho","VARNAME_3":"LahaneTimur","NL_NAME_3":"NA","TYPE_3":"Suco","ENGTYPE_3":"Community","CC_3":"NA","HASC_3":"NA","name":"10_Junho.city"},
"geometry":{"type": "MultiPolygon","coordinates": [[[[125.5807,-8.5742,77.8151],[125.574,-8.5745,272.5204],[125.5728,-8.584,299.8242],[125.5775,-8.5857,257.6602],[125.5773,-8.5909,324.5038],[125.5743,-8.5958,490.7852],[125.5821,-8.6008,618.9087],[125.59,-8.5928,423.9371],[125.5911,-8.5873,202.6711],[125.59,-8.5822,132.2762],[125.5801,-8.5808,155.557],[125.5807,-8.5742,77.8151]]]]}}