{"type":"Feature","properties":{"GID_3":"TLS.4.4.5_1","GID_0":"TLS","country":"Timor-Leste","GID_1":"TLS.4_1","province":"Baucau","NL_NAME_1":"NA","GID_2":"TLS.4.4_1","county":"Quelicai","NL_NAME_2":"NA","city":"Guruça","VARNAME_3":"NA","NL_NAME_3":"NA","TYPE_3":"Suco","ENGTYPE_3":"Community","CC_3":"NA","HASC_3":"NA","name":"Guruça.city"},
"geometry":{"type": "MultiPolygon","coordinates": [[[[126.6273,-8.5907,1115.3982],[126.6189,-8.5771,993.9424],[126.6121,-8.5727,512.8829],[126.6152,-8.5697,525.0167],[126.6169,-8.5639,572.6144],[126.6134,-8.5643,511.3341],[126.6116,-8.5615,458.0133],[126.6076,-8.5613,400.8392],[126.6061,-8.5561,419.7746],[126.5994,-8.5538,308.7108],[126.5998,-8.5511,327.0403],[126.5968,-8.5461,330.3954],[126.5904,-8.5404,218.7926],[126.5854,-8.5391,123.9725],[126.5849,-8.5367,119.1556],[126.5871,-8.5337,111.324],[126.5858,-8.531,105.6487],[126.5862,-8.5249,125.291],[126.5817,-8.523,177.1683],[126.5723,-8.5235,216.6921],[126.5627,-8.5303,339.8836],[126.5597,-8.535,353.6121],[126.5571,-8.5358,322.0349],[126.5543,-8.5341,267.3448],[126.5517,-8.5295,217.2274],[126.5474,-8.5284,153.3058],[126.5421,-8.5311,114.9893],[126.5393,-8.5352,146.3629],[126.5384,-8.5413,139.6495],[126.5417,-8.544,142.0114],[126.5466,-8.5444,184.3995],[126.5501,-8.5514,187.4044],[126.5548,-8.5538,236.0814],[126.5553,-8.558,229.2605],[126.5581,-8.5596,241.5655],[126.5589,-8.5635,289.8419],[126.5621,-8.5659,384.2876],[126.5656,-8.553,397.4594],[126.5753,-8.5516,263.002],[126.5865,-8.5549,165.8654],[126.5869,-8.5588,197.1835],[126.5969,-8.5665,370.3147],[126.5992,-8.5738,460.6197],[126.6009,-8.5887,692.3003],[126.6078,-8.5932,1133.1453],[126.611,-8.6086,1671.9086],[126.6124,-8.6095,1521.3984],[126.6137,-8.6067,1392.1863],[126.6201,-8.6015,1239.9224],[126.6273,-8.5907,1115.3982]]]]}}