{"type":"Feature","properties":{"GID_3":"TLS.1.1.15_1","GID_0":"TLS","country":"Timor-Leste","GID_1":"TLS.1_1","province":"Aileu","NL_NAME_1":"NA","GID_2":"TLS.1.1_1","county":"Aileu","NL_NAME_2":"NA","city":"Sarin","VARNAME_3":"Sukuliurai","NL_NAME_3":"NA","TYPE_3":"Suco","ENGTYPE_3":"Community","CC_3":"NA","HASC_3":"NA","name":"Sarin.city"},
"geometry":{"type": "MultiPolygon","coordinates": [[[[125.5708,-8.7508,897.0674],[125.5672,-8.7478,899.9011],[125.5693,-8.7447,949.5685],[125.5669,-8.7444,900.1929],[125.5662,-8.7421,912.7953],[125.5687,-8.7406,922.3927],[125.567,-8.7395,905.5856],[125.5689,-8.7376,930.4904],[125.5671,-8.7336,909.4346],[125.5435,-8.7345,1053.4247],[125.5503,-8.7458,933.9851],[125.5601,-8.7546,907.838],[125.5708,-8.7508,897.0674]]]]}}