{"type": "Feature","bbox": [125.3921,-8.933,125.4976,-8.8825],"geometry": {"type": "MultiPolygon","coordinates": [[[[125.482,-8.9214,2598.2002],[125.4912,-8.9159,2725.5732],[125.4944,-8.9118,2764.0642],[125.4921,-8.8967,2569.2542],[125.4976,-8.893,2512.2595],[125.4895,-8.8854,1938.4194],[125.4777,-8.8825,1830.7703],[125.4721,-8.8844,1793.9443],[125.4682,-8.8917,1763.5199],[125.4641,-8.8918,1715.3459],[125.4582,-8.897,1670.5607],[125.4432,-8.9008,1456.5232],[125.4414,-8.9053,1403.2534],[125.4285,-8.9049,1793.1199],[125.4193,-8.8946,1345.444],[125.404,-8.899,1258.1963],[125.4016,-8.8962,1238.8378],[125.3947,-8.8999,1030.3545],[125.3921,-8.9045,829.4773],[125.3922,-8.9078,818.5656],[125.3945,-8.9079,910.3761],[125.396,-8.9102,880.1304],[125.4011,-8.9072,947.03],[125.4111,-8.9104,1001.4037],[125.414,-8.9138,1064.9542],[125.4272,-8.9171,1212.8835],[125.4297,-8.9211,1514.3188],[125.4342,-8.9238,1653.2059],[125.4359,-8.9277,1785.5928],[125.4472,-8.9324,1994.4016],[125.4575,-8.933,2144.0186],[125.4622,-8.9282,2253.2295],[125.4687,-8.9286,2521.5432],[125.4796,-8.9255,2659.6851],[125.482,-8.9214,2598.2002]]]]}
,"properties": {"GID_3": "TLS.8.1.2_1","GID_0": "TLS","country": "Timor-Leste","GID_1": "TLS.8_1","province": "Ermera","NL_NAME_1": "NA","GID_2": "TLS.8.1_1","county": "Atsabe","NL_NAME_2": "NA","city": "Baboikleten","VARNAME_3": "BaboeLeten","NL_NAME_3": "NA","TYPE_3": "Suco","ENGTYPE_3": "Community","CC_3": "NA","HASC_3": "NA","name": "Baboikleten.city","area_km2": 32.00613,"hist_schema_id": "Elevation0-9000","hist_area_km2": {"800": 0.02095,"825": 0.08379,"900": 0.10473,"925": 0.04189,"950": 0.14663,"975": 0.10473,"1000": 0.06284,"1025": 0.16757,"1050": 0.29325,"1075": 0.37704,"1100": 0.12568,"1125": 0.35609,"1150": 0.3142,"1175": 0.37704,"1200": 0.33514,"1225": 0.52367,"1250": 0.3142,"1275": 0.48177,"1300": 0.16757,"1325": 0.29325,"1350": 0.33514,"1375": 0.41893,"1400": 0.25136,"1425": 0.2723,"1450": 0.25136,"1475": 0.3142,"1500": 0.20946,"1525": 0.20946,"1550": 0.2723,"1575": 0.33514,"1600": 0.29325,"1625": 0.41893,"1650": 0.37704,"1675": 0.60745,"1700": 0.62839,"1725": 0.64934,"1750": 0.73313,"1775": 0.83786,"1800": 0.87976,"1825": 0.85881,"1850": 0.79598,"1875": 0.87975,"1900": 0.77503,"1925": 0.83786,"1950": 0.71219,"1975": 0.92163,"2000": 0.67028,"2025": 0.81692,"2050": 0.58649,"2075": 0.62839,"2100": 0.58649,"2125": 0.60744,"2150": 0.31419,"2175": 0.5446,"2200": 0.58649,"2225": 0.64933,"2250": 0.46081,"2275": 0.50271,"2300": 0.52365,"2325": 0.52366,"2350": 0.3142,"2375": 0.48176,"2400": 0.27231,"2425": 0.25136,"2450": 0.29325,"2475": 0.37703,"2500": 0.2723,"2525": 0.29325,"2550": 0.29325,"2575": 0.25135,"2600": 0.23041,"2625": 0.25135,"2650": 0.18852,"2675": 0.2723,"2700": 0.16757,"2725": 0.2723,"2750": 0.16757,"2775": 0.23041,"2800": 0.14662,"2825": 0.06284,"2850": 0.04189,"2875": 0.06284,"2900": 0.02095,"2950": 0.02095}}}