{"type": "Feature","bbox": [125.6021,-8.5727,125.6142,-8.5598],"geometry": {"type": "MultiPolygon","coordinates": [[[[125.6138,-8.5727,177.1303],[125.6142,-8.5678,58.4425],[125.61,-8.5649,48.6587],[125.6106,-8.5617,43.9873],[125.6079,-8.5598,35.9785],[125.6028,-8.5619,28.9971],[125.6021,-8.5677,32.2105],[125.6085,-8.569,105.2946],[125.609,-8.571,146.3267],[125.6138,-8.5727,177.1303]]]]}
,"properties": {"GID_3": "TLS.7.3.6_1","GID_0": "TLS","country": "Timor-Leste","GID_1": "TLS.7_1","province": "Dili","NL_NAME_1": "NA","GID_2": "TLS.7.3_1","county": "DiliTimur","NL_NAME_2": "NA","city": "Becora","VARNAME_3": "NA","NL_NAME_3": "NA","TYPE_3": "Suco","ENGTYPE_3": "Community","CC_3": "NA","HASC_3": "NA","name": "Becora.city","area_km2": 1.0063531,"hist_schema_id": "Elevation0-9000","hist_area_km2": {"25": 0.314487,"50": 0.4612458,"75": 0.0838621,"100": 0.041931,"125": 0.0628964,"150": 0.0209655,"175": 0.0209654}}}