{"type": "Feature","bbox": [125.2705,-9.1983,125.3526,-9.1467],"geometry": {"type": "MultiPolygon","coordinates": [[[[125.2706,-9.1613,804.3594],[125.2748,-9.1607,699.6711],[125.284,-9.1647,563.1702],[125.2869,-9.1633,498.6258],[125.2912,-9.1677,427.0907],[125.294,-9.1681,410.9269],[125.2958,-9.173,337.2243],[125.2935,-9.176,324.1221],[125.297,-9.1809,289.2975],[125.2966,-9.1824,319.1783],[125.2996,-9.1821,244.9871],[125.3052,-9.187,293.0503],[125.3066,-9.1857,236.7877],[125.3111,-9.1878,214.4996],[125.3215,-9.1983,161.2226],[125.3238,-9.1956,192.1747],[125.327,-9.1948,213.0567],[125.3357,-9.1978,355.1557],[125.339,-9.1953,391.1125],[125.3459,-9.1875,301.1827],[125.3452,-9.1812,443.7347],[125.3526,-9.1729,201.1658],[125.3406,-9.1655,265.9309],[125.3292,-9.1632,470.1073],[125.3211,-9.1571,524.7508],[125.3169,-9.156,527.384],[125.3171,-9.1478,1032.194],[125.3114,-9.1467,1122.1095],[125.2959,-9.148,1138.0087],[125.294,-9.1503,998.4086],[125.2956,-9.1565,748.3738],[125.2948,-9.159,672.91],[125.2814,-9.157,603.7899],[125.2786,-9.1535,678.2042],[125.2705,-9.1534,924.3853],[125.2706,-9.1613,804.3594]]]]}
,"properties": {"GID_3": "TLS.5.5.6_1","GID_0": "TLS","country": "Timor-Leste","GID_1": "TLS.5_1","province": "Bobonaro","NL_NAME_1": "NA","GID_2": "TLS.5.5_1","county": "Lolotoi","NL_NAME_2": "NA","city": "Lupal","VARNAME_3": "NA","NL_NAME_3": "NA","TYPE_3": "Suco","ENGTYPE_3": "Community","CC_3": "NA","HASC_3": "NA","name": "Lupal.city","area_km2": 24.7406,"hist_schema_id": "Elevation0-9000","hist_area_km2": {"150": 0.02093,"175": 0.31395,"200": 0.31395,"225": 0.58604,"250": 0.6907,"275": 0.81629,"300": 0.85815,"325": 1.21396,"350": 1.36049,"375": 1.36049,"400": 1.27678,"425": 1.44423,"450": 1.40237,"475": 1.48611,"500": 1.15121,"525": 0.92098,"550": 0.94192,"575": 0.90005,"600": 1.15124,"625": 0.87913,"650": 0.8582,"675": 0.54423,"700": 0.41864,"725": 0.5233,"750": 0.41864,"775": 0.35584,"800": 0.37678,"825": 0.33491,"850": 0.33491,"875": 0.14653,"900": 0.18839,"925": 0.18839,"950": 0.12559,"975": 0.14653,"1000": 0.14653,"1025": 0.04187,"1050": 0.12559,"1075": 0.10466,"1100": 0.04187,"1125": 0.0628,"1150": 0.04186,"1175": 0.04187,"1200": 0.0628,"1225": 0.02093}}}