{"type":"Feature","properties":{"GID_3":"TLS.8.1.13_1","GID_0":"TLS","country":"Timor-Leste","GID_1":"TLS.8_1","province":"Ermera","NL_NAME_1":"NA","GID_2":"TLS.8.1_1","county":"Atsabe","NL_NAME_2":"NA","city":"Parmin","VARNAME_3":"NA","NL_NAME_3":"NA","TYPE_3":"Suco","ENGTYPE_3":"Community","CC_3":"NA","HASC_3":"NA","name":"Parmin.city"},
"geometry":{"type": "MultiPolygon","coordinates": [[[[125.4057,-8.9199,1297.5601],[125.4019,-8.924,1259.6256],[125.4021,-8.9298,1341.9319],[125.4039,-8.933,1274.8425],[125.4076,-8.9346,1311.7268],[125.413,-8.9413,1408.3771],[125.421,-8.9427,1668.4253],[125.4234,-8.931,1756.1758],[125.4203,-8.9277,1614.5227],[125.4133,-8.9267,1525.7733],[125.4057,-8.9199,1297.5601]]]]}}