{"type":"Feature","properties":{"GID_3":"TLS.4.1.7_1","GID_0":"TLS","country":"Timor-Leste","GID_1":"TLS.4_1","province":"Baucau","NL_NAME_1":"NA","GID_2":"TLS.4.1_1","county":"Baguia","NL_NAME_2":"NA","city":"Larisula","VARNAME_3":"LariSula","NL_NAME_3":"NA","TYPE_3":"Suco","ENGTYPE_3":"Community","CC_3":"NA","HASC_3":"NA","name":"Larisula.city"},
"geometry":{"type": "MultiPolygon","coordinates": [[[[126.6788,-8.6444,131.0519],[126.6852,-8.6481,104.7144],[126.6901,-8.647,131.1192],[126.7056,-8.6485,91.1201],[126.7095,-8.6463,106.8459],[126.7124,-8.6477,119.9231],[126.7222,-8.6589,66.5023],[126.7292,-8.6626,56.1361],[126.7282,-8.6655,56.5639],[126.7298,-8.6716,50.3475],[126.7325,-8.6723,49.4087],[126.7348,-8.6776,46.5121],[126.7299,-8.6871,33.3144],[126.734,-8.6853,36.7279],[126.7364,-8.6863,44.4894],[126.739,-8.6815,41.8097],[126.7417,-8.6799,72.9467],[126.7417,-8.6766,48.1636],[126.7453,-8.6739,56.8911],[126.7478,-8.6651,60.5233],[126.7548,-8.6568,72.2657],[126.7596,-8.6577,81.3605],[126.7646,-8.6562,73.8758],[126.7638,-8.6531,90.5387],[126.7661,-8.6504,80.5018],[126.7636,-8.6422,91.7185],[126.7608,-8.6395,160.1605],[126.7519,-8.6359,222.5851],[126.7438,-8.6302,186.0608],[126.7394,-8.6293,137.5508],[126.7371,-8.6214,166.8912],[126.7277,-8.6151,311.0215],[126.7221,-8.6059,500.7095],[126.7131,-8.6036,499.9144],[126.7099,-8.6102,422.2544],[126.7041,-8.6136,360.1552],[126.7038,-8.6196,325.3732],[126.6983,-8.6218,290.0526],[126.6924,-8.6269,254.1249],[126.692,-8.6292,240.7672],[126.686,-8.6331,188.5899],[126.6747,-8.6374,129.5307],[126.6779,-8.6408,153.5399],[126.6788,-8.6444,131.0519]]]]}}