{"type": "Feature","bbox": [125.6246,-8.7029,125.813,-8.5588],"geometry": {"type": "MultiPolygon","coordinates": [[[[125.6807,-8.6984,740.2793],[125.6871,-8.7029,710.9072],[125.693,-8.7025,710.8542],[125.6954,-8.7005,693.2113],[125.7011,-8.7023,659.3204],[125.7086,-8.6983,664.1293],[125.7144,-8.6916,555.5482],[125.7238,-8.6883,515.2639],[125.729,-8.6887,512.4426],[125.7296,-8.6908,517.2414],[125.7334,-8.6922,493.0947],[125.7345,-8.6959,503.061],[125.7357,-8.6935,489.3104],[125.7434,-8.695,464.1823],[125.7523,-8.6927,466.95],[125.7554,-8.6995,422.1389],[125.7585,-8.7011,411.439],[125.7708,-8.6953,386.2033],[125.7706,-8.6936,433.3499],[125.7719,-8.6962,386.2033],[125.7749,-8.696,396.3821],[125.7777,-8.6937,398.7049],[125.787,-8.6942,326.658],[125.7997,-8.6879,306.669],[125.8009,-8.6852,291.7298],[125.805,-8.6861,291.3778],[125.8076,-8.6837,279.73],[125.813,-8.683,273.3089],[125.8085,-8.6767,295.4579],[125.8046,-8.6774,350.1853],[125.7939,-8.6732,641.6484],[125.7916,-8.6652,927.3088],[125.7884,-8.664,867.3587],[125.7866,-8.6577,610.7234],[125.7886,-8.6491,472.5776],[125.7857,-8.6501,474.8073],[125.7812,-8.6485,492.1129],[125.778,-8.6397,630.9305],[125.7741,-8.6356,722.8688],[125.7756,-8.6259,896.0624],[125.7778,-8.6235,816.7173],[125.7737,-8.6229,905.1304],[125.771,-8.6207,952.0308],[125.7674,-8.6171,1069.8097],[125.7668,-8.6124,960.6668],[125.7645,-8.6118,970.1362],[125.7585,-8.6048,913.8182],[125.7601,-8.5991,795.8053],[125.7655,-8.5975,691.0164],[125.7675,-8.5953,602.6935],[125.7703,-8.5872,418.5867],[125.7661,-8.571,893.4053],[125.7607,-8.5663,819.7643],[125.7567,-8.5678,789.859],[125.7536,-8.5639,758.4409],[125.7454,-8.5644,656.0525],[125.7408,-8.5671,700.5107],[125.7347,-8.5639,679.1757],[125.7315,-8.5654,687.1067],[125.7218,-8.5636,683.9032],[125.7128,-8.5655,505.4938],[125.7066,-8.5616,339.9227],[125.6975,-8.5588,92.3385],[125.6966,-8.5603,106.5228],[125.694,-8.5602,136.0718],[125.6943,-8.5624,155.1053],[125.6908,-8.5682,223.1531],[125.6877,-8.5689,296.6885],[125.6857,-8.5715,314.1398],[125.6856,-8.5771,456.4588],[125.688,-8.5821,750.3977],[125.6873,-8.5858,871.1497],[125.6849,-8.5881,788.0206],[125.6758,-8.5873,601.8301],[125.6721,-8.5849,341.8426],[125.6638,-8.5773,137.9596],[125.6639,-8.5699,78.8365],[125.659,-8.5711,137.9773],[125.6595,-8.5741,111.8878],[125.656,-8.5773,149.5617],[125.6578,-8.5812,186.8228],[125.656,-8.5864,227.5476],[125.6573,-8.5874,265.2041],[125.6571,-8.5904,286.4373],[125.6537,-8.5966,289.6981],[125.6541,-8.5984,316.0731],[125.65,-8.6041,392.2944],[125.6351,-8.6121,974.4685],[125.6311,-8.6181,1093.964],[125.6286,-8.6283,1224.2964],[125.632,-8.6328,1146.4623],[125.6286,-8.6462,1187.7687],[125.6318,-8.6545,1289.9492],[125.6353,-8.6574,1444.1356],[125.6367,-8.6627,1397.6052],[125.6326,-8.6665,1319.2036],[125.6258,-8.6686,1186.1385],[125.6246,-8.6722,1197.8435],[125.6268,-8.6816,1306.2452],[125.6366,-8.6782,1049.5542],[125.6386,-8.6797,1026.4968],[125.6502,-8.6809,947.2166],[125.6631,-8.6883,852.7828],[125.6655,-8.6949,796.1611],[125.6726,-8.6947,779.5031],[125.6779,-8.696,781.9347],[125.6807,-8.6984,740.2793]]]]}
,"properties": {"GID_2": "TLS.1.4_1","GID_0": "TLS","country": "Timor-Leste","GID_1": "TLS.1_1","province": "Aileu","NL_NAME_1": "NA","county": "Remexio","VARNAME_2": "NA","NL_NAME_2": "NA","TYPE_2": "Subdistrito","ENGTYPE_2": "Subdistrict","CC_2": "NA","HASC_2": "NA","name": "Remexio.county","area_km2": 212.1751,"hist_schema_id": "Elevation0-9000","hist_area_km2": {"75": 0.0629,"100": 0.1887,"125": 0.1468,"150": 0.2097,"175": 0.3354,"200": 0.2516,"225": 0.3983,"250": 0.3564,"275": 0.566,"300": 0.8385,"325": 0.8385,"350": 1.0691,"375": 1.0062,"400": 1.3415,"425": 1.5931,"450": 1.9704,"475": 2.2219,"500": 2.8089,"525": 2.746,"550": 3.7731,"575": 3.9618,"600": 6.4354,"625": 8.6997,"650": 10.838,"675": 10.9427,"700": 9.6009,"725": 7.3577,"750": 7.0432,"775": 7.8187,"800": 7.4204,"825": 8.3008,"850": 8.5522,"875": 9.5793,"900": 9.4116,"925": 8.8876,"950": 8.9085,"975": 7.6718,"1000": 6.6237,"1025": 6.8752,"1050": 6.5818,"1075": 5.8063,"1100": 5.6385,"1125": 3.3537,"1150": 2.3267,"1175": 2.3267,"1200": 1.9703,"1225": 1.593,"1250": 1.3834,"1275": 1.1109,"1300": 0.9642,"1325": 0.4402,"1350": 0.3354,"1375": 0.3144,"1400": 0.1258,"1425": 0.1677,"1450": 0.0629,"1475": 0.021}}}