{"type": "Feature","bbox": [125.0773,-9.3162,125.1744,-9.2566],"geometry": {"type": "MultiPolygon","coordinates": [[[[125.0796,-9.2976,268.6219],[125.0841,-9.299,243.5959],[125.0886,-9.3043,211.6698],[125.0978,-9.3097,193.9467],[125.1042,-9.3089,185.466],[125.1112,-9.3104,168.6376],[125.1131,-9.3079,241.0735],[125.116,-9.3088,154.0333],[125.1185,-9.3067,157.6242],[125.1296,-9.3046,134.5216],[125.1317,-9.3105,128.8578],[125.153,-9.3162,103.2952],[125.16,-9.3013,133.9162],[125.1659,-9.2959,136.4676],[125.1706,-9.2938,153.6015],[125.1744,-9.2868,160.1407],[125.17,-9.2856,185.7053],[125.1682,-9.2817,204.8327],[125.1647,-9.2789,260.1413],[125.1529,-9.2727,539.3721],[125.1502,-9.2682,686.0291],[125.1349,-9.2707,465.6396],[125.1305,-9.2676,300.7834],[125.1204,-9.2713,251.3401],[125.1201,-9.2737,244.4418],[125.1172,-9.2733,238.1211],[125.1159,-9.2768,230.2376],[125.1136,-9.2767,330.607],[125.1134,-9.2749,285.3593],[125.1103,-9.2735,302.6034],[125.1041,-9.2745,381.1607],[125.1032,-9.2714,499.0497],[125.0981,-9.2707,573.4644],[125.0933,-9.2648,811.3719],[125.0857,-9.2618,990.425],[125.0838,-9.2566,1355.1786],[125.0822,-9.2599,1092.239],[125.0818,-9.2755,717.7231],[125.0778,-9.2782,640.7671],[125.081,-9.2842,533.6533],[125.0773,-9.2887,428.0039],[125.0796,-9.2976,268.6219]]]]}
,"properties": {"GID_3": "TLS.6.3.3_1","GID_0": "TLS","country": "Timor-Leste","GID_1": "TLS.6_1","province": "Covalima","NL_NAME_1": "NA","GID_2": "TLS.6.3_1","county": "Fohorem","NL_NAME_2": "NA","city": "Fohorem","VARNAME_3": "NA","NL_NAME_3": "NA","TYPE_3": "Suco","ENGTYPE_3": "Community","CC_3": "NA","HASC_3": "NA","name": "Fohorem.city","area_km2": 40.11162,"hist_schema_id": "Elevation0-9000","hist_area_km2": {"100": 0.1883,"125": 1.088,"150": 1.59018,"175": 1.65296,"200": 1.82036,"225": 2.21792,"250": 2.09239,"275": 2.25979,"300": 2.38534,"325": 2.15518,"350": 2.21796,"375": 1.86225,"400": 2.13427,"425": 2.0715,"450": 1.88319,"475": 1.75766,"500": 1.31824,"525": 1.63211,"550": 1.48564,"575": 1.29731,"600": 1.06715,"625": 0.79513,"650": 0.52312,"675": 0.20925,"700": 0.31388,"725": 0.27203,"750": 0.1674,"775": 0.29295,"800": 0.31388,"825": 0.23018,"850": 0.23018,"875": 0.1674,"900": 0.12555,"925": 0.0837,"950": 0.04185,"975": 0.04185,"1025": 0.02093,"1075": 0.02093,"1150": 0.02093,"1225": 0.02093,"1325": 0.02093,"1350": 0.02093}}}