{"type":"Feature","properties":{"GID_3":"TLS.6.5.11_1","GID_0":"TLS","country":"Timor-Leste","GID_1":"TLS.6_1","province":"Covalima","NL_NAME_1":"NA","GID_2":"TLS.6.5_1","county":"SuaiKota","NL_NAME_2":"NA","city":"Lucalai","VARNAME_3":"Beco","NL_NAME_3":"NA","TYPE_3":"Suco","ENGTYPE_3":"Community","CC_3":"NA","HASC_3":"NA","name":"Lucalai.city"},
"geometry":{"type": "MultiPolygon","coordinates": [[[[125.3937,-9.1752,92.6129],[125.3832,-9.1808,119.7504],[125.3784,-9.1905,158.632],[125.3836,-9.2026,96.7154],[125.3906,-9.2055,62.5095],[125.4041,-9.1992,44.8151],[125.3992,-9.1884,59.3732],[125.3965,-9.1855,64.188],[125.3937,-9.1752,92.6129]]]]}}