{"type":"Feature","properties":{"GID_2":"TLS.6.3_1","GID_0":"TLS","country":"Timor-Leste","GID_1":"TLS.6_1","province":"Covalima","NL_NAME_1":"NA","county":"Fohorem","VARNAME_2":"Forohem","NL_NAME_2":"NA","TYPE_2":"Subdistrito","ENGTYPE_2":"Subdistrict","CC_2":"NA","HASC_2":"NA","name":"Fohorem.county"},
"geometry":{"type": "MultiPolygon","coordinates": [[[[125.1101,-9.2226,1594.0347],[125.109,-9.223,1597.7393],[125.1031,-9.2138,1222.256],[125.1065,-9.1978,953.0992],[125.1034,-9.1954,978.8666],[125.0804,-9.2162,794.4135],[125.0777,-9.2212,763.2192],[125.0756,-9.2214,725.9864],[125.0726,-9.2248,709.582],[125.0705,-9.2306,666.1389],[125.0608,-9.2382,622.3227],[125.0582,-9.2412,626.5637],[125.058,-9.2448,524.8344],[125.0541,-9.2478,521.4291],[125.0528,-9.2523,477.008],[125.054,-9.2577,453.3769],[125.0496,-9.2727,451.1132],[125.0516,-9.2745,395.3027],[125.0515,-9.2826,385.3291],[125.0534,-9.2883,352.3357],[125.0558,-9.29,355.6158],[125.0584,-9.2962,327.0115],[125.0635,-9.2974,310.8396],[125.0667,-9.2955,312.0388],[125.073,-9.2979,290.0654],[125.0749,-9.297,281.6624],[125.0841,-9.299,243.5959],[125.0886,-9.3043,211.6698],[125.0978,-9.3097,193.9467],[125.1042,-9.3089,185.466],[125.1112,-9.3104,168.6376],[125.1131,-9.3079,241.0735],[125.116,-9.3088,154.0333],[125.1185,-9.3067,157.6242],[125.1296,-9.3046,134.5216],[125.1317,-9.3105,128.8578],[125.153,-9.3162,103.2952],[125.16,-9.3013,133.9162],[125.1727,-9.2915,159.1216],[125.1747,-9.2859,166.3129],[125.1739,-9.2791,167.5503],[125.1805,-9.276,180.2838],[125.1933,-9.2586,231.1554],[125.1821,-9.2501,242.789],[125.1811,-9.2468,276.7404],[125.183,-9.2381,282.9071],[125.1764,-9.2311,532.2727],[125.1705,-9.2276,699.742],[125.1667,-9.218,908.1102],[125.1624,-9.2139,1123.5631],[125.149,-9.2159,1480.8193],[125.1472,-9.2134,1678.7986],[125.1361,-9.2142,1604.1525],[125.1314,-9.211,1616.115],[125.1289,-9.2116,1575.0327],[125.1208,-9.2209,1501.9155],[125.1101,-9.2226,1594.0347]]]]}}