{"type":"Feature","properties":{"GID_2":"TLS.6.2_1","GID_0":"TLS","country":"Timor-Leste","GID_1":"TLS.6_1","province":"Covalima","NL_NAME_1":"NA","county":"FatuMean","VARNAME_2":"Fatumean","NL_NAME_2":"NA","TYPE_2":"Subdistrito","ENGTYPE_2":"Subdistrict","CC_2":"NA","HASC_2":"NA","name":"Fatu_Mean.county"},
"geometry":{"type": "MultiPolygon","coordinates": [[[[125.0479,-9.3246,395.285],[125.0573,-9.3173,586.5247],[125.0624,-9.3089,552.6039],[125.061,-9.297,315.9914],[125.0572,-9.2955,344.234],[125.0558,-9.29,355.6158],[125.0534,-9.2883,352.3357],[125.0515,-9.2826,385.3291],[125.0516,-9.2745,395.3027],[125.0497,-9.2731,426.9305],[125.054,-9.2577,453.3769],[125.0528,-9.2523,477.008],[125.0541,-9.2478,521.4291],[125.058,-9.2448,524.8344],[125.0582,-9.2412,626.5637],[125.0608,-9.2382,622.3227],[125.0705,-9.2306,666.1389],[125.0751,-9.2218,725.9864],[125.0777,-9.2212,763.2192],[125.0804,-9.2162,794.4135],[125.097,-9.2018,1169.5812],[125.0911,-9.1954,967.297],[125.0863,-9.193,949.7921],[125.0834,-9.1895,868.3604],[125.08,-9.1886,809.6379],[125.0748,-9.1755,721.5306],[125.068,-9.1758,670.6594],[125.0653,-9.1733,655.575],[125.0564,-9.1715,627.7159],[125.0561,-9.1697,612.0396],[125.0523,-9.1689,616.3892],[125.0419,-9.1743,558.9763],[125.0395,-9.1732,552.8452],[125.0361,-9.1744,544.843],[125.0331,-9.1702,514.2762],[125.0286,-9.1696,503.1385],[125.0251,-9.1713,503.2231],[125.0144,-9.1691,455.1241],[125.0117,-9.1739,601.787],[125.009,-9.1748,588.9266],[125.0055,-9.1746,498.8624],[125.003,-9.1724,509.2766],[124.9997,-9.1742,458.0901],[124.9943,-9.1724,428.4768],[124.993,-9.1766,442.8791],[124.994,-9.1783,450.0969],[124.9928,-9.1767,442.8791],[124.9904,-9.1787,552.194],[124.9883,-9.1895,566.2609],[124.9845,-9.192,610.4874],[124.9827,-9.1914,642.042],[124.9814,-9.2111,819.8848],[124.9838,-9.2308,782.2041],[124.9821,-9.2354,690.2173],[124.983,-9.2409,714.8954],[124.9814,-9.242,729.7657],[124.9839,-9.2429,717.4028],[124.9853,-9.2463,720.1465],[124.9848,-9.2515,736.8937],[124.9883,-9.2552,756.3909],[124.9874,-9.2608,790.587],[124.9894,-9.268,856.1661],[124.9979,-9.2783,750.3351],[124.9983,-9.2808,736.8583],[124.9953,-9.2855,670.8251],[124.9945,-9.2902,662.8844],[124.9969,-9.2941,586.9106],[125.0067,-9.2948,533.6973],[125.0107,-9.3005,475.6398],[125.0264,-9.314,662.115],[125.0295,-9.3201,604.2366],[125.0341,-9.3201,499.6138],[125.0356,-9.3235,459.543],[125.0425,-9.3213,416.9165],[125.0479,-9.3246,395.285]],
[[124.9926,-9.1862,473.1664],[124.9919,-9.1849,472.549],[124.993,-9.1836,459.5175],[124.9928,-9.1857,473.1664],[124.9926,-9.1862,473.1664]],
[[124.9939,-9.1827,456.0176],[124.9942,-9.1788,450.0969],[124.9948,-9.18,451.183],[124.9949,-9.1812,451.183],[124.9939,-9.1827,456.0176]]],
[[[124.979,-9.2332,682.6836],[124.9795,-9.2336,682.6836],[124.979,-9.2329,674.9667],[124.978,-9.2326,683.1326],[124.9781,-9.233,682.6836],[124.979,-9.2332,682.6836]]],
[[[124.9778,-9.2316,683.1326],[124.9779,-9.232,683.1326],[124.9781,-9.2313,674.9667],[124.9772,-9.2303,664.1104],[124.9771,-9.2307,664.1104],[124.9778,-9.2316,683.1326]]]]}}