{"type":"Feature","properties":{"GID_3":"TLS.1.3.3_1","GID_0":"TLS","country":"Timor-Leste","GID_1":"TLS.1_1","province":"Aileu","NL_NAME_1":"NA","GID_2":"TLS.1.3_1","county":"Lequidoe","NL_NAME_2":"NA","city":"Betulau","VARNAME_3":"BetuLau","NL_NAME_3":"NA","TYPE_3":"Suco","ENGTYPE_3":"Community","CC_3":"NA","HASC_3":"NA","name":"Betulau.city"},
"geometry":{"type": "MultiPolygon","coordinates": [[[[125.6551,-8.7643,816.0432],[125.6585,-8.7626,801.5414],[125.6604,-8.764,806.04],[125.6636,-8.7632,795.3659],[125.6652,-8.761,843.9506],[125.67,-8.7608,773.0947],[125.6715,-8.7591,773.6097],[125.6717,-8.7637,773.476],[125.6744,-8.7581,757.6024],[125.6757,-8.7591,764.0241],[125.6774,-8.7568,758.6077],[125.6867,-8.7558,770.6974],[125.6908,-8.7532,803.6939],[125.6935,-8.7508,818.2155],[125.6924,-8.7461,837.1544],[125.6896,-8.7438,801.3773],[125.6836,-8.7447,830.3858],[125.6831,-8.7433,816.948],[125.6809,-8.7449,840.0367],[125.6797,-8.7434,820.1626],[125.6765,-8.7446,837.0132],[125.6731,-8.7422,827.11],[125.6715,-8.7422,865.9326],[125.6713,-8.7438,810.6955],[125.666,-8.742,830.2195],[125.6578,-8.7434,816.0397],[125.6596,-8.7462,836.8835],[125.6583,-8.7469,822.8608],[125.6559,-8.7462,819.7142],[125.6551,-8.7437,823.2644],[125.6524,-8.7444,823.4331],[125.6515,-8.7416,835.799],[125.6494,-8.7413,825.4793],[125.6501,-8.7467,838.34],[125.647,-8.7479,836.7448],[125.647,-8.7507,906.9545],[125.6498,-8.7594,872.9142],[125.6551,-8.7643,816.0432]]]]}}