{"type":"Feature","properties":{"GID_3":"TLS.5.1.1_1","GID_0":"TLS","country":"Timor-Leste","GID_1":"TLS.5_1","province":"Bobonaro","NL_NAME_1":"NA","GID_2":"TLS.5.1_1","county":"Atabai","NL_NAME_2":"NA","city":"Aidaba-Leten","VARNAME_3":"Aidabalete","NL_NAME_3":"NA","TYPE_3":"Suco","ENGTYPE_3":"Community","CC_3":"NA","HASC_3":"NA","name":"Aidaba-Leten.city"},
"geometry":{"type": "MultiPolygon","coordinates": [[[[125.0043,-8.8783,0.0],[125.0065,-8.8787,5.7623],[125.0094,-8.8759,4.0802],[125.0163,-8.8758,2.0],[125.0233,-8.8692,9.2641],[125.0279,-8.8677,7.7098],[125.044,-8.8705,21.4179],[125.0461,-8.8671,28.6025],[125.05,-8.8663,50.2983],[125.0506,-8.8641,34.2817],[125.0546,-8.8634,69.3169],[125.0558,-8.8594,93.0064],[125.0609,-8.8587,99.9127],[125.0631,-8.8561,128.4196],[125.0662,-8.8606,150.2253],[125.0697,-8.8623,152.9014],[125.0748,-8.8613,165.1368],[125.0794,-8.8678,186.3466],[125.0835,-8.8702,194.7099],[125.0794,-8.876,208.7387],[125.0788,-8.8803,257.7161],[125.084,-8.891,296.2719],[125.089,-8.896,256.8028],[125.0909,-8.9004,249.6784],[125.094,-8.8997,253.611],[125.0972,-8.8927,236.9533],[125.1016,-8.8877,194.1865],[125.1091,-8.8858,170.7654],[125.1114,-8.8881,181.2591],[125.1167,-8.8878,160.7191],[125.1188,-8.8865,160.7434],[125.1183,-8.8834,166.4951],[125.1203,-8.8807,183.8799],[125.1304,-8.878,295.6349],[125.1308,-8.8753,344.0764],[125.1366,-8.8739,414.8012],[125.138,-8.8672,487.4178],[125.1469,-8.856,374.6136],[125.1483,-8.8498,330.0609],[125.1564,-8.8412,269.0663],[125.1596,-8.8397,357.589],[125.1616,-8.8325,182.168],[125.1577,-8.8301,201.3827],[125.1551,-8.8305,206.612],[125.1544,-8.8261,237.267],[125.1484,-8.8222,298.6853],[125.1396,-8.8109,118.0795],[125.1325,-8.8101,94.2351],[125.1306,-8.808,86.2407],[125.1273,-8.8089,65.6338],[125.1195,-8.8036,49.7263],[125.1221,-8.7934,140.2474],[125.1212,-8.7854,34.3542],[125.1237,-8.77,135.9019],[125.1193,-8.7598,213.786],[125.1197,-8.756,256.1511],[125.1227,-8.7521,256.5369],[125.121,-8.7472,98.2293],[125.1227,-8.7399,10.8875],[125.1211,-8.7377,9.5985],[125.1031,-8.7383,3.626],[125.092,-8.7363,1.3461],[125.0942,-8.7683,0.0],[125.0977,-8.7867,6.2137],[125.0956,-8.7981,48.3694],[125.0792,-8.8161,2.7378999999999998],[125.0758,-8.8172,0.0],[125.0692,-8.8244,2.2328],[125.0553,-8.8292,0.0],[125.0411,-8.8283,8.1304],[125.0356,-8.8322,0.0],[125.0357,-8.8343,45.624],[125.0328,-8.8376,0.0],[125.0283,-8.8381,7.0715],[125.0053,-8.8642,0.0],[125.0036,-8.8728,0.0],[125.0043,-8.8783,0.0]]]]}}