{"type": "Feature","bbox": [126.845,-8.4802,126.9185,-8.3671],"geometry": {"type": "MultiPolygon","coordinates": [[[[126.8931,-8.3755,12.0213],[126.89,-8.3742,9.7303],[126.8918,-8.3671,0.0],[126.8869,-8.3706,1.1192],[126.8803,-8.37,5.3409],[126.8575,-8.3817,1.0637],[126.845,-8.3911,0.0],[126.8485,-8.4009,10.5663],[126.8527,-8.404,71.401],[126.8611,-8.4043,90.9182],[126.8653,-8.4106,47.5723],[126.8669,-8.4215,120.8454],[126.8729,-8.4306,276.4855],[126.8748,-8.4508,437.0517],[126.8854,-8.459,447.2737],[126.8958,-8.4763,296.3939],[126.9026,-8.4801,185.3458],[126.9077,-8.4802,136.7279],[126.9126,-8.4744,85.2711],[126.914,-8.4686,86.398],[126.9123,-8.4646,97.7336],[126.9138,-8.4623,73.0806],[126.9158,-8.464,75.806],[126.9185,-8.4625,80.3823],[126.915,-8.4618,72.2],[126.9165,-8.4592,104.0367],[126.9133,-8.4592,73.8921],[126.9148,-8.4558,77.3431],[126.9117,-8.454,69.2798],[126.911,-8.4508,78.9249],[126.9124,-8.4483,69.0534],[126.9173,-8.4508,63.6297],[126.9179,-8.4474,54.4797],[126.917,-8.4423,61.6178],[126.9147,-8.4401,58.093],[126.9154,-8.438,71.9366],[126.9102,-8.4387,46.9707],[126.9094,-8.4376,52.8604],[126.9109,-8.4346,65.9027],[126.909,-8.4255,74.0625],[126.9059,-8.4266,52.5895],[126.9045,-8.425,65.6957],[126.9035,-8.4263,40.8724],[126.9013,-8.4223,41.4876],[126.9025,-8.4188,72.5832],[126.8971,-8.4192,35.3721],[126.8983,-8.4143,35.2975],[126.8964,-8.4147,38.0066],[126.8958,-8.4132,53.4555],[126.8997,-8.4103,28.9795],[126.8983,-8.4055,26.0168],[126.9007,-8.4049,33.7769],[126.894,-8.4014,32.6789],[126.891,-8.402,24.6832],[126.892,-8.3968,24.1729],[126.8945,-8.398,45.2893],[126.8948,-8.3967,41.7456],[126.889,-8.3879,11.7284],[126.8914,-8.3856,16.8775],[126.8878,-8.384,12.6507],[126.8897,-8.3824,14.7176],[126.8896,-8.38,14.6436],[126.8917,-8.3796,13.6308],[126.8929,-8.3817,12.226],[126.8941,-8.3806,22.5638],[126.8947,-8.3788,17.0881],[126.8914,-8.377,6.4983],[126.8931,-8.3755,12.0213]]]]}
,"properties": {"GID_3": "TLS.9.2.1_1","GID_0": "TLS","country": "Timor-Leste","GID_1": "TLS.9_1","province": "Lautém","NL_NAME_1": "NA","GID_2": "TLS.9.2_1","county": "Lautém","NL_NAME_2": "NA","city": "Baduro","VARNAME_3": "NA","NL_NAME_3": "NA","TYPE_3": "Suco","ENGTYPE_3": "Community","CC_3": "NA","HASC_3": "NA","name": "Baduro.city","area_km2": 44.77852,"hist_schema_id": "Elevation0-9000","hist_area_km2": {"0": 2.97856,"25": 4.90818,"50": 5.87278,"75": 4.57232,"100": 4.80303,"125": 2.74754,"150": 1.97147,"175": 1.59392,"200": 2.09725,"225": 1.78265,"250": 1.88753,"275": 2.53765,"300": 1.51001,"325": 1.3422,"350": 1.00666,"375": 1.15346,"400": 0.90179,"425": 0.8179,"450": 0.25166,"475": 0.04194}}}