{"type":"Feature","properties":{"GID_3":"TLS.8.1.7_1","GID_0":"TLS","country":"Timor-Leste","GID_1":"TLS.8_1","province":"Ermera","NL_NAME_1":"NA","GID_2":"TLS.8.1_1","county":"Atsabe","NL_NAME_2":"NA","city":"Lasaun","VARNAME_3":"Lacao","NL_NAME_3":"NA","TYPE_3":"Suco","ENGTYPE_3":"Community","CC_3":"NA","HASC_3":"NA","name":"Lasaun.city"},
"geometry":{"type": "MultiPolygon","coordinates": [[[[125.3841,-8.9632,1221.1089],[125.3837,-8.9549,1103.5586],[125.3798,-8.9519,944.9951],[125.3771,-8.9527,954.0219],[125.375,-8.9615,1099.5953],[125.3717,-8.9637,1141.9346],[125.3666,-8.9644,1311.1866],[125.3621,-8.9604,1303.3706],[125.3584,-8.9618,1062.4524],[125.3562,-8.9592,940.4012],[125.352,-8.9587,823.2533],[125.3493,-8.9608,730.5906],[125.349,-8.9648,867.8474],[125.3554,-8.9703,1016.3198],[125.3696,-8.972,980.3488],[125.373,-8.9709,1013.8174],[125.3756,-8.9735,933.6256],[125.3841,-8.9632,1221.1089]]]]}}