{"type":"Feature","properties":{"GID_2":"TLS.5.2_1","GID_0":"TLS","country":"Timor-Leste","GID_1":"TLS.5_1","province":"Bobonaro","NL_NAME_1":"NA","county":"Balibó","VARNAME_2":"NA","NL_NAME_2":"NA","TYPE_2":"Subdistrito","ENGTYPE_2":"Subdistrict","CC_2":"NA","HASC_2":"NA","name":"Balibó.county"},
"geometry":{"type": "MultiPolygon","coordinates": [[[[125.0384,-9.0334,186.7605],[125.0403,-9.0344,183.1009],[125.0427,-9.0319,185.9932],[125.0524,-9.0317,195.4107],[125.058,-9.0269,181.9278],[125.0627,-9.0285,160.3067],[125.0678,-9.0278,158.1188],[125.0726,-9.023,154.4516],[125.0768,-9.0217,153.8605],[125.0821,-9.0143,183.7846],[125.0873,-9.0127,141.0467],[125.0917,-9.0087,128.8423],[125.0929,-9.0051,138.5119],[125.0993,-8.9994,122.8686],[125.0988,-8.9928,120.2996],[125.1021,-8.9884,118.1247],[125.1035,-8.9741,131.8965],[125.1115,-8.9668,111.31],[125.1106,-8.9627,109.39],[125.1138,-8.9563,102.062],[125.1151,-8.9471,108.7767],[125.1209,-8.9398,94.866],[125.131,-8.9379,93.5173],[125.1314,-8.936,89.4112],[125.1354,-8.9339,94.5318],[125.1402,-8.9277,91.9104],[125.1401,-8.9219,83.1947],[125.1357,-8.922,90.6786],[125.1318,-8.9243,91.7075],[125.1304,-8.922,101.3946],[125.1249,-8.9231,120.48],[125.1239,-8.9214,106.3555],[125.1232,-8.9229,106.3555],[125.1183,-8.9207,115.3953],[125.1143,-8.9209,123.9312],[125.1117,-8.9176,137.74],[125.1055,-8.9157,175.0286],[125.102,-8.9105,188.6752],[125.1002,-8.9102,207.7599],[125.0972,-8.903,282.4851],[125.094,-8.8997,253.611],[125.0903,-8.9001,249.6784],[125.0902,-8.898,253.0243],[125.0802,-8.8846,290.3221],[125.0789,-8.8772,224.4806],[125.0835,-8.8702,194.7099],[125.0794,-8.8678,186.3466],[125.0748,-8.8613,165.1368],[125.0697,-8.8623,152.9014],[125.0662,-8.8606,150.2253],[125.0651,-8.8574,136.2233],[125.0626,-8.856,128.4196],[125.0609,-8.8587,99.9127],[125.0558,-8.8594,93.0064],[125.0546,-8.8634,69.3169],[125.0506,-8.8641,34.2817],[125.05,-8.8663,50.2983],[125.0461,-8.8671,28.6025],[125.044,-8.8705,21.4179],[125.0279,-8.8677,7.7098],[125.0233,-8.8692,9.2641],[125.0163,-8.8758,2.0],[125.0094,-8.8759,4.0802],[125.0065,-8.8787,5.7623],[125.0042,-8.8783,0.0],[124.9997,-8.8953,7.1543],[124.9925,-8.9044,1.4921],[124.9889,-8.9197,2.1897],[124.9857,-8.9256,0.0],[124.9801,-8.9293,0.0],[124.9773,-8.9398,1.1945],[124.9705,-8.9461,0.0],[124.9653,-8.9457,0.0],[124.9552,-8.9505,0.0],[124.9543,-8.9543,0.0],[124.95,-8.9584,4.773],[124.9517,-8.9609,6.3678],[124.9503,-8.9688,17.1702],[124.946,-8.9732,23.687],[124.9455,-8.9763,28.4692],[124.9413,-8.9786,31.255],[124.941,-8.9841,37.4645],[124.9338,-8.9962,54.3252],[124.9344,-8.9996,62.5544],[124.9381,-9.0038,92.0855],[124.9366,-9.0068,124.0469],[124.9367,-9.0167,369.7921],[124.9319,-9.0182,398.2753],[124.9318,-9.028,397.8942],[124.9374,-9.0348,307.6509],[124.9419,-9.0371,295.68],[124.9403,-9.0472,270.3062],[124.9426,-9.0474,269.7402],[124.9428,-9.0491,271.455],[124.9467,-9.0492,273.998],[124.9487,-9.0526,267.5938],[124.9503,-9.052,272.3952],[124.9505,-9.0488,270.5471],[124.9528,-9.0487,265.7403],[124.9541,-9.0564,268.0971],[124.9559,-9.0581,258.4855],[124.9613,-9.0589,254.5734],[124.9692,-9.0566,247.1004],[124.9746,-9.0631,252.7814],[124.9839,-9.0662,261.5044],[124.9887,-9.0601,264.0684],[124.9918,-9.0642,239.2863],[125.0021,-9.0641,226.5136],[125.0071,-9.0602,223.627],[125.0103,-9.0502,213.5016],[125.0207,-9.05,207.6527],[125.0208,-9.0432,208.6441],[125.0229,-9.0422,209.821],[125.0251,-9.0439,206.8559],[125.0303,-9.0434,208.7205],[125.0315,-9.0382,196.425],[125.0364,-9.0363,222.1609],[125.0384,-9.0334,186.7605]]]]}}