{"type":"Feature","properties":{"GID_3":"TLS.6.5.1_1","GID_0":"TLS","country":"Timor-Leste","GID_1":"TLS.6_1","province":"Covalima","NL_NAME_1":"NA","GID_2":"TLS.6.5_1","county":"SuaiKota","NL_NAME_2":"NA","city":"Belekasac","VARNAME_3":"Belakasak","NL_NAME_3":"NA","TYPE_3":"Suco","ENGTYPE_3":"Community","CC_3":"NA","HASC_3":"NA","name":"Belekasac.city"},
"geometry":{"type": "MultiPolygon","coordinates": [[[[125.2484,-9.2113,265.2409],[125.245,-9.2125,310.5382],[125.2397,-9.2245,356.4627],[125.2325,-9.2277,464.8509],[125.2286,-9.2268,492.127],[125.2222,-9.2288,615.7031],[125.2173,-9.2325,670.8911],[125.2173,-9.2353,667.1663],[125.2214,-9.237,629.9224],[125.2286,-9.2356,612.718],[125.2336,-9.2384,563.9426],[125.2353,-9.2419,519.3011],[125.244,-9.2458,420.9365],[125.2475,-9.2453,387.457],[125.2487,-9.242,365.2974],[125.2537,-9.2444,332.3803],[125.2569,-9.2496,291.107],[125.2612,-9.2525,273.9625],[125.2674,-9.2506,195.2075],[125.2721,-9.2533,179.0693],[125.2733,-9.2567,173.6304],[125.2689,-9.262,140.3719],[125.2788,-9.2644,206.7511],[125.2867,-9.2695,270.968],[125.2911,-9.2684,276.9842],[125.3012,-9.2724,62.8119],[125.3061,-9.2726,56.5569],[125.3037,-9.2587,77.77],[125.2925,-9.2542,98.1582],[125.2895,-9.2501,104.9634],[125.2877,-9.2438,126.4791],[125.2825,-9.2402,131.3778],[125.2797,-9.2344,148.2761],[125.2702,-9.2293,168.1789],[125.2659,-9.2248,188.8648],[125.2585,-9.2228,217.6073],[125.2484,-9.2113,265.2409]]]]}}