{"type": "Feature","bbox": [125.2308,-8.7345,125.368,-8.5831],"geometry": {"type": "MultiPolygon","coordinates": [[[[125.3572,-8.7004,450.5115],[125.3617,-8.6869,922.795],[125.3608,-8.6781,993.7004],[125.3591,-8.6763,898.658],[125.3614,-8.6751,842.0054],[125.3617,-8.6729,865.7533],[125.3653,-8.6723,855.1725],[125.368,-8.6626,931.2975],[125.3676,-8.6566,982.6903],[125.364,-8.6507,1170.0242],[125.3642,-8.6471,1076.902],[125.3594,-8.6434,895.2581],[125.358,-8.6391,803.801],[125.3601,-8.6384,846.7011],[125.3639,-8.6401,907.6769],[125.3634,-8.6351,1009.4645],[125.3606,-8.6322,775.7659],[125.3431,-8.6227,300.0375],[125.3423,-8.6183,308.8933],[125.3389,-8.6142,194.1641],[125.3403,-8.6106,265.4573],[125.3376,-8.6066,149.0566],[125.3384,-8.5831,4.4538],[125.3317,-8.5836,0.0],[125.3244,-8.5911,0.0],[125.3097,-8.5889,0.0],[125.2975,-8.6019,7.4095],[125.2931,-8.6028,0.0],[125.2987,-8.6203,233.1191],[125.2989,-8.6256,343.3985],[125.3025,-8.6293,417.6714],[125.2977,-8.6433,689.955],[125.3027,-8.6534,604.3653],[125.3004,-8.6617,512.8871],[125.3029,-8.6712,442.9255],[125.3019,-8.6748,394.6845],[125.3002,-8.6766,369.1321],[125.2859,-8.6762,661.8786],[125.2759,-8.6737,334.4561],[125.2724,-8.6792,332.2446],[125.2717,-8.6836,240.9777],[125.2687,-8.6865,219.3937],[125.2673,-8.6926,206.0361],[125.2616,-8.697,218.5652],[125.2553,-8.7112,206.8935],[125.2489,-8.7145,145.0256],[125.2434,-8.7133,128.1634],[125.2331,-8.7222,97.6243],[125.2308,-8.7276,82.7788],[125.2314,-8.7345,81.657],[125.2366,-8.7326,87.0482],[125.2498,-8.7325,103.0177],[125.2635,-8.7227,137.9959],[125.2696,-8.7248,142.3392],[125.2753,-8.7234,136.6224],[125.286,-8.7166,159.2861],[125.2921,-8.708,169.9891],[125.2971,-8.7071,185.5169],[125.3008,-8.7039,214.1322],[125.3072,-8.7046,203.3221],[125.3078,-8.7016,215.371],[125.3107,-8.7009,213.5941],[125.311,-8.6961,239.4619],[125.3165,-8.6954,257.8678],[125.3159,-8.692,237.9403],[125.3217,-8.6951,265.1488],[125.3189,-8.6972,273.8964],[125.3216,-8.6995,255.2921],[125.3313,-8.696,295.2734],[125.3348,-8.6978,291.4871],[125.3361,-8.695,291.9548],[125.3387,-8.6964,317.0102],[125.3378,-8.6998,411.2059],[125.3404,-8.6999,459.4265],[125.3433,-8.697,378.9582],[125.3452,-8.6988,376.2827],[125.3451,-8.7018,410.7252],[125.3484,-8.7042,429.0428],[125.3578,-8.7041,433.4295],[125.3572,-8.7004,450.5115]]]]}
,"properties": {"GID_2": "TLS.10.2_1","GID_0": "TLS","country": "Timor-Leste","GID_1": "TLS.10_1","province": "Liquiçá","NL_NAME_1": "NA","county": "Liquiçá","VARNAME_2": "NA","NL_NAME_2": "NA","TYPE_2": "Subdistrito","ENGTYPE_2": "Subdistrict","CC_2": "NA","HASC_2": "NA","name": "Liquiçá.county","area_km2": 98.11532,"hist_schema_id": "Elevation0-9000","hist_area_km2": {"0": 1.02725,"25": 2.59955,"50": 2.07543,"75": 1.84463,"100": 3.5211,"125": 3.14385,"150": 2.74567,"175": 2.99718,"200": 2.80853,"225": 3.22775,"250": 2.95527,"275": 2.95532,"300": 2.97628,"325": 2.87148,"350": 2.49425,"375": 2.28465,"400": 1.99126,"425": 2.30566,"450": 2.26371,"475": 2.11701,"500": 2.45237,"525": 1.82355,"550": 2.26374,"575": 2.24278,"600": 2.01221,"625": 2.15895,"650": 2.47334,"675": 1.82355,"700": 2.17988,"725": 2.11701,"750": 1.53011,"775": 1.71875,"800": 1.63491,"825": 1.84452,"850": 2.03315,"875": 1.67682,"900": 1.80259,"925": 1.84451,"950": 1.61395,"975": 1.76067,"1000": 1.55108,"1025": 1.38338,"1050": 1.29954,"1075": 0.94322,"1100": 0.75458,"1125": 0.54497,"1150": 0.48209,"1175": 0.29345,"1200": 0.29345,"1225": 0.35633}}}