{"type": "Feature","bbox": [125.5081,-8.6957,125.5352,-8.6438],"geometry": {"type": "MultiPolygon","coordinates": [[[[125.5215,-8.6465,361.1588],[125.5116,-8.6438,275.8884],[125.5121,-8.6486,498.7889],[125.5092,-8.6521,615.4935],[125.5081,-8.6575,803.8443],[125.5103,-8.6622,1055.7292],[125.5085,-8.6666,1013.183],[125.5141,-8.6815,1103.0443],[125.5143,-8.6878,1166.786],[125.5188,-8.6897,1190.0979],[125.5226,-8.6957,1208.1427],[125.526,-8.693,1052.2034],[125.5284,-8.6865,855.5024],[125.5318,-8.6844,803.5916],[125.5352,-8.6762,723.2908],[125.5347,-8.6703,674.2529],[125.5301,-8.6684,659.7537],[125.5298,-8.6653,668.9606],[125.5269,-8.6626,642.2039],[125.5264,-8.6586,638.046],[125.5241,-8.6562,586.8041],[125.5248,-8.6538,510.7587],[125.5225,-8.6517,463.2878],[125.5215,-8.6465,361.1588]]]]}
,"properties": {"GID_3": "TLS.8.5.7_1","GID_0": "TLS","country": "Timor-Leste","GID_1": "TLS.8_1","province": "Ermera","NL_NAME_1": "NA","GID_2": "TLS.8.5_1","county": "Railaco","NL_NAME_2": "NA","city": "Sama-Lete","VARNAME_3": "Samalete","NL_NAME_3": "NA","TYPE_3": "Suco","ENGTYPE_3": "Community","CC_3": "NA","HASC_3": "NA","name": "Sama-Lete.city","area_km2": 9.935017,"hist_schema_id": "Elevation0-9000","hist_area_km2": {"275": 0.020961,"300": 0.041923,"325": 0.020961,"350": 0.062884,"375": 0.041922,"400": 0.083845,"425": 0.062883,"450": 0.083844,"475": 0.062883,"500": 0.041922,"525": 0.125766,"550": 0.125766,"575": 0.125765,"600": 0.104805,"625": 0.209608,"650": 0.251526,"675": 0.419207,"700": 0.544965,"725": 0.607845,"750": 0.565924,"775": 0.817435,"800": 0.524,"825": 0.586876,"850": 0.565915,"875": 0.544954,"900": 0.377271,"925": 0.440149,"950": 0.712627,"975": 0.272473,"1000": 0.293432,"1025": 0.377271,"1050": 0.293432,"1075": 0.146716,"1100": 0.125753,"1125": 0.104794,"1150": 0.062876,"1175": 0.062876,"1200": 0.020959}}}