{"type": "Feature","bbox": [125.1884,-9.2436,125.2484,-9.1729],"geometry": {"type": "MultiPolygon","coordinates": [[[[125.2296,-9.1796,438.1801],[125.2243,-9.1754,484.5231],[125.2166,-9.1729,545.4731],[125.204,-9.1984,657.2552],[125.1988,-9.2018,431.7074],[125.1965,-9.2058,428.9996],[125.1966,-9.2097,485.8376],[125.1915,-9.2186,414.4621],[125.1911,-9.2245,341.9379],[125.193,-9.2283,315.9381],[125.1884,-9.2369,304.6867],[125.1913,-9.2386,360.4227],[125.1949,-9.2375,403.0597],[125.196,-9.2436,287.787],[125.1978,-9.242,302.2671],[125.2118,-9.2435,466.8099],[125.2194,-9.2409,631.2802],[125.2214,-9.237,629.9224],[125.2173,-9.2353,667.1663],[125.2173,-9.2325,670.8911],[125.2227,-9.2286,615.7031],[125.229,-9.2267,492.127],[125.2325,-9.2277,464.8509],[125.2387,-9.2253,398.0322],[125.245,-9.2125,310.5382],[125.2484,-9.2113,265.2409],[125.246,-9.2075,264.4244],[125.242,-9.2088,314.3369],[125.2414,-9.2118,355.2131],[125.2382,-9.2083,330.9554],[125.2347,-9.2088,310.1113],[125.2263,-9.2049,392.7602],[125.2254,-9.2,340.2641],[125.2281,-9.1942,374.1442],[125.2278,-9.1913,379.4257],[125.2318,-9.1867,411.5935],[125.2296,-9.1796,438.1801]]]]}
,"properties": {"GID_3": "TLS.6.5.6_1","GID_0": "TLS","country": "Timor-Leste","GID_1": "TLS.6_1","province": "Covalima","NL_NAME_1": "NA","GID_2": "TLS.6.5_1","county": "SuaiKota","NL_NAME_2": "NA","city": "Holpilat","VARNAME_3": "NA","NL_NAME_3": "NA","TYPE_3": "Suco","ENGTYPE_3": "Community","CC_3": "NA","HASC_3": "NA","name": "Holpilat.city","area_km2": 25.47024,"hist_schema_id": "Elevation0-9000","hist_area_km2": {"250": 0.06279,"275": 0.1465,"300": 0.39763,"325": 0.33485,"350": 0.6697,"375": 0.77436,"400": 1.25571,"425": 1.40221,"450": 1.71615,"475": 1.79987,"500": 1.5278,"525": 1.42316,"550": 1.61152,"575": 1.59058,"600": 1.38129,"625": 1.40224,"650": 1.36037,"675": 1.33945,"700": 1.00459,"725": 1.31853,"750": 1.0883,"775": 0.71158,"800": 0.46043,"825": 0.4395,"850": 0.20928,"875": 0.04186}}}