{"type": "Feature","bbox": [125.5468,-8.5766,125.5617,-8.5601],"geometry": {"type": "MultiPolygon","coordinates": [[[[125.5468,-8.5683,61.6622],[125.5488,-8.5754,174.4529],[125.5525,-8.5766,210.4973],[125.5562,-8.5744,150.6246],[125.5583,-8.5693,36.951],[125.5617,-8.5661,21.5692],[125.5573,-8.565,14.287],[125.5573,-8.5601,10.9906],[125.5534,-8.5653,21.0909],[125.5488,-8.5662,27.2271],[125.5468,-8.5683,61.6622]]]]}
,"properties": {"GID_3": "TLS.7.2.12_1","GID_0": "TLS","country": "Timor-Leste","GID_1": "TLS.7_1","province": "Dili","NL_NAME_1": "NA","GID_2": "TLS.7.2_1","county": "DiliBarat","NL_NAME_2": "NA","city": "Isolado","VARNAME_3": "BairoPite","NL_NAME_3": "NA","TYPE_3": "Suco","ENGTYPE_3": "Community","CC_3": "NA","HASC_3": "NA","name": "Isolado.city","area_km2": 1.320825,"hist_schema_id": "Elevation0-9000","hist_area_km2": {"25": 0.335451,"50": 0.209656,"75": 0.146759,"100": 0.146758,"125": 0.083862,"150": 0.062896,"175": 0.167723,"200": 0.062896,"225": 0.04193,"250": 0.04193,"275": 0.020965}}}