{"type": "Feature","bbox": [125.526,-8.6188,125.5569,-8.5683],"geometry": {"type": "MultiPolygon","coordinates": [[[[125.5374,-8.617,126.672],[125.5405,-8.6188,137.0309],[125.5413,-8.6107,519.1853],[125.5511,-8.6003,717.1702],[125.5554,-8.6039,699.4096],[125.5569,-8.602,607.822],[125.555,-8.597,564.882],[125.5567,-8.5934,458.7574],[125.5561,-8.5906,271.9451],[125.5518,-8.59,354.9061],[125.5524,-8.5818,319.5333],[125.551,-8.5791,273.613],[125.5525,-8.5766,210.4973],[125.5488,-8.5754,174.4529],[125.5468,-8.5683,61.6622],[125.543,-8.5699,36.7055],[125.5412,-8.575,44.0444],[125.5369,-8.5752,51.6775],[125.5348,-8.583,103.3355],[125.5324,-8.5852,56.3304],[125.5316,-8.593,68.5692],[125.526,-8.6025,82.8989],[125.5279,-8.6128,100.8694],[125.5374,-8.617,126.672]]]]}
,"properties": {"GID_3": "TLS.7.2.16_1","GID_0": "TLS","country": "Timor-Leste","GID_1": "TLS.7_1","province": "Dili","NL_NAME_1": "NA","GID_2": "TLS.7.2_1","county": "DiliBarat","NL_NAME_2": "NA","city": "MorisDame","VARNAME_3": "Comoro","NL_NAME_3": "NA","TYPE_3": "Suco","ENGTYPE_3": "Community","CC_3": "NA","HASC_3": "NA","name": "Moris_Dame.city","area_km2": 10.293389,"hist_schema_id": "Elevation0-9000","hist_area_km2": {"50": 0.649918,"75": 0.880506,"100": 0.628924,"125": 0.628933,"150": 0.524107,"175": 0.628923,"200": 0.461213,"225": 0.566032,"250": 0.50314,"275": 0.482174,"300": 0.482177,"325": 0.335423,"350": 0.335422,"375": 0.461206,"400": 0.251566,"425": 0.27253,"450": 0.314457,"475": 0.230601,"500": 0.314456,"525": 0.209638,"550": 0.125782,"575": 0.146746,"600": 0.188675,"625": 0.209637,"650": 0.16771,"675": 0.041928,"700": 0.209637,"725": 0.041928}}}