{"type": "Feature","bbox": [126.3441,-8.4617,126.3811,-8.4225],"geometry": {"type": "MultiPolygon","coordinates": [[[[126.3793,-8.4336,173.4128],[126.3792,-8.4281,13.1379],[126.3728,-8.4225,0.0],[126.3681,-8.4256,10.7564],[126.3614,-8.4256,0.0],[126.3458,-8.4397,0.0],[126.3441,-8.4479,9.1538],[126.3811,-8.4617,446.67],[126.3793,-8.4336,173.4128]]],
[[[126.38,-8.4281,25.013],[126.3795,-8.4281,25.013],[126.3797,-8.4282,25.013],[126.38,-8.4281,25.013]]]]}
,"properties": {"GID_3": "TLS.4.2.7_1","GID_0": "TLS","country": "Timor-Leste","GID_1": "TLS.4_1","province": "Baucau","NL_NAME_1": "NA","GID_2": "TLS.4.2_1","county": "Baucau","NL_NAME_2": "NA","city": "Caicido","VARNAME_3": "NA","NL_NAME_3": "NA","TYPE_3": "Suco","ENGTYPE_3": "Community","CC_3": "NA","HASC_3": "NA","name": "Caicido.city","area_km2": 11.115419,"hist_schema_id": "Elevation0-9000","hist_area_km2": {"0": 0.356538,"25": 0.62918,"50": 0.629185,"75": 0.775994,"100": 0.77599,"125": 0.796962,"150": 0.62918,"175": 0.859874,"200": 0.335563,"225": 0.356533,"250": 0.377501,"275": 0.419454,"300": 0.985699,"325": 0.901806,"350": 0.901807,"375": 0.964719,"400": 0.398462,"425": 0.020971}}}