{"type": "Feature","bbox": [125.531,-9.0158,125.6109,-8.9206],"geometry": {"type": "MultiPolygon","coordinates": [[[[125.5325,-8.9786,666.0089],[125.55,-8.9855,611.1531],[125.5492,-8.9883,613.3304],[125.5519,-8.9901,563.7881],[125.5535,-8.995,541.3245],[125.5514,-8.9997,499.9713],[125.5569,-9.0077,410.6217],[125.5594,-9.0065,409.7036],[125.5581,-9.0092,497.8412],[125.5603,-9.0145,425.189],[125.5646,-9.0158,396.4406],[125.571,-9.0125,431.0987],[125.5736,-9.0145,441.3894],[125.5787,-9.0103,533.7051],[125.5836,-9.011,628.7421],[125.5873,-9.0094,636.1441],[125.5912,-8.9965,757.0492],[125.5903,-8.9941,828.4464],[125.5922,-8.9905,927.9296],[125.5921,-8.9846,1023.5433],[125.5944,-8.9803,1146.2628],[125.5943,-8.9761,1250.4304],[125.5921,-8.9718,1364.6075],[125.5943,-8.9677,1488.0079],[125.5937,-8.9619,1741.0156],[125.5973,-8.9534,2417.3943],[125.6079,-8.9467,1954.3179],[125.6062,-8.9439,1744.522],[125.607,-8.9409,1481.3053],[125.6109,-8.9389,1374.3396],[125.6052,-8.9348,1427.2996],[125.6061,-8.928,1443.9296],[125.6038,-8.9233,1351.8081],[125.5975,-8.9206,1142.3098],[125.5941,-8.9217,1119.8379],[125.5916,-8.9247,1126.6036],[125.5867,-8.9246,1076.5134],[125.5788,-8.9276,1091.5259],[125.5775,-8.9295,1035.6501],[125.5743,-8.93,1004.271],[125.5727,-8.9328,987.3262],[125.5637,-8.9348,954.8218],[125.5589,-8.9387,917.6726],[125.5549,-8.9396,911.2759],[125.5517,-8.9439,869.4088],[125.5474,-8.9456,868.2053],[125.5452,-8.9502,820.0615],[125.5408,-8.9527,837.9288],[125.5404,-8.9559,795.329],[125.536,-8.9585,774.5269],[125.5343,-8.9631,766.733],[125.5325,-8.9637,758.9806],[125.5343,-8.9688,716.1929],[125.531,-8.9753,680.9496],[125.5325,-8.9786,666.0089]]]]}
,"properties": {"GID_3": "TLS.2.2.1_1","GID_0": "TLS","country": "Timor-Leste","GID_1": "TLS.2_1","province": "Ainaro","NL_NAME_1": "NA","GID_2": "TLS.2.2_1","county": "HatoBuilico","NL_NAME_2": "NA","city": "Mausiga","VARNAME_3": "Mauxiga","NL_NAME_3": "NA","TYPE_3": "Suco","ENGTYPE_3": "Community","CC_3": "NA","HASC_3": "NA","name": "Mausiga.city","area_km2": 51.22678,"hist_schema_id": "Elevation0-9000","hist_area_km2": {"350": 0.08376,"375": 0.1047,"400": 0.27223,"425": 0.29317,"450": 0.23035,"475": 0.23035,"500": 0.25129,"525": 0.27223,"550": 0.31411,"575": 0.25129,"600": 0.37694,"625": 0.6073,"650": 0.58637,"675": 0.58637,"700": 0.79578,"725": 0.69107,"750": 0.75391,"775": 0.79579,"800": 0.92147,"825": 0.92145,"850": 1.15182,"875": 0.98429,"900": 0.9843,"925": 1.04712,"950": 0.9843,"975": 1.08903,"1000": 1.08903,"1025": 0.81679,"1050": 1.19377,"1075": 1.04717,"1100": 1.15189,"1125": 1.02622,"1150": 1.2985,"1175": 1.17285,"1200": 1.13095,"1225": 1.11002,"1250": 1.19377,"1275": 1.19378,"1300": 1.23569,"1325": 1.17284,"1350": 1.31944,"1375": 0.94247,"1400": 1.40323,"1425": 0.69115,"1450": 0.90059,"1475": 0.71209,"1500": 0.96342,"1525": 0.62831,"1550": 0.58643,"1575": 0.48171,"1600": 0.46076,"1625": 0.41887,"1650": 0.48171,"1675": 0.25132,"1700": 0.31415,"1725": 0.43982,"1750": 0.39792,"1775": 0.46076,"1800": 0.41887,"1825": 0.43982,"1850": 0.37699,"1875": 0.39793,"1900": 0.3351,"1925": 0.4817,"1950": 0.39793,"1975": 0.29321,"2000": 0.41887,"2025": 0.46075,"2050": 0.52359,"2075": 0.39793,"2100": 0.41887,"2125": 0.20943,"2150": 0.43982,"2175": 0.31415,"2200": 0.20943,"2225": 0.29321,"2250": 0.25132,"2275": 0.25132,"2300": 0.20944,"2325": 0.14661,"2350": 0.16755,"2400": 0.04189,"2425": 0.04189,"2450": 0.02094}}}