{"type":"Feature","properties":{"GID_3":"TLS.9.1.4_1","GID_0":"TLS","country":"Timor-Leste","GID_1":"TLS.9_1","province":"Lautém","NL_NAME_1":"NA","GID_2":"TLS.9.1_1","county":"Iliomar","NL_NAME_2":"NA","city":"IliomarI","VARNAME_3":"NA","NL_NAME_3":"NA","TYPE_3":"Suco","ENGTYPE_3":"Community","CC_3":"NA","HASC_3":"NA","name":"Iliomar_I.city"},
"geometry":{"type": "MultiPolygon","coordinates": [[[[126.8277,-8.7092,379.1531],[126.8318,-8.7178,453.5099],[126.8346,-8.7172,316.8115],[126.841,-8.7217,455.6198],[126.8552,-8.7335,73.5186],[126.858,-8.7399,59.6651],[126.8665,-8.7436,1.4668],[126.8732,-8.7349,6.5829],[126.8764,-8.7334,0.0],[126.8924,-8.7181,1.5798],[126.9061,-8.7111,10.8503],[126.9161,-8.7106,0.7484],[126.9227,-8.703,0.0],[126.9339,-8.6939,3.2804],[126.9447,-8.6878,12.8852],[126.9508,-8.6872,4.6668],[126.9546,-8.6838,0.0],[126.948,-8.6717,39.8767],[126.9433,-8.6691,36.1909],[126.9419,-8.6634,56.3129],[126.9368,-8.6604,29.1335],[126.9367,-8.6559,54.7742],[126.9301,-8.6516,43.2473],[126.9186,-8.6528,94.3392],[126.9058,-8.6605,260.4935],[126.9001,-8.6618,371.2819],[126.8958,-8.6729,355.7324],[126.8873,-8.6822,150.7332],[126.885,-8.6838,100.8977],[126.8816,-8.6827,116.6619],[126.8765,-8.6853,171.0728],[126.8718,-8.6909,246.8019],[126.8706,-8.7027,127.9802],[126.8613,-8.7044,319.314],[126.855,-8.7037,495.6427],[126.8463,-8.7082,191.6556],[126.8348,-8.709,317.547],[126.8296,-8.7041,336.9991],[126.8277,-8.7092,379.1531]]]]}}