{"type":"Feature","properties":{"GID_2":"TLS.12.1_1","GID_0":"TLS","country":"Timor-Leste","GID_1":"TLS.12_1","province":"Manufahi","NL_NAME_1":"NA","county":"Alas","VARNAME_2":"NA","NL_NAME_2":"NA","TYPE_2":"Subdistrito","ENGTYPE_2":"Subdistrict","CC_2":"NA","HASC_2":"NA","name":"Alas.county"},
"geometry":{"type": "MultiPolygon","coordinates": [[[[125.8575,-9.1244,4.6267],[125.8714,-9.1256,3.9845],[125.8825,-9.1294,1.2036],[125.9056,-9.1339,0.0],[125.9172,-9.135,0.0],[125.9247,-9.1336,4.1717],[125.9397,-9.1342,2.0404],[125.9497,-9.13,0.0],[125.9631,-9.1194,17.0789],[125.9825,-9.1117,0.0],[125.9841,-9.1057,9.3307],[125.9825,-9.1016,12.2988],[125.9834,-9.1001,11.0459],[125.9777,-9.0959,14.0259],[125.9662,-9.0813,27.2725],[125.9591,-9.0768,32.6051],[125.9582,-9.0696,43.6875],[125.949,-9.0612,60.303],[125.946,-9.0493,59.5052],[125.9377,-9.045,64.322],[125.9351,-9.031,78.7685],[125.9286,-9.0194,88.9796],[125.9108,-9.018,104.721],[125.9084,-9.0146,108.1334],[125.906,-9.0051,121.1184],[125.8942,-9.0026,127.5397],[125.8856,-8.9952,142.37],[125.8673,-8.9982,165.0894],[125.8637,-8.9975,165.2277],[125.8587,-8.9818,191.6029],[125.8578,-8.9725,196.0081],[125.8554,-8.9709,200.2107],[125.8505,-8.9707,205.5712],[125.8471,-8.967,210.1355],[125.8457,-8.9616,232.4926],[125.8462,-8.9584,233.5967],[125.8534,-8.9494,235.2054],[125.8524,-8.9478,255.1524],[125.8453,-8.947,305.3795],[125.8443,-8.945,349.0915],[125.835,-8.9395,402.0855],[125.8273,-8.9417,543.7921],[125.8227,-8.94,643.5928],[125.8184,-8.9408,723.5112],[125.8061,-8.9352,417.3032],[125.8029,-8.9356,400.2999],[125.80029999999999,-8.9395,367.5098],[125.7946,-8.9398,363.3685],[125.7945,-8.944,355.4934],[125.7904,-8.9438,339.2544],[125.7898,-8.9461,339.0853],[125.7919,-8.949,327.6599],[125.7759,-8.9458,823.3906],[125.7719,-8.947,952.1158],[125.7684,-8.9421,1021.3769],[125.7599,-8.9422,643.7697],[125.7627,-8.9455,644.8099],[125.7625,-8.951,540.733],[125.7651,-8.9553,487.3766],[125.7634,-8.9583,459.8878],[125.7649,-8.9666,397.3668],[125.763,-8.9675,371.4803],[125.7601,-8.9737,332.8243],[125.7618,-8.9762,332.5878],[125.7568,-8.978,311.899],[125.751,-8.9751,382.9805],[125.7485,-8.9787,454.5711],[125.7508,-8.981,430.8022],[125.7508,-8.9841,431.4772],[125.7534,-8.9857,434.1909],[125.7525,-8.9901,471.2334],[125.7507,-8.9899,460.0302],[125.7451,-8.995,332.1472],[125.7321,-8.9972,267.604],[125.7317,-8.9989,277.9138],[125.7279,-9.0,260.9446],[125.7184,-9.0087,212.6947],[125.72,-9.0166,203.3045],[125.7189,-9.0201,226.8593],[125.7113,-9.0297,224.1059],[125.7044,-9.0301,181.516],[125.7025,-9.0324,175.8547],[125.705,-9.0442,158.0317],[125.7047,-9.0536,150.5055],[125.7086,-9.0469,163.5085],[125.7124,-9.0473,169.4165],[125.7149,-9.0439,168.7585],[125.7198,-9.0447,185.2137],[125.7202,-9.0472,191.7366],[125.724,-9.0501,214.1678],[125.7248,-9.0579,273.6092],[125.7225,-9.0622,378.3201],[125.7225,-9.0663,374.8098],[125.7177,-9.0725,444.9752],[125.7183,-9.0747,407.1819],[125.7282,-9.0787,415.7358],[125.7286,-9.0817,370.4795],[125.7376,-9.082,274.2],[125.7411,-9.0842,258.3289],[125.7401,-9.0864,289.6635],[125.7418,-9.0923,308.4872],[125.7452,-9.092,305.3339],[125.7508,-9.0857,181.4228],[125.7529,-9.0859,141.4421],[125.7576,-9.0934,124.7019],[125.7613,-9.0929,104.6378],[125.7601,-9.0945,110.4343],[125.7622,-9.0979,170.091],[125.7755,-9.1058,68.2516],[125.7777,-9.1044,75.7371],[125.7802,-9.1058,60.4017],[125.7822,-9.104,57.1689],[125.7861,-9.1058,49.2745],[125.7868,-9.1083,49.4207],[125.788,-9.107,48.9605],[125.7895,-9.1086,44.7761],[125.7913,-9.1073,43.0502],[125.7912,-9.1108,43.5374],[125.7927,-9.112,46.7686],[125.7943,-9.1109,42.0439],[125.7969,-9.1166,58.3723],[125.7994,-9.1146,33.2666],[125.7993,-9.1165,33.9575],[125.8017,-9.1163,31.1301],[125.8024,-9.1189,32.7806],[125.8069,-9.1224,24.2719],[125.8097,-9.1222,22.4029],[125.8105,-9.1236,23.794],[125.8067,-9.1275,16.9519],[125.8047,-9.1274,22.7048],[125.8088,-9.134,23.0211],[125.8077,-9.1389,10.0743],[125.8054,-9.1381,12.1292],[125.8031,-9.1401,10.2387],[125.8044,-9.1423,9.0851],[125.8027,-9.1446,0.0],[125.8094,-9.1469,3.2069],[125.8144,-9.1508,1.7334],[125.8172,-9.1511,5.6255],[125.8231,-9.1475,6.691],[125.8281,-9.1378,0.632],[125.8358,-9.1339,1.5247],[125.8424,-9.1277,1.7891],[125.8525,-9.1244,3.7085],[125.8575,-9.1244,4.6267]]]]}}