{"type":"Feature","properties":{"GID_3":"TLS.5.2.3_1","GID_0":"TLS","country":"Timor-Leste","GID_1":"TLS.5_1","province":"Bobonaro","NL_NAME_1":"NA","GID_2":"TLS.5.2_1","county":"Balibó","NL_NAME_2":"NA","city":"Cová","VARNAME_3":"Kowa","NL_NAME_3":"NA","TYPE_3":"Suco","ENGTYPE_3":"Community","CC_3":"NA","HASC_3":"NA","name":"Cová.city"},
"geometry":{"type": "MultiPolygon","coordinates": [[[[125.0388,-9.0334,186.7605],[125.0344,-9.0285,289.7518],[125.0329,-9.0229,416.0305],[125.0329,-9.0156,641.288],[125.0387,-9.01,674.7693],[125.036,-9.0059,649.0752],[125.0354,-8.9995,596.4052],[125.0371,-8.9921,521.0599],[125.0236,-8.9776,427.8804],[125.0004,-8.987,136.9323],[124.9901,-8.9867,172.235],[124.9865,-8.989,227.1325],[124.9842,-8.9931,262.1024],[124.9796,-8.9946,343.7169],[124.9459,-8.9953,96.4028],[124.9373,-8.9901,51.5862],[124.9341,-8.9951,54.3252],[124.934,-8.9989,59.7011],[124.938,-9.003,92.0855],[124.9366,-9.0068,124.0469],[124.9374,-9.0138,290.2494],[124.9367,-9.0168,369.7921],[124.9319,-9.0182,398.2753],[124.9318,-9.028,397.8942],[124.9374,-9.0348,307.6509],[124.9419,-9.0371,295.68],[124.9403,-9.0472,270.3062],[124.9426,-9.0474,269.7402],[124.9428,-9.0491,271.455],[124.9467,-9.0492,273.998],[124.9487,-9.0526,267.5938],[124.9503,-9.052,272.3952],[124.9505,-9.0488,270.5471],[124.9528,-9.0487,265.7403],[124.9541,-9.0564,268.0971],[124.9559,-9.0581,258.4855],[124.9613,-9.0589,254.5734],[124.9692,-9.0566,247.1004],[124.9746,-9.0631,252.7814],[124.9839,-9.0662,261.5044],[124.9887,-9.0601,264.0684],[124.9918,-9.0642,239.2863],[125.0021,-9.0641,226.5136],[125.0071,-9.0602,223.627],[125.0103,-9.0502,213.5016],[125.0207,-9.05,207.6527],[125.0208,-9.0432,208.6441],[125.0229,-9.0422,209.821],[125.0251,-9.0439,206.8559],[125.0303,-9.0434,208.7205],[125.0315,-9.0382,196.425],[125.0364,-9.0363,222.1609],[125.0388,-9.0334,186.7605]]]]}}