{"type": "Feature","bbox": [125.5562,-8.554,125.5648,-8.5476],"geometry": {"type": "MultiPolygon","coordinates": [[[[125.5643,-8.554,5.1108],[125.5648,-8.5478,0.0],[125.5573,-8.5476,0.0],[125.5562,-8.5489,6.6912],[125.5582,-8.554,7.6995],[125.5643,-8.554,5.1108]]]]}
,"properties": {"GID_3": "TLS.7.2.2_1","GID_0": "TLS","country": "Timor-Leste","GID_1": "TLS.7_1","province": "Dili","NL_NAME_1": "NA","GID_2": "TLS.7.2_1","county": "DiliBarat","NL_NAME_2": "NA","city": "Alor","VARNAME_3": "7Decembro","NL_NAME_3": "NA","TYPE_3": "Suco","ENGTYPE_3": "Community","CC_3": "NA","HASC_3": "NA","name": "Alor.city","area_km2": 0.54513,"hist_schema_id": "Elevation0-9000","hist_area_km2": {"0": 0.54513}}}