{"type": "Feature","bbox": [126.2621,-8.6222,126.3073,-8.5189],"geometry": {"type": "MultiPolygon","coordinates": [[[[126.3073,-8.5914,517.1635],[126.2945,-8.5767,215.0591],[126.292,-8.5696,202.8004],[126.2879,-8.5665,187.1026],[126.2889,-8.5647,197.2192],[126.2856,-8.5564,152.5096],[126.2889,-8.5523,186.3167],[126.2837,-8.5376,87.5083],[126.2834,-8.5244,107.9946],[126.2809,-8.5222,72.9695],[126.2803,-8.5189,96.3046],[126.276,-8.519,45.8637],[126.2715,-8.5275,220.7515],[126.2712,-8.5311,286.4575],[126.2659,-8.5376,382.2134],[126.2676,-8.5434,432.0653],[126.2655,-8.5519,507.4403],[126.2621,-8.557,540.5908],[126.2659,-8.563,583.3306],[126.269,-8.5642,552.8917],[126.2708,-8.5696,466.4434],[126.2761,-8.5741,475.5398],[126.2762,-8.5834,619.2482],[126.2847,-8.5913,463.3434],[126.2758,-8.598,445.4603],[126.2747,-8.6034,438.09],[126.2729,-8.6029,414.8498],[126.2701,-8.6055,429.2727],[126.2695,-8.6086,380.8868],[126.2661,-8.6118,343.2005],[126.2667,-8.6175,304.159],[126.2647,-8.6208,256.2665],[126.267,-8.6222,244.6593],[126.2683,-8.6209,281.2137],[126.2738,-8.6217,265.9339],[126.276,-8.6193,280.2372],[126.28,-8.6183,269.137],[126.2814,-8.6147,256.2703],[126.2848,-8.6161,268.9161],[126.2871,-8.6072,269.1001],[126.2938,-8.6026,300.6786],[126.2962,-8.5958,346.9223],[126.3073,-8.5914,517.1635]]]]}
,"properties": {"GID_3": "TLS.4.5.1_1","GID_0": "TLS","country": "Timor-Leste","GID_1": "TLS.4_1","province": "Baucau","NL_NAME_1": "NA","GID_2": "TLS.4.5_1","county": "Vemasse","NL_NAME_2": "NA","city": "Caicua","VARNAME_3": "CaiCua","NL_NAME_3": "NA","TYPE_3": "Suco","ENGTYPE_3": "Community","CC_3": "NA","HASC_3": "NA","name": "Caicua.city","area_km2": 22.81027,"hist_schema_id": "Elevation0-9000","hist_area_km2": {"50": 0.23065,"75": 0.23065,"100": 0.35645,"125": 0.41934,"150": 0.64998,"175": 0.77576,"200": 0.98542,"225": 0.96445,"250": 0.98538,"275": 2.07552,"300": 1.88684,"325": 1.99167,"350": 2.22226,"375": 2.15939,"400": 2.01262,"425": 1.71909,"450": 1.42562,"475": 0.64993,"500": 0.39835,"525": 0.31449,"550": 0.20966,"575": 0.10483,"600": 0.04193}}}