{"type": "Feature","bbox": [125.1193,-8.8253,125.1762,-8.7399],"geometry": {"type": "MultiPolygon","coordinates": [[[[125.1538,-8.8253,237.267],[125.1567,-8.8234,242.1859],[125.1611,-8.8139,325.1873],[125.1633,-8.8126,366.4919],[125.1631,-8.8105,384.6299],[125.1738,-8.8028,562.5337],[125.1762,-8.7985,539.033],[125.1682,-8.7877,822.5895],[125.1707,-8.7856,760.3408],[125.1726,-8.7794,696.8043],[125.1721,-8.7705,319.4026],[125.1684,-8.7631,186.8378],[125.1648,-8.7613,128.5755],[125.1625,-8.7556,35.1196],[125.1575,-8.7548,27.4506],[125.1524,-8.7499,19.2889],[125.1453,-8.7511,17.5981],[125.1366,-8.7445,14.3438],[125.1255,-8.7423,12.1435],[125.1227,-8.7399,10.8875],[125.121,-8.7456,60.9897],[125.1226,-8.7527,256.5369],[125.1197,-8.756,256.1511],[125.1193,-8.7598,213.786],[125.1237,-8.77,135.9019],[125.1212,-8.7854,34.3542],[125.1221,-8.7934,140.2474],[125.1195,-8.8036,49.7263],[125.1273,-8.8089,65.6338],[125.1306,-8.808,86.2407],[125.1325,-8.8101,94.2351],[125.1396,-8.8109,118.0795],[125.1484,-8.8222,298.6853],[125.1538,-8.8253,237.267]]]]}
,"properties": {"GID_3": "TLS.5.1.4_1","GID_0": "TLS","country": "Timor-Leste","GID_1": "TLS.5_1","province": "Bobonaro","NL_NAME_1": "NA","GID_2": "TLS.5.1_1","county": "Atabai","NL_NAME_2": "NA","city": "Rairobo","VARNAME_3": "NA","NL_NAME_3": "NA","TYPE_3": "Suco","ENGTYPE_3": "Community","CC_3": "NA","HASC_3": "NA","name": "Rairobo.city","area_km2": 38.65945,"hist_schema_id": "Elevation0-9000","hist_area_km2": {"0": 0.06287,"25": 1.67642,"50": 2.22116,"75": 2.53546,"100": 2.87071,"125": 2.57732,"150": 2.61924,"175": 2.15823,"200": 1.78107,"225": 2.03251,"250": 1.78104,"275": 1.73913,"300": 1.44574,"325": 1.15241,"350": 1.38289,"375": 0.88002,"400": 0.90098,"425": 0.75431,"450": 1.00575,"475": 0.6705,"500": 0.71241,"525": 0.81717,"550": 0.73337,"575": 0.83813,"600": 0.71241,"625": 0.46098,"650": 0.37716,"675": 0.44002,"700": 0.29335,"725": 0.27239,"750": 0.10477,"775": 0.18858,"800": 0.10477,"825": 0.08381,"850": 0.08381,"875": 0.04191,"900": 0.06286,"925": 0.04191,"950": 0.04191}}}