{"type": "Feature","bbox": [125.3329,-8.7729,125.3821,-8.7417],"geometry": {"type": "MultiPolygon","coordinates": [[[[125.3821,-8.7435,1265.7242],[125.3807,-8.7417,1273.7379],[125.3748,-8.7439,1306.4207],[125.3725,-8.743,1304.2456],[125.3701,-8.7452,1318.0347],[125.3651,-8.7435,1289.0123],[125.3633,-8.7449,1308.1837],[125.3632,-8.7475,1320.3458],[125.3577,-8.7503,1285.5164],[125.3544,-8.7502,1293.1097],[125.3524,-8.7475,1283.576],[125.3495,-8.747,1280.1196],[125.3435,-8.7623,1058.0983],[125.3368,-8.7655,934.96],[125.3329,-8.7729,854.2271],[125.3553,-8.7718,1203.2507],[125.356,-8.77,1198.6162],[125.3583,-8.7707,1207.295],[125.3641,-8.7665,1261.3666],[125.3663,-8.7673,1269.4625],[125.3743,-8.7629,1408.1129],[125.3811,-8.7611,1456.3669],[125.3821,-8.7435,1265.7242]]]]}
,"properties": {"GID_3": "TLS.8.3.4_1","GID_0": "TLS","country": "Timor-Leste","GID_1": "TLS.8_1","province": "Ermera","NL_NAME_1": "NA","GID_2": "TLS.8.3_1","county": "Hatólia","NL_NAME_2": "NA","city": "Fatubolu","VARNAME_3": "FatuBolu","NL_NAME_3": "NA","TYPE_3": "Suco","ENGTYPE_3": "Community","CC_3": "NA","HASC_3": "NA","name": "Fatubolu.city","area_km2": 10.288893,"hist_schema_id": "Elevation0-9000","hist_area_km2": {"850": 0.020954,"875": 0.041909,"900": 0.062863,"925": 0.041908,"950": 0.167635,"975": 0.125726,"1000": 0.083818,"1050": 0.146681,"1075": 0.188591,"1100": 0.419091,"1125": 0.31432,"1150": 0.35623,"1175": 0.481957,"1200": 0.293368,"1225": 0.481961,"1250": 0.4191,"1275": 0.670562,"1300": 0.838208,"1325": 0.628656,"1350": 0.733429,"1375": 0.733432,"1400": 0.586745,"1425": 0.628654,"1450": 0.544834,"1475": 0.586744,"1500": 0.335282,"1525": 0.335281,"1550": 0.020955}}}