{"type": "Feature","bbox": [126.5513,-8.6481,126.5662,-8.6177],"geometry": {"type": "MultiPolygon","coordinates": [[[[126.5513,-8.6474,912.848],[126.5567,-8.6481,880.924],[126.5645,-8.6442,1040.1449],[126.566,-8.6382,1041.998],[126.5662,-8.6269,927.909],[126.5607,-8.6213,789.4984],[126.5528,-8.6177,617.8077],[126.5572,-8.6269,798.4622],[126.5561,-8.6314,760.1731],[126.5577,-8.6338,788.2275],[126.5565,-8.6402,945.818],[126.5513,-8.6474,912.848]]]]}
,"properties": {"GID_3": "TLS.4.4.1_1","GID_0": "TLS","country": "Timor-Leste","GID_1": "TLS.4_1","province": "Baucau","NL_NAME_1": "NA","GID_2": "TLS.4.4_1","county": "Quelicai","NL_NAME_2": "NA","city": "Abo","VARNAME_3": "NA","NL_NAME_3": "NA","TYPE_3": "Suco","ENGTYPE_3": "Community","CC_3": "NA","HASC_3": "NA","name": "Abo.city","area_km2": 3.102365,"hist_schema_id": "Elevation0-9000","hist_area_km2": {"600": 0.020963,"650": 0.041925,"675": 0.041925,"700": 0.083851,"725": 0.062888,"750": 0.062888,"775": 0.062888,"800": 0.146736,"825": 0.167695,"850": 0.440199,"875": 0.272508,"900": 0.230578,"925": 0.293465,"950": 0.377314,"975": 0.25154,"1000": 0.167693,"1025": 0.293465,"1050": 0.062885,"1075": 0.020962}}}