{"type":"Feature","properties":{"GID_3":"TLS.7.1.4_1","GID_0":"TLS","country":"Timor-Leste","GID_1":"TLS.7_1","province":"Dili","NL_NAME_1":"NA","GID_2":"TLS.7.1_1","county":"Atauro","NL_NAME_2":"NA","city":"Maquili","VARNAME_3":"NA","NL_NAME_3":"NA","TYPE_3":"Suco","ENGTYPE_3":"Community","CC_3":"NA","HASC_3":"NA","name":"Maquili.city"},
"geometry":{"type": "MultiPolygon","coordinates": [[[[125.5685,-8.2449,604.4822],[125.5709,-8.2573,817.3691],[125.5756,-8.263,923.5795],[125.5768,-8.27,951.5838],[125.5759,-8.2729,941.8684],[125.5781,-8.2751,809.5401],[125.5788,-8.2808,761.7202],[125.5666,-8.2859,337.0742],[125.5635,-8.2912,223.3298],[125.56,-8.3056,0.0],[125.5611,-8.3067,0.0],[125.572,-8.3065,0.0],[125.5785,-8.309,7.7917],[125.579,-8.3069,36.4635],[125.5836,-8.3062,42.1104],[125.5836,-8.3036,55.7221],[125.5872,-8.3031,0.0],[125.5944,-8.29,3.687],[125.5986,-8.2869,0.445],[125.5913,-8.2753,178.6983],[125.5866,-8.2719,335.1933],[125.585,-8.2676,617.4902],[125.5871,-8.2647,496.7272],[125.5931,-8.2621,221.7813],[125.5952,-8.2534,287.294],[125.59,-8.248,302.0684],[125.5864,-8.2504,371.212],[125.5803,-8.2488,615.7143],[125.5777,-8.2465,611.7085],[125.5685,-8.2449,604.4822]]]]}}