{"type":"Feature","properties":{"GID_1":"TLS.10_1","GID_0":"TLS","country":"Timor-Leste","province":"Liquiçá","VARNAME_1":"NA","NL_NAME_1":"NA","TYPE_1":"Distrito","ENGTYPE_1":"District","CC_1":"NA","HASC_1":"TP.LQ","ISO_1":"NA","name":"Liquiçá.province"},
"geometry":{"type": "MultiPolygon","coordinates": [[[[125.1874,-8.7529,30.704],[125.1899,-8.7536,31.2335],[125.1941,-8.7502,36.3354],[125.1977,-8.7435,42.6844],[125.2028,-8.7419,48.3735],[125.2097,-8.737,54.9984],[125.2162,-8.7379,62.2195],[125.222,-8.7342,70.0817],[125.2309,-8.7345,79.458],[125.2366,-8.7326,87.0482],[125.2471,-8.7332,98.1319],[125.2635,-8.7227,137.9959],[125.2696,-8.7248,142.3392],[125.2753,-8.7234,136.6224],[125.286,-8.7166,159.2861],[125.2921,-8.708,169.9891],[125.2971,-8.7071,185.5169],[125.3008,-8.7039,214.1322],[125.3072,-8.7046,203.3221],[125.3078,-8.7016,215.371],[125.3107,-8.7009,213.5941],[125.311,-8.6961,239.4619],[125.3165,-8.6954,257.8678],[125.3159,-8.692,237.9403],[125.3217,-8.6951,265.1488],[125.3189,-8.6972,273.8964],[125.3216,-8.6995,255.2921],[125.3313,-8.696,295.2734],[125.3348,-8.6978,291.4871],[125.3365,-8.695,307.2728],[125.3387,-8.6964,317.0102],[125.3378,-8.6998,411.2059],[125.3404,-8.6999,459.4265],[125.3433,-8.697,378.9582],[125.3452,-8.6988,376.2827],[125.3451,-8.7018,410.7252],[125.3484,-8.7042,429.0428],[125.3578,-8.7041,433.4295],[125.358,-8.6998,450.5115],[125.3636,-8.7012,506.0922],[125.3652,-8.7045,484.1604],[125.3673,-8.7012,536.7759],[125.3709,-8.7006,543.6531],[125.3726,-8.6969,652.0093],[125.3797,-8.6914,937.3779],[125.3961,-8.6894,839.5746],[125.3988,-8.6847,767.1082],[125.3979,-8.6753,661.3892],[125.4,-8.6698,599.2335],[125.4039,-8.6681,578.0817],[125.4098,-8.6725,551.7351],[125.4165,-8.6702,532.3746],[125.4326,-8.6601,471.9608],[125.4356,-8.6536,473.6632],[125.4436,-8.6503,448.9323],[125.4472,-8.6452,522.3753],[125.4525,-8.6463,449.0745],[125.4551,-8.6489,448.7727],[125.4596,-8.6453,417.2878],[125.462,-8.6491,409.164],[125.4642,-8.648,429.754],[125.4642,-8.6454,388.188],[125.4671,-8.6468,361.2701],[125.4734,-8.6422,360.9979],[125.4798,-8.644,324.7875],[125.4854,-8.6435,284.3147],[125.4927,-8.6389,284.7169],[125.501,-8.6404,230.017],[125.5039,-8.6351,209.9698],[125.5136,-8.6351,181.8911],[125.5145,-8.6325,168.591],[125.5125,-8.629,165.9086],[125.5152,-8.6235,131.8384],[125.5239,-8.6189,111.1328],[125.5273,-8.6137,121.7658],[125.5188,-8.6129,388.2061],[125.5165,-8.6103,435.5302],[125.5184,-8.6034,314.6507],[125.5172,-8.5978,383.301],[125.519,-8.5966,383.301],[125.5202,-8.5913,410.131],[125.5185,-8.5854,359.3683],[125.5073,-8.5805,198.0762],[125.5073,-8.5751,170.0559],[125.5015,-8.5713,147.9655],[125.5007,-8.5679,140.3631],[125.4934,-8.5616,77.8673],[125.4982,-8.5577,18.7008],[125.498,-8.5561,0.0],[125.4917,-8.5569,1.4024],[125.4856,-8.5553,0.0],[125.4803,-8.5568,1.963],[125.485,-8.5614,8.8529],[125.4856,-8.5656,0.8613],[125.4786,-8.5739,0.0],[125.473,-8.5732,0.0],[125.4709,-8.5672,0.0],[125.4647,-8.5686,2.0542],[125.4611,-8.5669,0.0],[125.4527,-8.5704,0.0],[125.45,-8.568,5.3018],[125.4478,-8.5714,13.4558],[125.4435,-8.5681,6.3793],[125.44,-8.5686,1.459],[125.4374,-8.5664,0.0],[125.4342,-8.5675,1.8478],[125.4256,-8.5628,0.0],[125.42,-8.5633,7.0305],[125.4175,-8.5617,7.6914],[125.4011,-8.5642,0.0],[125.3922,-8.5639,0.0],[125.3883,-8.5661,0.0],[125.3833,-8.5664,0.0],[125.3775,-8.5719,5.3653],[125.3719,-8.5731,17.9564],[125.3681,-8.5764,6.8192],[125.3617,-8.5768,0.8296],[125.3564,-8.5797,9.6253],[125.3525,-8.5789,0.0],[125.3447,-8.5833,3.7237],[125.3322,-8.5833,0.8553],[125.3244,-8.5911,0.0],[125.3097,-8.5889,0.0],[125.2967,-8.6022,0.0],[125.2711,-8.605,3.9612],[125.2522,-8.6028,0.0],[125.2483,-8.6044,0.0],[125.2214,-8.6044,0.0],[125.2164,-8.6069,2.1904],[125.2106,-8.6056,0.0],[125.2036,-8.6103,3.555],[125.1964,-8.6106,0.0],[125.1792,-8.6175,0.0],[125.1703,-8.6194,0.0],[125.1642,-8.625,15.4702],[125.1533,-8.628,21.0875],[125.1433,-8.6344,3.7131],[125.1314,-8.6371,1.7403],[125.1261,-8.64,22.8044],[125.1236,-8.6394,0.0],[125.1205,-8.6486,10.5529],[125.1164,-8.6514,17.4915],[125.113,-8.6572,0.0],[125.1083,-8.6678,6.1864],[125.1061,-8.6778,11.5793],[125.0978,-8.6889,13.7633],[125.1003,-8.6953,6.7342],[125.0986,-8.6989,0.0],[125.1006,-8.7042,0.0],[125.1003,-8.7114,2.9504],[125.0958,-8.7292,9.5113],[125.091,-8.7347,0.3644],[125.0914,-8.7394,1.2308],[125.0925,-8.736,1.6673],[125.1031,-8.7383,3.626],[125.1202,-8.7374,9.5985],[125.1249,-8.7421,12.1435],[125.1366,-8.7445,14.3438],[125.1461,-8.7513,48.3892],[125.1517,-8.7499,19.2889],[125.1564,-8.7514,21.2147],[125.1603,-8.7504,21.6611],[125.1704,-8.753,43.8141],[125.1803,-8.7479,28.1424],[125.1874,-8.7529,30.704]]]]}}