{"type": "Feature","id": "542","bbox": [125.10294,-8.75621,125.51185,-8.56821],"geometry": {"type": "Polygon","coordinates": [[[125.51185,-8.62025,378.1937],[125.49749,-8.60966,252.9725],[125.49129,-8.57741,18.2102],[125.48984,-8.56826,4.2507],[125.48983,-8.56821,4.2507],[125.48748,-8.56927,2.0569],[125.46697,-8.57366,32.2595],[125.40113,-8.56927,45.0652],[125.38103,-8.57147,10.441],[125.31479,-8.59043,11.4875],[125.28517,-8.60784,31.7798],[125.27394,-8.61094,109.7817],[125.23732,-8.60556,10.5967],[125.22926,-8.60752,10.4166],[125.21013,-8.61777,59.7655],[125.16432,-8.62477,15.4702],[125.1443,-8.63144,0.0],[125.12794,-8.6456,244.3978],[125.115,-8.66595,239.7501],[125.10646,-8.68873,335.1921],[125.10294,-8.74027,4.0316],[125.10314,-8.74034,4.0316],[125.12252,-8.74773,124.8293],[125.14237,-8.75621,38.5115],[125.17213,-8.756,94.1527],[125.17921,-8.75445,51.8358],[125.22691,-8.74422,70.0597],[125.273,-8.72624,176.4909],[125.29905,-8.71218,276.4376],[125.34742,-8.70309,429.0428],[125.38752,-8.69544,1099.2366],[125.4053,-8.68159,777.5347],[125.43238,-8.66071,471.9608],[125.46814,-8.64852,468.6571],[125.49475,-8.64976,574.6744],[125.50121,-8.63859,228.9601],[125.51185,-8.62025,378.1937]]]}
,"properties": {"ISO3166-1-Alpha-3": "TLS","country": "East Timor","fill": "#F00","name": "Liquica","area_km2": 540.4478,"hist_schema_id": "Elevation0-9000","hist_area_km2": {"0": 10.2078,"25": 27.6874,"50": 22.8252,"75": 20.5406,"100": 20.3102,"125": 19.0947,"150": 18.0469,"175": 17.4183,"200": 16.6847,"225": 17.3136,"250": 15.5319,"275": 15.2596,"300": 14.2743,"325": 14.2745,"350": 14.0648,"375": 12.8492,"400": 12.8911,"425": 13.3941,"450": 12.6814,"475": 13.6876,"500": 14.2954,"525": 14.5679,"550": 12.7443,"575": 12.5137,"600": 13.4988,"625": 14.2115,"650": 14.0857,"675": 12.8491,"700": 11.9687,"725": 11.2979,"750": 8.3633,"775": 7.0847,"800": 6.0157,"825": 5.4917,"850": 5.3658,"875": 5.3449,"900": 4.7789,"925": 4.8418,"950": 4.4436,"975": 4.737,"1000": 3.6681,"1025": 2.9973,"1050": 3.3117,"1075": 2.6829,"1100": 2.3685,"1125": 1.9493,"1150": 1.4672,"1175": 1.1738,"1200": 1.0271,"1225": 0.8175,"1250": 0.4821,"1275": 0.1467,"1300": 0.3354,"1325": 0.1677,"1350": 0.2096,"1375": 0.1048}}}