{"type": "Feature","bbox": [125.4223,-8.7798,125.4481,-8.7427],"geometry": {"type": "MultiPolygon","coordinates": [[[[125.4475,-8.7648,1232.1996],[125.4481,-8.7569,969.1139],[125.4451,-8.7514,926.6401],[125.4328,-8.7513,844.7406],[125.4307,-8.7427,732.8627],[125.4223,-8.7612,1003.954],[125.4237,-8.7671,1231.199],[125.4265,-8.7687,1303.4802],[125.428,-8.772,1371.7485],[125.4285,-8.7798,1605.2422],[125.4308,-8.7795,1513.0291],[125.4323,-8.7746,1503.1475],[125.4356,-8.7713,1393.0334],[125.4465,-8.7640999999999991,1188.5325],[125.4475,-8.7648,1232.1996]]]]}
,"properties": {"GID_3": "TLS.8.2.1_1","GID_0": "TLS","country": "Timor-Leste","GID_1": "TLS.8_1","province": "Ermera","NL_NAME_1": "NA","GID_2": "TLS.8.2_1","county": "Ermera","NL_NAME_2": "NA","city": "Humboe","VARNAME_3": "NA","NL_NAME_3": "NA","TYPE_3": "Suco","ENGTYPE_3": "Community","CC_3": "NA","HASC_3": "NA","name": "Humboe.city","area_km2": 5.67876,"hist_schema_id": "Elevation0-9000","hist_area_km2": {"750": 0.062867,"775": 0.083822,"800": 0.062866,"825": 0.125732,"850": 0.167642,"875": 0.083821,"900": 0.146687,"925": 0.209551,"950": 0.167641,"975": 0.251461,"1000": 0.398146,"1025": 0.356236,"1050": 0.502918,"1075": 0.440053,"1100": 0.230504,"1125": 0.356231,"1150": 0.167637,"1175": 0.167637,"1200": 0.209546,"1225": 0.104773,"1250": 0.167636,"1275": 0.146682,"1300": 0.18859,"1325": 0.167635,"1350": 0.188589,"1375": 0.125726,"1400": 0.062863,"1425": 0.083817,"1450": 0.041908,"1475": 0.020954,"1500": 0.10477,"1525": 0.041908,"1550": 0.020954,"1575": 0.020954}}}