{"type":"Feature","properties":{"GID_3":"TLS.7.1.5_1","GID_0":"TLS","country":"Timor-Leste","GID_1":"TLS.7_1","province":"Dili","NL_NAME_1":"NA","GID_2":"TLS.7.1_1","county":"Atauro","NL_NAME_2":"NA","city":"Vila","VARNAME_3":"Vila/Maumeta","NL_NAME_3":"NA","TYPE_3":"Suco","ENGTYPE_3":"Community","CC_3":"NA","HASC_3":"NA","name":"Vila.city"},
"geometry":{"type": "MultiPolygon","coordinates": [[[[125.5952,-8.2534,287.294],[125.5931,-8.2621,221.7813],[125.5871,-8.2647,496.7272],[125.585,-8.2676,617.4902],[125.5866,-8.2719,335.1933],[125.5913,-8.2753,178.6983],[125.5986,-8.2869,0.445],[125.6003,-8.2797,21.138],[125.605,-8.2711,2.0829],[125.6061,-8.2631,0.0],[125.6097,-8.2564,3.1361],[125.6072,-8.2499,2.0127],[125.6022,-8.253,42.1729],[125.5977,-8.2512,128.8731],[125.5952,-8.2534,287.294]]]]}}