{"type": "Feature","bbox": [124.2693,-9.248,124.33,-9.1978],"geometry": {"type": "MultiPolygon","coordinates": [[[[124.325,-9.2229,14.2904],[124.3267,-9.2078,29.6828],[124.33,-9.2012,5.2372],[124.328,-9.1978,0.0],[124.3194,-9.2003,0.766],[124.3119,-9.1982,1.6617],[124.3085,-9.1994,0.0],[124.3058,-9.2017,0.0],[124.3033,-9.2103,3.8197],[124.3014,-9.2117,5.1571],[124.2934,-9.2155,2.2323],[124.2877,-9.216,0.0],[124.2747,-9.2231,5.3701],[124.2693,-9.224,0.0],[124.2715,-9.2311,81.5151],[124.278,-9.2391,194.6909],[124.2914,-9.2478,318.5965],[124.2969,-9.248,274.729],[124.3114,-9.2403,30.9562],[124.312,-9.2347,24.7899],[124.3147,-9.2305,46.449],[124.322,-9.2237,17.6831],[124.325,-9.2229,14.2904]]]]}
,"properties": {"GID_3": "TLS.3.3.6_1","GID_0": "TLS","country": "Timor-Leste","GID_1": "TLS.3_1","province": "Ambeno","NL_NAME_1": "NA","GID_2": "TLS.3.3_1","county": "PanteMacassar","NL_NAME_2": "NA","city": "Lifau","VARNAME_3": "NA","NL_NAME_3": "NA","TYPE_3": "Suco","ENGTYPE_3": "Community","CC_3": "NA","HASC_3": "NA","name": "Lifau.city","area_km2": 19.46309,"hist_schema_id": "Elevation0-9000","hist_area_km2": {"0": 7.57615,"25": 6.15282,"50": 1.69517,"75": 1.06731,"100": 0.73246,"125": 0.60689,"150": 0.50225,"175": 0.3139,"200": 0.18834,"225": 0.29298,"250": 0.08371,"275": 0.08371,"300": 0.12556,"325": 0.02093,"350": 0.02093}}}