{"type": "Feature","bbox": [126.1495,-8.7019,126.8122,-8.4144],"geometry": {"type": "MultiPolygon","coordinates": [[[[126.453,-8.678,236.3557],[126.4511,-8.6721,221.0868],[126.4549,-8.6705,214.2521],[126.4504,-8.6683,207.0796],[126.4502,-8.6661,219.651],[126.4479,-8.6656,205.6223],[126.4477,-8.6619,212.6087],[126.4448,-8.661,239.8528],[126.4469,-8.6562,178.4182],[126.449,-8.6552,176.5855],[126.4484,-8.6527,169.1906],[126.4546,-8.6469,168.5432],[126.4542,-8.6425,179.4537],[126.4589,-8.6406,153.7485],[126.4633,-8.6314,146.0183],[126.468,-8.629,144.2375],[126.4695,-8.6265,129.9178],[126.4674,-8.623,126.9203],[126.4633,-8.6228,125.103],[126.4603,-8.6208,120.4676],[126.4622,-8.6172,117.0842],[126.462,-8.6127,112.7946],[126.4595,-8.6127,113.4311],[126.459,-8.6106,115.2937],[126.4611,-8.6088,112.1275],[126.465,-8.6099,109.7864],[126.4661,-8.6077,109.3986],[126.466,-8.6052,109.217],[126.4623,-8.6041,107.6027],[126.4651,-8.5975,132.0398],[126.4609,-8.595,100.2451],[126.4642,-8.5921,109.5971],[126.4736,-8.5936,125.1207],[126.4764,-8.5962,136.6434],[126.4781,-8.6038,134.2015],[126.4757,-8.6072,157.665],[126.4776,-8.6084,142.8665],[126.4778,-8.6119,154.9344],[126.4823,-8.6113,164.9492],[126.4879,-8.6175,171.0915],[126.4847,-8.6223,225.3207],[126.4862,-8.6288,232.8209],[126.4849,-8.632,253.855],[126.4866,-8.637,304.5025],[126.48779999999999,-8.6368,304.5025],[126.4873,-8.6433,365.1074],[126.4888,-8.6472,395.8174],[126.5013,-8.6597,325.7686],[126.5056,-8.6695,402.4359],[126.5115,-8.6778,436.3214],[126.5149,-8.6778,462.386],[126.5231,-8.6818,363.4483],[126.5311,-8.682,383.9528],[126.5458,-8.6686,625.8978],[126.5518,-8.6675,686.2958],[126.5529,-8.6657,737.1309],[126.5626,-8.6623,900.2158],[126.5669,-8.6573,1080.8129],[126.5748,-8.6573,1258.2102],[126.5763,-8.6553,1460.0208],[126.5849,-8.6516,1752.9847],[126.589,-8.6534,2081.2104],[126.5872,-8.6573,1976.6537],[126.5879,-8.6605,1621.6178],[126.61279999999999,-8.6883,999.7985],[126.6131,-8.6855,958.0375],[126.618,-8.6829,855.9373],[126.6188,-8.6782,881.0409],[126.6226,-8.6754,811.545],[126.6213,-8.6697,839.434],[126.6225,-8.6635,772.2958],[126.621,-8.6621,800.884],[126.6268,-8.6519,733.36],[126.6387,-8.6493,452.3913],[126.6417,-8.6471,440.6677],[126.6455,-8.6472,389.8928],[126.6517,-8.6376,256.2393],[126.6575,-8.6352,229.4308],[126.6664,-8.6386,188.8521],[126.6705,-8.6423,143.5753],[126.6731,-8.6415,137.1104],[126.676,-8.645,108.5434],[126.6825,-8.6455,140.6678],[126.6852,-8.6481,104.7144],[126.6901,-8.647,131.1192],[126.7056,-8.6485,91.1201],[126.7095,-8.6463,106.8459],[126.7113,-8.6468,119.9231],[126.7222,-8.6589,66.5023],[126.7292,-8.6626,56.1361],[126.7282,-8.6655,56.5639],[126.7298,-8.6716,50.3475],[126.7325,-8.6723,49.4087],[126.7348,-8.6776,46.5121],[126.7299,-8.6871,33.3144],[126.734,-8.6853,36.7279],[126.7364,-8.6863,44.4894],[126.739,-8.6815,41.8097],[126.7417,-8.6799,72.9467],[126.7417,-8.6766,48.1636],[126.7453,-8.6739,56.8911],[126.7475,-8.6655,78.3005],[126.7548,-8.6568,72.2657],[126.7596,-8.6577,81.3605],[126.765,-8.6557,73.8758],[126.7638,-8.6531,90.5387],[126.7661,-8.6504,80.5018],[126.766,-8.6464,80.7775],[126.7747,-8.6394,94.2032],[126.7814,-8.6271,112.7388],[126.7867,-8.6234,182.6799],[126.7925,-8.6222,147.1389],[126.7972,-8.6229,168.2827],[126.8063,-8.6199,169.4652],[126.8103,-8.6216,152.0017],[126.8103,-8.6174,179.8055],[126.8084,-8.6166,166.5871],[126.8122,-8.613,168.683],[126.8092,-8.6071,175.7079],[126.8104,-8.6045,192.0892],[126.8087,-8.599,189.4234],[126.8045,-8.599,236.1837],[126.8014,-8.5925,349.2875],[126.7968,-8.5877,385.4034],[126.7945,-8.5877,410.8523],[126.7926,-8.5844,450.6729],[126.7855,-8.5819,593.2611],[126.7858,-8.577,717.2563],[126.7825,-8.566,1054.7919],[126.758,-8.5533,624.1626],[126.7557,-8.548,516.7461],[126.7559,-8.5439,436.4519],[126.7481,-8.5312,289.9771],[126.7371,-8.5283,228.6538],[126.7322,-8.5252,199.4851],[126.7305,-8.5212,222.4591],[126.7253,-8.519,229.9199],[126.723,-8.52,205.2108],[126.7244,-8.5178,165.3879],[126.7225,-8.5114,152.6863],[126.7236,-8.503,155.3116],[126.7308,-8.5015,102.907],[126.7337,-8.4947,128.5739],[126.7417,-8.4954,83.0558],[126.7461,-8.4913,78.7289],[126.7407,-8.4919,111.45],[126.7367,-8.4873,149.7637],[126.7297,-8.4866,178.8256],[126.7166,-8.4799,456.6438],[126.7117,-8.4682,249.1899],[126.7126,-8.4658,261.5845],[126.7077,-8.4586,199.7682],[126.708,-8.4536,172.802],[126.7054,-8.4484,140.1233],[126.7073,-8.4454,141.5725],[126.7069,-8.4431,158.8166],[126.7029,-8.437,131.1545],[126.697,-8.4332,34.4423],[126.695,-8.4288,13.8775],[126.6954,-8.4249,2.9518],[126.6581,-8.4375,0.0],[126.6378,-8.451,0.4615],[126.6303,-8.4517,0.0],[126.6153,-8.4569,1.3083],[126.6082,-8.4604,1.2925],[126.5983,-8.4697,4.9476],[126.5944,-8.4692,0.0],[126.5898,-8.4712,0.0],[126.5817,-8.4703,0.4027],[126.5659,-8.4829,0.0],[126.5622,-8.4806,0.2935],[126.554,-8.4815,4.0303],[126.5317,-8.4656,0.0],[126.5278,-8.4683,0.25],[126.5286,-8.4647,0.0],[126.5228,-8.4643,2.2047],[126.5183,-8.4583,0.0],[126.5136,-8.4567,3.9142],[126.5044,-8.45,0.0],[126.4831,-8.4442,0.0],[126.47,-8.4425,0.0],[126.4606,-8.4372,0.9392],[126.455,-8.4364,9.9521],[126.4367,-8.4222,1.5314],[126.4261,-8.42,18.2807],[126.4153,-8.4144,0.0],[126.4106,-8.4172,9.4656],[126.4047,-8.4175,0.0],[126.385,-8.4244,0.0],[126.3806,-8.4281,25.013],[126.377,-8.427,5.9301],[126.3728,-8.4225,0.0],[126.3681,-8.4256,10.7564],[126.3614,-8.4256,0.0],[126.3458,-8.4397,0.0],[126.3406,-8.4494,6.4658],[126.3161,-8.4529,0.0],[126.3081,-8.4558,0.5033],[126.2997,-8.4611,0.3707],[126.2903,-8.4728,1.3611],[126.2797,-8.4806,3.4053],[126.2747,-8.4806,0.0],[126.2685,-8.4847,4.5448],[126.2606,-8.4867,2.4471],[126.2546,-8.4862,0.0],[126.2437,-8.4984,7.7905],[126.2368,-8.5024,1.1811],[126.2303,-8.5017,1.774],[126.2225,-8.4978,0.0],[126.2058,-8.4947,1.203],[126.1892,-8.5028,0.0],[126.1819,-8.5024,1.4142],[126.1683,-8.4958,0.0],[126.161,-8.496,0.0],[126.164,-8.5062,7.7492],[126.1681,-8.5122,9.7539],[126.1848,-8.5263,25.7451],[126.185,-8.5283,27.9263],[126.1826,-8.5304,38.9201],[126.1825,-8.5352,44.7008],[126.1856,-8.5656,233.168],[126.197,-8.5798,340.1601],[126.192,-8.5986,304.8521],[126.1964,-8.6056,265.7798],[126.1905,-8.6116,282.6849],[126.1936,-8.6172,262.5476],[126.1952,-8.6249,343.1776],[126.1881,-8.638,437.0987],[126.1853,-8.6395,469.0344],[126.1835,-8.643,509.4332],[126.1811,-8.6434,519.39],[126.1799,-8.649,472.3406],[126.1661,-8.6548,399.1763],[126.1654,-8.6569,378.1833],[126.152,-8.667,263.4637],[126.1495,-8.6729,163.4218],[126.1551,-8.6732,156.4559],[126.1606,-8.6792,167.7576],[126.1649,-8.6761,207.7989],[126.1683,-8.6766,182.5833],[126.1737,-8.6807,180.8092],[126.1786,-8.6876,195.8339],[126.1833,-8.6891,194.3125],[126.1874,-8.6879,220.221],[126.1882,-8.6921,206.9507],[126.1921,-8.6898,227.6422],[126.1936,-8.6922,227.2654],[126.1958,-8.6885,231.2134],[126.1984,-8.6919,232.4201],[126.2008,-8.6857,262.2572],[126.2023,-8.6878,240.3372],[126.208,-8.6865,230.9205],[126.2124,-8.6958,239.6787],[126.2141,-8.6951,236.0449],[126.2136,-8.6917,231.6375],[126.2148,-8.6912,260.5868],[126.2174,-8.6929,243.1029],[126.2187,-8.6971,249.3321],[126.2266,-8.6974,242.0056],[126.2291,-8.6954,243.0059],[126.2278,-8.6907,248.1838],[126.2325,-8.6828,265.009],[126.2342,-8.6853,260.3068],[126.2379,-8.6827,270.8903],[126.2404,-8.6842,264.2946],[126.2394,-8.686,262.3231],[126.2458,-8.6857,274.7675],[126.2456,-8.6881,279.9343],[126.2517,-8.6846,286.4302],[126.2565,-8.6894,320.3845],[126.2531,-8.6934,340.9306],[126.2604,-8.6916,310.105],[126.262,-8.6939,310.1079],[126.2645,-8.6929,338.304],[126.2644,-8.6909,316.3489],[126.2675,-8.6891,315.3067],[126.268,-8.6866,316.0608],[126.2704,-8.6852,326.8784],[126.273,-8.686,356.1367],[126.2738,-8.6787,340.1076],[126.2792,-8.676,386.5828],[126.2786,-8.6735,368.7733],[126.2821,-8.6709,375.2272],[126.2802,-8.67,367.4235],[126.2866,-8.668,389.0619],[126.2975,-8.6734,660.3099],[126.3078,-8.6815,664.4174],[126.3173,-8.6811,789.967],[126.3227,-8.6785,855.7509],[126.324,-8.6757,871.4071],[126.3323,-8.6726,887.4645],[126.335,-8.6738,893.1376],[126.3396,-8.6822,890.1086],[126.3429,-8.6839,801.2241],[126.3459,-8.6834,791.1686],[126.3518,-8.6806,756.6323],[126.3546,-8.6769,747.1072],[126.3581,-8.6773,734.8432],[126.357,-8.6717,726.5751],[126.3593,-8.6724,733.398],[126.3605,-8.6699,716.9662],[126.3643,-8.6691,710.2413],[126.3674,-8.6658,716.1509],[126.3762,-8.6658,706.4995],[126.3785,-8.6628,663.7789],[126.3806,-8.6625,669.0271],[126.3811,-8.6598,660.0477],[126.3852,-8.6604,653.5729],[126.3844,-8.6581,656.2678],[126.3866,-8.658,659.7571],[126.3882,-8.6559,646.9175],[126.3938,-8.6583,631.1724],[126.3951,-8.6569,637.3363],[126.3977,-8.6591,630.3809],[126.3906,-8.665,741.5978],[126.3902,-8.6681,798.6549],[126.3908,-8.6737,957.7247],[126.3954,-8.6769,1124.4993],[126.3951,-8.6808,1184.8519],[126.3999,-8.6895,1352.6523],[126.4267,-8.6985,607.1707],[126.4424,-8.7019,316.6721],[126.4476,-8.6996,257.7613],[126.4487,-8.6939,255.262],[126.4529,-8.6913,238.4439],[126.4505,-8.6893,236.3789],[126.4501,-8.6853,242.3712],[126.4556,-8.6847,233.3515],[126.4563,-8.6825,235.0326],[126.4549,-8.6785,218.8756],[126.453,-8.678,236.3557]]]]}
,"properties": {"GID_1": "TLS.4_1","GID_0": "TLS","country": "Timor-Leste","province": "Baucau","VARNAME_1": "NA","NL_NAME_1": "NA","TYPE_1": "Distrito","ENGTYPE_1": "District","CC_1": "NA","HASC_1": "TP.BC","ISO_1": "NA","name": "Baucau.province","area_km2": 1503.706,"hist_schema_id": "Elevation0-9000","hist_area_km2": {"0": 39.781,"25": 50.726,"50": 44.852,"75": 45.438,"100": 43.026,"125": 42.689,"150": 45.268,"175": 48.244,"200": 49.732,"225": 47.655,"250": 49.897,"275": 53.272,"300": 53.692,"325": 54.09,"350": 55.012,"375": 56.752,"400": 53.565,"425": 51.617,"450": 48.242,"475": 48.557,"500": 50.739,"525": 57.575,"550": 36.941,"575": 31.7,"600": 27.443,"625": 27.171,"650": 27.128,"675": 25.346,"700": 27.652,"725": 23.249,"750": 21.404,"775": 15.701,"800": 13.71,"825": 12.263,"850": 11.488,"875": 9.161,"900": 9.496,"925": 6.834,"950": 6.583,"975": 6.625,"1000": 5.891,"1025": 6.163,"1050": 4.968,"1075": 4.591,"1100": 4.214,"1125": 4.34,"1150": 3.878,"1175": 3.019,"1200": 2.935,"1225": 2.432,"1250": 2.012,"1275": 1.363,"1300": 1.09,"1325": 0.901,"1350": 1.006,"1375": 1.153,"1400": 1.048,"1425": 1.342,"1450": 1.006,"1475": 0.776,"1500": 1.132,"1525": 1.3,"1550": 1.111,"1575": 1.048,"1600": 1.006,"1625": 1.069,"1650": 1.048,"1675": 0.838,"1700": 0.838,"1725": 1.006,"1750": 0.943,"1775": 0.755,"1800": 0.839,"1825": 0.755,"1850": 0.671,"1875": 0.482,"1900": 0.356,"1925": 0.398,"1950": 0.335,"1975": 0.335,"2000": 0.335,"2025": 0.272,"2050": 0.377,"2075": 0.377,"2100": 0.335,"2125": 0.335,"2150": 0.314,"2175": 0.147,"2200": 0.105,"2225": 0.126,"2250": 0.105,"2275": 0.084,"2300": 0.042,"2325": 0.021,"2350": 0.021}}}