{"type": "Feature","id": "546","bbox": [126.14003,-8.70639,126.81172,-8.41912],"geometry": {"type": "Polygon","coordinates": [[[126.6882,-8.43119,9.2924],[126.66684,-8.43694,4.0887],[126.5901,-8.47291,5.9296],[126.54884,-8.48675,9.8384],[126.51197,-8.45208,0.0],[126.49733,-8.44704,0.0],[126.47397,-8.44549,55.5217],[126.45094,-8.44069,68.5867],[126.4297,-8.43222,189.6781],[126.41163,-8.41912,63.6301],[126.40113,-8.42376,107.7704],[126.3812,-8.42409,0.0],[126.37013,-8.42596,51.8867],[126.33692,-8.44443,0.0],[126.30502,-8.45355,0.0],[126.26092,-8.48455,0.0],[126.24024,-8.49481,0.0],[126.20004,-8.50042,4.2081],[126.15504,-8.50107,1.0352],[126.14188,-8.50286,0.7378],[126.16101,-8.51788,39.8025],[126.17135,-8.53751,23.6449],[126.17424,-8.56087,62.1745],[126.17734,-8.59105,96.6628],[126.1792,-8.62371,227.8387],[126.17259,-8.64583,379.257],[126.16101,-8.66174,349.3611],[126.14003,-8.68107,255.7979],[126.18086,-8.69482,296.2009],[126.23439,-8.69585,256.8721],[126.28173,-8.67828,460.8265],[126.33113,-8.67539,889.4365],[126.37433,-8.6849,915.9542],[126.40637,-8.69626,827.7028],[126.43221,-8.70639,478.642],[126.44937,-8.69358,245.48],[126.44544,-8.6634,208.4352],[126.44854,-8.63343,332.9155],[126.45536,-8.60717,155.2565],[126.47479,-8.62619,249.3527],[126.49174,-8.67001,324.1895],[126.51882,-8.68324,395.2018],[126.55954,-8.67663,759.7024],[126.586,-8.68014,1140.4268],[126.60254,-8.68986,972.3594],[126.61556,-8.68366,888.6547],[126.62734,-8.66009,739.6731],[126.65111,-8.64872,363.2742],[126.68356,-8.65844,158.0039],[126.70672,-8.66464,152.136],[126.72491,-8.67828,101.4457],[126.73896,-8.69647,44.6155],[126.75136,-8.67993,139.2116],[126.77224,-8.65017,116.7238],[126.79932,-8.63033,160.3106],[126.81172,-8.6202,157.8515],[126.80428,-8.60387,243.173],[126.77658,-8.57596,838.5513],[126.74144,-8.54434,286.7151],[126.72635,-8.52966,319.0103],[126.73483,-8.51622,289.1389],[126.73752,-8.49927,88.8457],[126.7216,-8.48977,205.0486],[126.71064,-8.4784,352.1146],[126.70341,-8.45339,205.4805],[126.68822,-8.43122,9.2924],[126.6882,-8.43119,9.2924]]]}
,"properties": {"ISO3166-1-Alpha-3": "TLS","country": "East Timor","fill": "#F0F","name": "Baucau","area_km2": 1577.357,"hist_schema_id": "Elevation0-9000","hist_area_km2": {"0": 40.116,"25": 53.095,"50": 47.199,"75": 49.441,"100": 49.062,"125": 47.804,"150": 51.242,"175": 52.939,"200": 53.337,"225": 50.066,"250": 52.79,"275": 55.179,"300": 55.536,"325": 55.18,"350": 56.395,"375": 58.24,"400": 55.158,"425": 52.245,"450": 48.786,"475": 49.374,"500": 51.452,"525": 58.078,"550": 37.088,"575": 31.888,"600": 27.653,"625": 27.59,"650": 27.799,"675": 25.849,"700": 28.26,"725": 24.129,"750": 22.934,"775": 16.896,"800": 14.653,"825": 12.913,"850": 11.886,"875": 9.999,"900": 10.125,"925": 7.484,"950": 7.232,"975": 7.023,"1000": 6.163,"1025": 6.394,"1050": 4.989,"1075": 4.801,"1100": 4.339,"1125": 4.465,"1150": 4.423,"1175": 3.501,"1200": 3.375,"1225": 2.914,"1250": 2.704,"1275": 2.138,"1300": 1.488,"1325": 1.593,"1350": 1.404,"1375": 1.53,"1400": 1.467,"1425": 1.509,"1450": 1.216,"1475": 1.027,"1500": 1.3,"1525": 1.446,"1550": 1.321,"1575": 1.216,"1600": 1.3,"1625": 1.216,"1650": 1.195,"1675": 1.069,"1700": 1.027,"1725": 1.132,"1750": 1.027,"1775": 0.859,"1800": 0.901,"1825": 0.838,"1850": 0.734,"1875": 0.587,"1900": 0.377,"1925": 0.419,"1950": 0.377,"1975": 0.335,"2000": 0.356,"2025": 0.314,"2050": 0.398,"2075": 0.398,"2100": 0.356,"2125": 0.335,"2150": 0.314,"2175": 0.147,"2200": 0.105,"2225": 0.126,"2250": 0.105,"2275": 0.084,"2300": 0.042,"2325": 0.021,"2350": 0.021}}}