{"type": "Feature","bbox": [125.6623,-8.7029,125.7144,-8.6529],"geometry": {"type": "MultiPolygon","coordinates": [[[[125.6848,-8.7013,715.8909],[125.6871,-8.7029,710.9072],[125.6989,-8.7007,667.7939],[125.7011,-8.7023,659.3204],[125.7086,-8.6983,664.1293],[125.7144,-8.6916,555.5482],[125.7107,-8.6841,674.4156],[125.7047,-8.68,656.9222],[125.6915,-8.6806,852.8254],[125.681,-8.6754,1109.8423],[125.6804,-8.6699,997.4686],[125.6856,-8.6553,796.2507],[125.6835,-8.6529,818.5255],[125.6831,-8.6548,818.1293],[125.6815,-8.6531,802.7076],[125.6765,-8.6561,815.3587],[125.6706,-8.6567,849.3068],[125.6674,-8.6679,948.211],[125.6658,-8.682,1023.6128],[125.6623,-8.6877,854.3813],[125.6655,-8.6949,796.1611],[125.6775,-8.6959,760.4069],[125.6848,-8.7013,715.8909]]]]}
,"properties": {"GID_3": "TLS.1.4.6_1","GID_0": "TLS","country": "Timor-Leste","GID_1": "TLS.1_1","province": "Aileu","NL_NAME_1": "NA","GID_2": "TLS.1.4_1","county": "Remexio","NL_NAME_2": "NA","city": "Hautoho","VARNAME_3": "HauToho","NL_NAME_3": "NA","TYPE_3": "Suco","ENGTYPE_3": "Community","CC_3": "NA","HASC_3": "NA","name": "Hautoho.city","area_km2": 15.25828,"hist_schema_id": "Elevation0-9000","hist_area_km2": {"550": 0.02096,"575": 0.08383,"600": 0.18863,"625": 0.16767,"650": 0.39822,"675": 0.2515,"700": 0.3563,"725": 0.39821,"750": 0.44013,"775": 0.60781,"800": 0.67068,"825": 0.64973,"850": 0.98507,"875": 0.85932,"900": 0.79645,"925": 0.98508,"950": 1.1318,"975": 1.06893,"1000": 1.00605,"1025": 1.00605,"1050": 0.90126,"1075": 0.62879,"1100": 0.83839,"1125": 0.46111,"1150": 0.16768,"1175": 0.14672,"1200": 0.04192}}}