{"type":"Feature","properties":{"GID_3":"TLS.1.1.7_1","GID_0":"TLS","country":"Timor-Leste","GID_1":"TLS.1_1","province":"Aileu","NL_NAME_1":"NA","GID_2":"TLS.1.1_1","county":"Aileu","NL_NAME_2":"NA","city":"Hoholau","VARNAME_3":"NA","NL_NAME_3":"NA","TYPE_3":"Suco","ENGTYPE_3":"Community","CC_3":"NA","HASC_3":"NA","name":"Hoholau.city"},
"geometry":{"type": "MultiPolygon","coordinates": [[[[125.4992,-8.77,1418.5876],[125.4962,-8.7677,1340.3584],[125.4956,-8.7643,1264.2307],[125.4964,-8.76,1205.7408],[125.4998,-8.7578,1118.349],[125.4988,-8.7542,1121.6036],[125.5041,-8.7506,1072.5852],[125.4989,-8.7443,1212.4742],[125.4992,-8.7384,1082.6844],[125.502,-8.7319,1176.9973],[125.4935,-8.7343,1071.7418],[125.4912,-8.7386,1033.6172],[125.4864,-8.74,985.5058],[125.4838,-8.7425,952.1707],[125.4775,-8.7424,848.5348],[125.4758,-8.7437,828.8544],[125.4733,-8.7504,863.36],[125.47,-8.7535,904.7035],[125.4695,-8.7557,975.5422],[125.4718,-8.76,1008.5966],[125.471,-8.7623,1006.6827],[125.468,-8.7651,1074.4011],[125.464,-8.7655,1071.8663],[125.4648,-8.7668,1130.4006],[125.4615,-8.7733,1182.7749],[125.4538,-8.7805,1203.347],[125.4593,-8.7863,1281.8999],[125.4605,-8.7963,1313.4001],[125.4623,-8.797,1279.8162],[125.4636,-8.8022,1402.3096],[125.4652,-8.7965,1376.3456],[125.4728,-8.7875,1597.7922],[125.4735,-8.7832,1591.4265],[125.4776,-8.7826,1579.2585],[125.4828,-8.776,1492.4478],[125.4874,-8.7734,1449.592],[125.4992,-8.77,1418.5876]]]]}}