{"type": "Feature","bbox": [124.3004,-9.4286,124.4045,-9.2854],"geometry": {"type": "MultiPolygon","coordinates": [[[[124.3606,-9.4206,566.384],[124.3625,-9.4192,571.1063],[124.3668,-9.4195,524.9684],[124.3726,-9.4147,416.0994],[124.3739,-9.4087,429.2219],[124.3716,-9.406,398.6895],[124.3734,-9.4051,385.8827],[124.3745,-9.4063,402.3129],[124.3772,-9.4037,375.9612],[124.3725,-9.4011,388.5979],[124.3766,-9.4,364.278],[124.3804,-9.3968,324.3632],[124.3793,-9.3933,306.0515],[124.3819,-9.3895,299.4288],[124.3787,-9.3798,293.0186],[124.3741,-9.3766,288.6967],[124.3783,-9.3704,345.6388],[124.3779,-9.3653,415.2132],[124.3801,-9.3632,438.3856],[124.38,-9.3568,414.2661],[124.3896,-9.3606,485.3052],[124.4011,-9.3522,381.68],[124.4045,-9.3409,263.8151],[124.4009,-9.3366,218.4473],[124.3969,-9.3362,192.4048],[124.3946,-9.3307,203.0874],[124.3906,-9.3317,190.0342],[124.3891,-9.3284,164.8522],[124.3852,-9.327,175.353],[124.3833,-9.3237,174.5168],[124.3854,-9.3183,187.4741],[124.3842,-9.3141,140.5307],[124.3805,-9.3141,142.2729],[124.3753,-9.309,125.301],[124.3672,-9.3082,118.4838],[124.358,-9.2981,90.822],[124.3485,-9.2995,79.6696],[124.3436,-9.2951,85.3227],[124.3425,-9.2862,63.6617],[124.3399,-9.2854,63.9056],[124.3386,-9.2907,65.1715],[124.3278,-9.2931,73.1081],[124.3271,-9.3018,78.0933],[124.3312,-9.3046,80.5842],[124.3327,-9.3118,142.7962],[124.3313,-9.3189,92.2118],[124.3276,-9.3216,96.1389],[124.3165,-9.3223,106.9349],[124.3137,-9.3253,161.9018],[124.3094,-9.3199,119.9466],[124.3035,-9.321,127.0534],[124.3004,-9.331,137.7124],[124.3043,-9.3364,153.6197],[124.3043,-9.341,160.5672],[124.3118,-9.3453,160.5926],[124.3126,-9.3552,172.9301],[124.3111,-9.3577,194.5519],[124.3116,-9.3605,183.8837],[124.3084,-9.3653,196.5904],[124.3092,-9.3712,187.314],[124.3082,-9.3726,188.8043],[124.3097,-9.3737,200.9108],[124.3191,-9.3728,291.6077],[124.3203,-9.3761,268.3932],[124.3193,-9.3836,240.5479],[124.324,-9.39,255.1736],[124.3214,-9.3947,279.0479],[124.3265,-9.4017,367.7408],[124.3253,-9.4122,472.6361],[124.3286,-9.4163,546.3672],[124.3313,-9.4239,650.3229],[124.3509,-9.4286,806.4193],[124.3541,-9.424,697.1736],[124.3606,-9.4206,566.384]]]]}
,"properties": {"GID_2": "TLS.3.2_1","GID_0": "TLS","country": "Timor-Leste","GID_1": "TLS.3_1","province": "Ambeno","NL_NAME_1": "NA","county": "OeSilo","VARNAME_2": "Oesilo","NL_NAME_2": "NA","TYPE_2": "Subdistrito","ENGTYPE_2": "Subdistrict","CC_2": "NA","HASC_2": "NA","name": "Oe_Silo.county","area_km2": 98.40798,"hist_schema_id": "Elevation0-9000","hist_area_km2": {"50": 0.02092,"75": 1.94591,"100": 3.13841,"125": 3.66138,"150": 4.24712,"175": 4.8538,"200": 5.87892,"225": 5.60694,"250": 5.6905,"275": 5.60676,"300": 5.98326,"325": 7.07104,"350": 6.61065,"375": 5.02071,"400": 4.24662,"425": 4.24656,"450": 3.7026,"475": 2.67757,"500": 2.92857,"525": 2.67751,"550": 1.96629,"575": 2.25914,"600": 2.2382,"625": 1.71522,"650": 0.9831,"675": 0.56475,"700": 0.60658,"725": 0.56474,"750": 0.50199,"775": 0.33466,"800": 0.50199,"825": 0.18824,"850": 0.16733}}}