{"type": "Feature","bbox": [125.5643,-8.554,125.574,-8.5478],"geometry": {"type": "MultiPolygon","coordinates": [[[[125.5643,-8.554,5.1108],[125.5717,-8.554,5.6062],[125.574,-8.5511,0.0],[125.5714,-8.5508,0.5998],[125.5694,-8.5483,0.0],[125.5648,-8.5478,0.0],[125.5643,-8.554,5.1108]]]]}
,"properties": {"GID_3": "TLS.7.2.17_1","GID_0": "TLS","country": "Timor-Leste","GID_1": "TLS.7_1","province": "Dili","NL_NAME_1": "NA","GID_2": "TLS.7.2_1","county": "DiliBarat","NL_NAME_2": "NA","city": "Motael","VARNAME_3": "20Maio","NL_NAME_3": "NA","TYPE_3": "Suco","ENGTYPE_3": "Community","CC_3": "NA","HASC_3": "NA","name": "Motael.city","area_km2": 0.4822298,"hist_schema_id": "Elevation0-9000","hist_area_km2": {"0": 0.4822298}}}