{"type":"Feature","properties":{"GID_3":"TLS.7.2.13_1","GID_0":"TLS","country":"Timor-Leste","GID_1":"TLS.7_1","province":"Dili","NL_NAME_1":"NA","GID_2":"TLS.7.2_1","county":"DiliBarat","NL_NAME_2":"NA","city":"Loscabubu","VARNAME_3":"Comoro","NL_NAME_3":"NA","TYPE_3":"Suco","ENGTYPE_3":"Community","CC_3":"NA","HASC_3":"NA","name":"Loscabubu.city"},
"geometry":{"type": "MultiPolygon","coordinates": [[[[125.5482,-8.5666,52.7932],[125.5498,-8.5568,14.8408],[125.535,-8.5597,23.7581],[125.5298,-8.5738,36.8704],[125.5297,-8.5785,47.9962],[125.5324,-8.5852,56.3304],[125.5348,-8.583,103.3355],[125.537,-8.575,51.6775],[125.5412,-8.575,44.0444],[125.543,-8.5699,36.7055],[125.5482,-8.5666,52.7932]]]]}}