{"type": "Feature","bbox": [125.3575,-8.8309,125.4761,-8.6999],"geometry": {"type": "MultiPolygon","coordinates": [[[[125.3869,-8.8034,1685.3727],[125.3851,-8.8034,1645.1248],[125.3877,-8.8189,1282.9526],[125.384,-8.8268,1055.3901],[125.3846,-8.8302,996.4305],[125.3871,-8.8309,1010.1024],[125.3949,-8.8304,1064.2771],[125.4001,-8.8248,1086.0234],[125.4041,-8.8231,1135.8103],[125.411,-8.8129,1138.6104],[125.4123,-8.814,1119.0256],[125.4106,-8.8142,1105.678],[125.4128,-8.8151,1129.7513],[125.4144,-8.8127,1141.5586],[125.4134,-8.8116,1126.4194],[125.4189,-8.8101,1133.3264],[125.4213,-8.8044,1195.6041],[125.4199,-8.8003,1258.4636],[125.4141,-8.7994,1394.9636],[125.3981,-8.8052,1520.7922],[125.3891,-8.8027,1686.2555],[125.3869,-8.8034,1685.3727]]],
[[[125.4268,-8.7804,1605.2422],[125.4308,-8.7795,1513.0291],[125.4327,-8.774,1497.4972],[125.4465,-8.7640999999999991,1188.5325],[125.4496,-8.7652,1244.1554],[125.447,-8.7675,1261.7018],[125.4477,-8.7704,1214.0452],[125.4579,-8.7711,1262.1924],[125.4611,-8.7737,1182.7749],[125.4648,-8.7668,1130.4006],[125.464,-8.7655,1071.8663],[125.468,-8.7651,1074.4011],[125.4718,-8.7607,1008.5966],[125.4695,-8.7557,975.5422],[125.4761,-8.7451,896.9463],[125.4736,-8.7425,807.3601],[125.4761,-8.7389,810.9583],[125.4757,-8.7368,786.1627],[125.4649,-8.7298,752.2676],[125.4588,-8.7298,744.939],[125.4538,-8.7244,725.7216],[125.4543,-8.7232,725.7216],[125.4496,-8.7211,717.0134],[125.4464,-8.7232,732.1945],[125.4465,-8.7168,705.8596],[125.4446,-8.7142,703.9053],[125.4411,-8.7146,701.3152],[125.4399,-8.7116,696.3923],[125.433,-8.7112,698.6468],[125.425,-8.7163,675.2053],[125.415,-8.7191,661.7968],[125.4077,-8.7152,651.0041],[125.4034,-8.716,650.496],[125.3914,-8.7141,666.6143],[125.3842,-8.7097,703.8768],[125.3762,-8.709,611.5005],[125.3709,-8.7006,543.6531],[125.3676,-8.701,536.7759],[125.3652,-8.7045,484.1604],[125.3636,-8.7012,506.0922],[125.3575,-8.6999,450.5115],[125.3582,-8.7088,546.2427],[125.3634,-8.7113,548.0412],[125.3692,-8.7196,697.8121],[125.371,-8.7263,759.1149],[125.3691,-8.73,826.1101],[125.3821,-8.7435,1265.7242],[125.3818,-8.7597,1447.5092],[125.3787,-8.7649,1546.7273],[125.3783,-8.7688,1486.4355],[125.3814,-8.7784,1311.3478],[125.3842,-8.78,1339.6963],[125.3856,-8.7834,1337.3325],[125.3994,-8.7893,1381.9741],[125.4065,-8.7875,1439.7743],[125.4096,-8.7911,1508.0913],[125.4127,-8.7908,1559.8657],[125.4142,-8.7885,1571.1191],[125.4177,-8.7884,1574.8126],[125.4205,-8.7842,1597.5391],[125.424,-8.7838,1611.6311],[125.4268,-8.7804,1605.2422]]]]}
,"properties": {"GID_2": "TLS.8.2_1","GID_0": "TLS","country": "Timor-Leste","GID_1": "TLS.8_1","province": "Ermera","NL_NAME_1": "NA","county": "Ermera","VARNAME_2": "ErmeraKota","NL_NAME_2": "NA","TYPE_2": "Subdistrito","ENGTYPE_2": "Subdistrict","CC_2": "NA","HASC_2": "NA","name": "Ermera.county","area_km2": 81.32746,"hist_schema_id": "Elevation0-9000","hist_area_km2": {"425": 0.02096,"450": 0.04192,"475": 0.10479,"500": 0.10479,"525": 0.10479,"550": 0.18862,"575": 0.23054,"600": 0.18862,"625": 0.27245,"650": 0.92213,"675": 2.01189,"700": 3.64654,"725": 3.03874,"750": 2.85009,"775": 2.53572,"800": 2.49382,"825": 2.40998,"850": 2.93386,"875": 2.61953,"900": 2.72429,"925": 2.34706,"950": 2.15847,"975": 2.17941,"1000": 1.96982,"1025": 2.01172,"1050": 2.51464,"1075": 2.49366,"1100": 2.22124,"1125": 2.66122,"1150": 2.80794,"1175": 2.07446,"1200": 1.84396,"1225": 1.78109,"1250": 1.78108,"1275": 1.71823,"1300": 1.88586,"1325": 2.1373,"1350": 2.4097,"1375": 2.66113,"1400": 2.55636,"1425": 1.94871,"1450": 1.44582,"1475": 1.32009,"1500": 1.04769,"1525": 0.6286,"1550": 0.48192,"1575": 0.37715,"1600": 0.16762,"1625": 0.10476,"1650": 0.06286,"1675": 0.0419,"1700": 0.02095,"1725": 0.02095}}}