{"type": "Feature","bbox": [125.5821,-8.604,125.6057,-8.5737],"geometry": {"type": "MultiPolygon","coordinates": [[[[125.6026,-8.6011,707.3542],[125.6042,-8.5979,705.5505],[125.6015,-8.5879,457.3896],[125.6057,-8.5799,358.3391],[125.6043,-8.5759,292.7791],[125.5994,-8.5737,214.1664],[125.6009,-8.576,219.5802],[125.6002,-8.5794,185.0029],[125.59,-8.5822,132.2762],[125.5911,-8.5876,202.6711],[125.5901,-8.5926,423.9371],[125.5821,-8.6008,618.9087],[125.5892,-8.6014,743.3087],[125.5896,-8.604,785.5457],[125.5939,-8.6016,703.943],[125.6026,-8.6011,707.3542]]]]}
,"properties": {"GID_3": "TLS.7.3.5_1","GID_0": "TLS","country": "Timor-Leste","GID_1": "TLS.7_1","province": "Dili","NL_NAME_1": "NA","GID_2": "TLS.7.3_1","county": "DiliTimur","NL_NAME_2": "NA","city": "Balibar","VARNAME_3": "NA","NL_NAME_3": "NA","TYPE_3": "Suco","ENGTYPE_3": "Community","CC_3": "NA","HASC_3": "NA","name": "Balibar.city","area_km2": 3.983219,"hist_schema_id": "Elevation0-9000","hist_area_km2": {"125": 0.020965,"150": 0.04193,"175": 0.062894,"200": 0.125788,"225": 0.062894,"250": 0.335436,"275": 0.209648,"300": 0.146753,"325": 0.188681,"350": 0.188682,"375": 0.314469,"400": 0.146751,"425": 0.125787,"450": 0.14675,"475": 0.14675,"500": 0.083857,"525": 0.167713,"550": 0.188676,"575": 0.083856,"600": 0.146748,"625": 0.209639,"650": 0.167711,"675": 0.209639,"700": 0.314458,"725": 0.083856,"750": 0.020964,"775": 0.020964,"800": 0.020964}}}