{"type": "Feature","bbox": [125.3709,-8.716,125.4085,-8.6847],"geometry": {"type": "MultiPolygon","coordinates": [[[[125.406,-8.7151,650.5842],[125.4085,-8.7067,754.6423],[125.4034,-8.6976,1071.6967],[125.3988,-8.6847,767.1082],[125.3955,-8.6897,867.3558],[125.3797,-8.6914,937.3779],[125.3719,-8.6979,652.0093],[125.3709,-8.7006,543.6531],[125.3762,-8.709,611.5005],[125.3842,-8.7097,703.8768],[125.3914,-8.7141,666.6143],[125.4034,-8.716,650.496],[125.406,-8.7151,650.5842]]]]}
,"properties": {"GID_3": "TLS.8.5.4_1","GID_0": "TLS","country": "Timor-Leste","GID_1": "TLS.8_1","province": "Ermera","NL_NAME_1": "NA","GID_2": "TLS.8.5_1","county": "Railaco","NL_NAME_2": "NA","city": "Matata","VARNAME_3": "NA","NL_NAME_3": "NA","TYPE_3": "Suco","ENGTYPE_3": "Community","CC_3": "NA","HASC_3": "NA","name": "Matata.city","area_km2": 8.529962,"hist_schema_id": "Elevation0-9000","hist_area_km2": {"575": 0.083832,"600": 0.020958,"625": 0.146707,"650": 0.419154,"675": 0.167661,"700": 0.356281,"725": 0.440114,"750": 0.398198,"775": 0.41916,"800": 0.482034,"825": 0.461076,"850": 0.461079,"875": 0.56587,"900": 0.398206,"925": 0.565872,"950": 0.398208,"975": 0.628748,"1000": 0.523959,"1025": 0.523959,"1050": 0.39821,"1075": 0.293419,"1100": 0.14671,"1125": 0.209586,"1150": 0.020959}}}