{"type": "Feature","bbox": [125.7583,-8.7079,125.9793,-8.4742],"geometry": {"type": "MultiPolygon","coordinates": [[[[125.8106,-8.6806,286.2746],[125.8131,-8.6804,297.1016],[125.8154,-8.6777,340.5819],[125.8332,-8.6681,236.2823],[125.8368,-8.6677,230.5887],[125.8383,-8.6644,227.3843],[125.8414,-8.6623,225.7168],[125.8498,-8.6611,218.0798],[125.8533,-8.6672,243.0967],[125.8583,-8.6681,260.1245],[125.8611,-8.6706,312.666],[125.8572,-8.6802,321.2469],[125.8572,-8.6861,341.6392],[125.8598,-8.6916,392.8926],[125.8566,-8.6952,422.552],[125.8549,-8.695,422.552],[125.8547,-8.6982,446.1614],[125.8664,-8.7079,904.3052],[125.8693,-8.6998,729.3934],[125.8757,-8.6925,567.0154],[125.8793,-8.6913,559.4675],[125.8801,-8.684,500.3159],[125.8919,-8.6753,466.3654],[125.8964,-8.6769,460.082],[125.8978,-8.6741,434.7359],[125.8961,-8.672,443.3974],[125.8975,-8.6659,421.7061],[125.9038,-8.6559,375.1088],[125.9033,-8.6513,370.8423],[125.9012,-8.6501,379.3226],[125.9029,-8.6488,385.4166],[125.9014,-8.6469,379.5848],[125.9034,-8.6471,333.6319],[125.9075,-8.6435,306.4589],[125.9163,-8.6432,511.8284],[125.9211,-8.6391,400.3777],[125.9352,-8.6411,282.7845],[125.9355,-8.6355,271.9394],[125.9376,-8.6323,267.6433],[125.9437,-8.6282,257.4143],[125.9516,-8.6283,278.4499],[125.9533,-8.6262,244.6652],[125.9513,-8.623,246.9589],[125.9543,-8.6224,209.942],[125.9553,-8.6194,258.7876],[125.9581,-8.6194,201.6412],[125.9561,-8.6176,201.8244],[125.9583,-8.6164,202.1156],[125.9598,-8.6183,187.2324],[125.9678,-8.6145,168.9668],[125.9682,-8.6066,156.2553],[125.9735,-8.5947,139.7211],[125.9694,-8.5867,127.4481],[125.9713,-8.5822,113.5348],[125.9699,-8.5745,102.2453],[125.9615,-8.5731,196.8899],[125.9643,-8.5678,141.8981],[125.9447,-8.548,60.2126],[125.9417,-8.5465,70.3624],[125.9342,-8.5471,95.9774],[125.9286,-8.5379,219.6076],[125.927,-8.5334,267.8165],[125.9282,-8.5304,365.2109],[125.9253,-8.5292,432.5451],[125.9247,-8.5248,696.66],[125.9272,-8.5172,997.7303],[125.9344,-8.5165,723.1062],[125.9369,-8.5199,653.3228],[125.9439,-8.5214,321.1263],[125.9453,-8.526,217.3636],[125.9493,-8.53,140.3552],[125.9535,-8.5312,117.1174],[125.9546,-8.535,81.7834],[125.9594,-8.537,52.5655],[125.9596,-8.5411,46.4782],[125.9662,-8.5383,43.6345],[125.9743,-8.5238,41.8679],[125.9741,-8.5105,260.2197],[125.9723,-8.5089,298.192],[125.9773,-8.5013,250.1953],[125.9767,-8.4956,129.0892],[125.9793,-8.4912,91.9351],[125.9783,-8.4844,0.0],[125.9742,-8.4878,3.4172],[125.9647,-8.4844,0.0],[125.9572,-8.4849,16.0927],[125.9521,-8.4797,9.2276],[125.9406,-8.4761,0.0],[125.9375,-8.4782,34.4756],[125.9247,-8.4804,6.4678],[125.9177,-8.4784,5.0381],[125.9086,-8.4783,11.5736],[125.9047,-8.475,5.7473],[125.8939,-8.4753,6.8916],[125.89,-8.4775,0.0],[125.8834,-8.4751,0.0],[125.8816,-8.4764,9.9567],[125.8689,-8.4764,10.5791],[125.8506,-8.4742,0.0],[125.8489,-8.4767,2.5302],[125.8348,-8.4858,2.3534],[125.8445,-8.4928,82.0573],[125.8523,-8.5044,385.6249],[125.8602,-8.5093,767.5361],[125.8571,-8.5146,657.8289],[125.8568,-8.5185,622.3353],[125.8585,-8.5226,649.1732],[125.856,-8.5232,714.3118],[125.8471,-8.5326,572.2614],[125.8449,-8.5305,615.1095],[125.8414,-8.5324,610.5966],[125.8361,-8.539,408.0578],[125.8339,-8.5392,411.8568],[125.8291,-8.5349,547.1663],[125.823,-8.5391,512.2306],[125.8157,-8.5407,539.8231],[125.8087,-8.5402,316.425],[125.8057,-8.544,464.1138],[125.8001,-8.5471,429.2947],[125.7943,-8.5462,195.6488],[125.793,-8.5433,180.7283],[125.7848,-8.5421,146.8279],[125.7817,-8.5449,172.0389],[125.7807,-8.5551,331.203],[125.7775,-8.5589,521.3949],[125.7753,-8.5666,754.4128],[125.7732,-8.5688,751.041],[125.7661,-8.571,893.4053],[125.7703,-8.5872,418.5867],[125.7675,-8.5953,602.6935],[125.7655,-8.5975,691.0164],[125.7601,-8.5991,795.8053],[125.7583,-8.6044,868.5867],[125.7641,-8.6114,1014.9031],[125.7668,-8.6124,960.6668],[125.7674,-8.6171,1069.8097],[125.771,-8.6207,952.0308],[125.7737,-8.6229,905.1304],[125.7778,-8.6235,816.7173],[125.7756,-8.6259,896.0624],[125.7741,-8.6356,722.8688],[125.778,-8.6397,630.9305],[125.7812,-8.6485,492.1129],[125.7857,-8.6501,474.8073],[125.7886,-8.6491,472.5776],[125.7866,-8.6577,610.7234],[125.7884,-8.664,867.3587],[125.7916,-8.6652,927.3088],[125.7939,-8.6732,641.6484],[125.8046,-8.6774,350.1853],[125.8085,-8.6767,295.4579],[125.8106,-8.6806,286.2746]]]]}
,"properties": {"GID_2": "TLS.11.2_1","GID_0": "TLS","country": "Timor-Leste","GID_1": "TLS.11_1","province": "Manatuto","NL_NAME_1": "NA","county": "Laclo","VARNAME_2": "NA","NL_NAME_2": "NA","TYPE_2": "Subdistrito","ENGTYPE_2": "Subdistrict","CC_2": "NA","HASC_2": "NA","name": "Laclo.county","area_km2": 368.8141,"hist_schema_id": "Elevation0-9000","hist_area_km2": {"0": 2.2858,"25": 2.6422,"50": 5.1581,"75": 11.3639,"100": 12.7684,"125": 15.7451,"150": 21.1537,"175": 20.7554,"200": 19.0572,"225": 16.9397,"250": 15.514,"275": 14.0463,"300": 13.2704,"325": 12.6832,"350": 11.8866,"375": 12.1171,"400": 11.7399,"425": 11.551,"450": 11.3835,"475": 11.2577,"500": 11.3834,"525": 9.7692,"550": 8.3227,"575": 8.4904,"600": 7.5261,"625": 6.5198,"650": 5.7442,"675": 5.87,"700": 5.0733,"725": 4.4445,"750": 4.2558,"775": 4.2349,"800": 4.0253,"825": 4.5285,"850": 3.6479,"875": 3.1658,"900": 3.082,"925": 2.9772,"950": 2.5998,"975": 2.0128,"1000": 1.9499,"1025": 1.6145,"1050": 1.5097,"1075": 0.8387,"1100": 0.7129,"1125": 0.1887,"1150": 0.2097,"1175": 0.2516,"1200": 0.2097,"1225": 0.0839,"1250": 0.1258,"1275": 0.0419,"1300": 0.021,"1325": 0.0629}}}