{"type":"Feature","properties":{"GID_3":"TLS.4.4.3_1","GID_0":"TLS","country":"Timor-Leste","GID_1":"TLS.4_1","province":"Baucau","NL_NAME_1":"NA","GID_2":"TLS.4.4_1","county":"Quelicai","NL_NAME_2":"NA","city":"Baguia","VARNAME_3":"NA","NL_NAME_3":"NA","TYPE_3":"Suco","ENGTYPE_3":"Community","CC_3":"NA","HASC_3":"NA","name":"Baguia.city"},
"geometry":{"type": "MultiPolygon","coordinates": [[[[126.5684,-8.59,570.8326],[126.569,-8.5798,528.9033],[126.5717,-8.5746,489.3967],[126.5678,-8.5718,310.956],[126.5665,-8.5679,337.371],[126.5621,-8.5659,384.2876],[126.5567,-8.5703,453.8663],[126.5542,-8.5706,445.0107],[126.5543,-8.5751,579.0267],[126.5465,-8.5802,553.7921],[126.547,-8.5897,628.1344],[126.5548,-8.5934,619.8741],[126.5594,-8.6011,672.7635],[126.5632,-8.6031,737.444],[126.5638,-8.6052,767.618],[126.5664,-8.6038,816.1371],[126.5664,-8.6003,726.2957],[126.569,-8.5983,718.7365],[126.567,-8.5924,599.2657],[126.5684,-8.59,570.8326]]]]}}