{"type": "Feature","bbox": [126.7277,-8.7606,126.9542,-8.5696],"geometry": {"type": "MultiPolygon","coordinates": [[[[126.8059,-8.756,6.0059],[126.8116,-8.7565,8.8204],[126.8149,-8.7601,0.0],[126.8217,-8.7606,4.0718],[126.8278,-8.7565,2.6951],[126.8527,-8.7508,0.7941],[126.8665,-8.7436,1.4668],[126.8732,-8.7349,6.5829],[126.8764,-8.7334,0.0],[126.8924,-8.7181,1.5798],[126.9061,-8.7111,10.8503],[126.9161,-8.7106,0.7484],[126.9227,-8.703,0.0],[126.9339,-8.6939,3.2804],[126.9447,-8.6878,12.8852],[126.9508,-8.6872,4.6668],[126.9542,-8.685,0.6704],[126.9513,-8.6763,23.5626],[126.9488,-8.6749,18.327],[126.948,-8.6717,39.8767],[126.9433,-8.6691,36.1909],[126.9419,-8.6634,56.3129],[126.9368,-8.6604,29.1335],[126.937,-8.6562,54.7742],[126.9301,-8.6516,43.2473],[126.9337,-8.6446,100.3038],[126.9331,-8.6399,100.8078],[126.9282,-8.6332,40.5164],[126.9357,-8.6278,56.3431],[126.9351,-8.6246,50.7621],[126.9311,-8.6208,62.4454],[126.9313,-8.618,64.5694],[126.9246,-8.6122,86.2647],[126.9276,-8.6071,129.0593],[126.9242,-8.608,94.8388],[126.9227,-8.6052,127.9668],[126.9175,-8.6031,108.4452],[126.9189,-8.5995,173.2328],[126.9174,-8.5984,154.6299],[126.9149,-8.5983,142.4163],[126.9121,-8.6011,113.8414],[126.9078,-8.6014,221.5088],[126.9047,-8.6041,230.4868],[126.8998,-8.6036,333.2878],[126.8925,-8.599,465.4599],[126.8848,-8.6012,509.5587],[126.8787,-8.5995,449.9561],[126.8764,-8.5965,415.9949],[126.8758,-8.5904,376.5317],[126.874,-8.589,330.9171],[126.8749,-8.5856,329.164],[126.8774,-8.5839,302.712],[126.8776,-8.58,343.3666],[126.8725,-8.5696,248.012],[126.8712,-8.5699,248.012],[126.8718,-8.5725,249.1613],[126.8702,-8.5722,255.1628],[126.8688,-8.5743,268.875],[126.87,-8.5768,266.3093],[126.8626,-8.578,289.5809],[126.8635,-8.5796,278.4773],[126.861,-8.5808,283.5977],[126.8616,-8.584,295.2406],[126.8561,-8.5889,332.7779],[126.8564,-8.5954,323.6201],[126.8529,-8.602,383.6403],[126.8384,-8.6119,277.1725],[126.8326,-8.6131,244.5801],[126.8309,-8.608,242.4518],[126.8265,-8.6028,303.8605],[126.8182,-8.6017,344.7083],[126.8139,-8.5992,271.2817],[126.8089,-8.6003,187.6247],[126.8104,-8.6045,192.0892],[126.8092,-8.6071,175.7079],[126.8122,-8.613,168.683],[126.8084,-8.6166,166.5871],[126.8103,-8.6174,179.8055],[126.8103,-8.6216,152.0017],[126.8063,-8.6199,169.4652],[126.7972,-8.6229,168.2827],[126.7925,-8.6222,147.1389],[126.7867,-8.6234,182.6799],[126.7814,-8.6271,112.7388],[126.7747,-8.6394,94.2032],[126.766,-8.6464,80.7775],[126.7661,-8.6504,80.5018],[126.7638,-8.6531,90.5387],[126.765,-8.6557,73.8758],[126.7596,-8.6577,81.3605],[126.7548,-8.6568,72.2657],[126.7475,-8.6655,78.3005],[126.7456,-8.6734,56.8911],[126.7413,-8.6775,47.462],[126.7417,-8.6799,72.9467],[126.739,-8.6815,41.8097],[126.7364,-8.6863,44.4894],[126.734,-8.6853,36.7279],[126.7296,-8.6878,33.3144],[126.73,-8.696,39.7256],[126.7277,-8.6989,43.4418],[126.7302,-8.7009,40.3841],[126.729,-8.7056,24.327],[126.7308,-8.7101,30.0619],[126.7288,-8.7134,19.7398],[126.7354,-8.7215,33.7957],[126.732,-8.7286,13.1904],[126.7339,-8.7298,18.7187],[126.7373,-8.7288,22.318],[126.7385,-8.7305,25.4982],[126.7384,-8.7374,14.3125],[126.7348,-8.7418,9.9846],[126.7371,-8.746,21.2882],[126.7343,-8.751,3.1837],[126.7359,-8.7564,8.5739],[126.7393,-8.7576,10.1855],[126.75,-8.7514,0.0],[126.7608,-8.7475,4.1438],[126.7712,-8.7473,4.5934],[126.7773,-8.7481,0.0],[126.7822,-8.7542,0.0],[126.7878,-8.7536,0.0],[126.7937,-8.7565,0.0],[126.8003,-8.7547,0.0],[126.8059,-8.756,6.0059]]]]}
,"properties": {"GID_2": "TLS.9.1_1","GID_0": "TLS","country": "Timor-Leste","GID_1": "TLS.9_1","province": "Lautém","NL_NAME_1": "NA","county": "Iliomar","VARNAME_2": "NA","NL_NAME_2": "NA","TYPE_2": "Subdistrito","ENGTYPE_2": "Subdistrict","CC_2": "NA","HASC_2": "NA","name": "Iliomar.county","area_km2": 307.979,"hist_schema_id": "Elevation0-9000","hist_area_km2": {"0": 7.67,"25": 17.4367,"50": 14.8596,"75": 15.5932,"100": 18.2341,"125": 19.3662,"150": 18.4022,"175": 18.8003,"200": 18.4653,"225": 16.2437,"250": 16.7679,"275": 15.7409,"300": 15.3638,"325": 14.7769,"350": 14.0015,"375": 11.8427,"400": 9.7678,"425": 8.6149,"450": 7.0848,"475": 5.4288,"500": 4.3389,"525": 4.0874,"550": 2.9345,"575": 2.5991,"600": 1.572,"625": 1.4672,"650": 1.1738,"675": 0.9851,"700": 1.0061,"725": 1.0899,"750": 0.8384,"775": 0.503,"800": 0.4611,"825": 0.2096,"850": 0.1886,"875": 0.0629}}}