{"type": "Feature","bbox": [125.5914,-8.5818,125.6006,-8.5651],"geometry": {"type": "MultiPolygon","coordinates": [[[[125.5973,-8.5662,35.3731],[125.5921,-8.5651,36.6354],[125.5934,-8.5691,45.9052],[125.5919,-8.5705,55.8016],[125.5914,-8.5818,148.2026],[125.6006,-8.5786,185.0029],[125.6003,-8.5718,167.5333],[125.5973,-8.5662,35.3731]]]]}
,"properties": {"GID_3": "TLS.7.3.14_1","GID_0": "TLS","country": "Timor-Leste","GID_1": "TLS.7_1","province": "Dili","NL_NAME_1": "NA","GID_2": "TLS.7.3_1","county": "DiliTimur","NL_NAME_2": "NA","city": "InurFuik","VARNAME_3": "SantaCruz","NL_NAME_3": "NA","TYPE_3": "Suco","ENGTYPE_3": "Community","CC_3": "NA","HASC_3": "NA","name": "Inur_Fuik.city","area_km2": 1.320811,"hist_schema_id": "Elevation0-9000","hist_area_km2": {"25": 0.020966,"50": 0.377379,"75": 0.167722,"100": 0.209651,"125": 0.104826,"150": 0.12579,"175": 0.209651,"200": 0.08386,"225": 0.020965}}}