{"type": "Feature","bbox": [125.488,-8.678,125.5121,-8.659],"geometry": {"type": "MultiPolygon","coordinates": [[[[125.5121,-8.6768,1035.3755],[125.5085,-8.6666,1013.183],[125.5103,-8.6622,1055.7292],[125.502,-8.659,848.4],[125.4983,-8.6621,703.8705],[125.4921,-8.6629,668.6923],[125.488,-8.6617,580.7937],[125.4988,-8.6764,731.4904],[125.5027,-8.678,782.1589],[125.5121,-8.6768,1035.3755]]]]}
,"properties": {"GID_3": "TLS.8.5.1_1","GID_0": "TLS","country": "Timor-Leste","GID_1": "TLS.8_1","province": "Ermera","NL_NAME_1": "NA","GID_2": "TLS.8.5_1","county": "Railaco","NL_NAME_2": "NA","city": "Deleso","VARNAME_3": "Deleco","NL_NAME_3": "NA","TYPE_3": "Suco","ENGTYPE_3": "Community","CC_3": "NA","HASC_3": "NA","name": "Deleso.city","area_km2": 3.22784,"hist_schema_id": "Elevation0-9000","hist_area_km2": {"600": 0.041921,"650": 0.146721,"675": 0.188642,"700": 0.146721,"725": 0.188639,"750": 0.37728,"775": 0.23056,"800": 0.125759,"825": 0.27248,"850": 0.25152,"875": 0.14672,"900": 0.25152,"925": 0.18864,"950": 0.125761,"975": 0.125759,"1000": 0.08384,"1025": 0.251519,"1050": 0.06288,"1075": 0.02096}}}