{"type":"Feature","properties":{"GID_1":"TLS.2_1","GID_0":"TLS","country":"Timor-Leste","province":"Ainaro","VARNAME_1":"NA","NL_NAME_1":"NA","TYPE_1":"Distrito","ENGTYPE_1":"District","CC_1":"NA","HASC_1":"TP.AN","ISO_1":"TL-AN","name":"Ainaro.province"},
"geometry":{"type": "MultiPolygon","coordinates": [[[[125.6101,-8.9393,1374.3396],[125.6176,-8.9346,1230.0801],[125.615,-8.9332,1247.298],[125.6124,-8.9285,1599.1663],[125.6215,-8.9238,1576.0149],[125.6209,-8.9184,1493.5898],[125.6223,-8.9149,1581.5416],[125.6321,-8.9151,1522.1268],[125.6404,-8.9183,1468.9052],[125.6417,-8.9212,1448.3502],[125.647,-8.9214,1447.262],[125.6506,-8.9194,1277.0576],[125.6541,-8.9128,939.7246],[125.6551,-8.9051,775.1051],[125.6603,-8.8971,673.241],[125.6665,-8.8963,620.3207],[125.6691,-8.8992,612.6817],[125.6719,-8.8992,604.0217],[125.6766,-8.9027,597.3581],[125.682,-8.899,646.6992],[125.6824,-8.896,713.8182],[125.6872,-8.8892,760.7377],[125.6876,-8.8831,882.9996],[125.6856,-8.8795,941.8786],[125.6865,-8.8747,1035.0286],[125.6902,-8.8691,1262.7588],[125.6844,-8.8689,1298.8099],[125.6839,-8.8671,1231.1509],[125.6856,-8.8637,1067.0573],[125.6839,-8.862,1071.324],[125.6858,-8.8574,1222.8822],[125.6857,-8.8515,1188.7556],[125.69,-8.849,1064.9103],[125.6893,-8.8472,1061.6384],[125.6826,-8.8464,1195.7791],[125.6828,-8.8441,1194.4196],[125.6889,-8.8409,1090.6233],[125.6833,-8.8376,1244.1523],[125.6836,-8.8299,1199.9281],[125.6854,-8.8281,1143.2493],[125.6802,-8.8186,1473.587],[125.683,-8.8171,1461.1058],[125.6851,-8.8134,1393.5195],[125.6824,-8.8099,1150.9495],[125.6888,-8.8027,1054.1886],[125.6892,-8.7986,953.7111],[125.6984,-8.7961,863.9855],[125.7084,-8.7862,826.9365],[125.7183,-8.7855,665.3799],[125.7198,-8.783,667.8872],[125.7231,-8.7826,588.7612],[125.7252,-8.7774,636.5897],[125.7221,-8.773,644.9147],[125.7189,-8.7727,661.6854],[125.7182,-8.7702,665.1866],[125.7152,-8.77,669.4197],[125.7141,-8.7676,666.1547],[125.7101,-8.7664,685.3164],[125.7065,-8.7623,686.616],[125.7023,-8.7619,708.366],[125.7009,-8.7647,749.5927],[125.6964,-8.7640999999999991,802.3509],[125.6937,-8.7606,782.6029],[125.6915,-8.7614,792.8154],[125.6894,-8.7593,749.1409],[125.6841,-8.7608,735.572],[125.6867,-8.7558,770.6974],[125.6812,-8.7558,779.849],[125.6769,-8.757,758.6077],[125.6757,-8.7591,764.0241],[125.6744,-8.7581,757.6024],[125.6717,-8.7637,773.476],[125.6715,-8.7591,773.6097],[125.67,-8.7608,773.0947],[125.6652,-8.761,843.9506],[125.6636,-8.7632,795.3659],[125.6604,-8.764,806.04],[125.6585,-8.7626,801.5414],[125.6506,-8.7657,822.2781],[125.6451,-8.7741,839.2287],[125.6467,-8.7767,864.3234],[125.6462,-8.7828,894.639],[125.6443,-8.7847,893.8901],[125.645,-8.7881,886.4653],[125.6429,-8.788,877.61],[125.6426,-8.79,890.6557],[125.6385,-8.7879,904.085],[125.6354,-8.7883,897.1486],[125.6353,-8.7859,911.6301],[125.6321,-8.7879,905.2104],[125.6295,-8.786,937.7462],[125.6274,-8.7883,915.619],[125.624,-8.7854,916.7383],[125.6133,-8.7886,937.4572],[125.6083,-8.788,946.46489999999994],[125.6068,-8.7895,952.7867],[125.6053,-8.7953,1009.0361],[125.6089,-8.8028,1095.8079],[125.6076,-8.8037,1130.7697],[125.6072,-8.8104,1263.9612],[125.6103,-8.817,1424.2295],[125.6093,-8.8197,1545.8588],[125.6057,-8.8219,1590.5842],[125.5975,-8.8244,1638.1697],[125.5937,-8.8232,1733.6865],[125.5835,-8.8251,1797.5],[125.5771,-8.8314,1763.3232],[125.5693,-8.8331,1923.9983],[125.565,-8.836,1835.3826],[125.5659,-8.8385,1816.4077],[125.5623,-8.8405,1931.4158],[125.5572,-8.8408,1943.9623],[125.5522,-8.837,1986.7412],[125.548,-8.8361,1992.2495],[125.5424,-8.8386,1815.8081],[125.534,-8.8457,1803.4636],[125.5181,-8.8462,2067.0474],[125.5129,-8.8448,2291.9531],[125.5099,-8.8462,2303.2893],[125.5074,-8.8487,2284.9404],[125.5076,-8.8506,2277.4199],[125.5169,-8.8638,2201.946],[125.5206,-8.8667,2276.8867],[125.5218,-8.8733,2309.7566],[125.5176,-8.8779,2259.4138],[125.5041,-8.8832,2295.8198],[125.4996,-8.8926,2493.0586],[125.4921,-8.8967,2569.2542],[125.4944,-8.9118,2764.0642],[125.4912,-8.9159,2725.5732],[125.4872,-8.9173,2761.5],[125.4809,-8.9226,2598.2002],[125.4796,-8.9255,2659.6851],[125.4806,-8.9299,2680.2458],[125.4727,-8.9362,2618.5002],[125.4728,-8.9383,2494.2434],[125.4653,-8.9397,2377.676],[125.4575,-8.9467,2464.6599],[125.4519,-8.9545,2507.6489],[125.4565,-8.9644,2283.1943],[125.4508,-8.9702,2173.356],[125.451,-8.974,2204.6824],[125.4293,-8.9855,2386.887],[125.42529999999999,-8.9917,2313.4695],[125.4244,-8.9983,2199.8975],[125.4262,-9.0039,1941.5173],[125.4296,-9.0071,1745.7853],[125.4344,-9.0074,1562.2524],[125.4411,-9.0108,1205.6194],[125.4433,-9.0143,1073.2301],[125.4434,-9.0184,938.5143],[125.4477,-9.0218,855.7516],[125.45,-9.0262,847.1017],[125.4501,-9.029,783.5391],[125.4454,-9.0385,631.5219],[125.4489,-9.042,543.6838],[125.4471,-9.0483,537.5688],[125.4488,-9.0506,450.0687],[125.4451,-9.0554,443.5606],[125.4442,-9.0618,399.6809],[125.4637,-9.0655,306.4365],[125.4668,-9.0682,291.287],[125.468,-9.072,281.6527],[125.4757,-9.0774,268.9968],[125.4765,-9.0822,253.6238],[125.4744,-9.0873,239.0104],[125.4797,-9.0965,226.2541],[125.4811,-9.1055,198.7406],[125.4775,-9.1172,174.0669],[125.4736,-9.1242,160.4326],[125.4739,-9.1274,154.2733],[125.4812,-9.132,319.5366],[125.4857,-9.1321,191.9633],[125.488,-9.1359,174.5208],[125.4941,-9.1385,129.6277],[125.4946,-9.1428,110.3303],[125.4966,-9.1437,114.5369],[125.5209,-9.1421,285.2321],[125.525,-9.1468,257.8378],[125.5251,-9.1519,282.2457],[125.5298,-9.1593,148.5718],[125.54,-9.163,64.5238],[125.5321,-9.186,34.3643],[125.5277,-9.1942,25.7298],[125.5218,-9.1951,20.8607],[125.5171,-9.1994,15.4646],[125.5141,-9.207,11.7477],[125.506,-9.2162,7.1892],[125.5049,-9.2197,12.347],[125.5079,-9.2213,9.8587],[125.5023,-9.2261,3.6111],[125.5111,-9.2242,1.9942],[125.5161,-9.2214,5.2408],[125.546,-9.2194,0.0],[125.5594,-9.21,0.0],[125.5611,-9.2067,0.6556],[125.5625,-9.2072,0.0],[125.5861,-9.1908,6.9657],[125.6011,-9.1862,8.2058],[125.6144,-9.1853,4.5951],[125.6264,-9.1875,6.1561],[125.6603,-9.2011,2.91],[125.6836,-9.2014,0.0],[125.6922,-9.1967,0.0],[125.7016,-9.1942,0.0],[125.6979,-9.1914,6.7183],[125.6966,-9.1865,7.2063],[125.6911,-9.1798,13.5474],[125.6758,-9.1718,23.3821],[125.6672,-9.136,51.264],[125.6706,-9.1297,59.5351],[125.6699,-9.1243,59.4031],[125.6723,-9.121,80.9678],[125.6759,-9.1192,70.5153],[125.6853,-9.119,69.9021],[125.6891,-9.1165,73.5112],[125.6917,-9.1075,92.4178],[125.6911,-9.094,95.028],[125.6866,-9.0916,98.8596],[125.6839,-9.0838,107.9254],[125.6784,-9.0801,116.3498],[125.6739,-9.0794,131.5265],[125.6732,-9.0762,126.9569],[125.6701,-9.073,130.5876],[125.6664,-9.0718,133.9994],[125.6614,-9.0744,141.6472],[125.6568,-9.0739,147.9848],[125.6524,-9.0753,155.1198],[125.6435,-9.0673,172.2967],[125.6344,-9.0685,182.9044],[125.6332,-9.0643,203.4405],[125.6281,-9.0649,205.7926],[125.6293,-9.0608,206.2834],[125.6278,-9.0562,233.7876],[125.6119,-9.0503,250.6239],[125.6088,-9.0511,274.6616],[125.5958,-9.0417,353.5392],[125.5961,-9.0308,419.9633],[125.5923,-9.0241,441.169],[125.5933,-9.016,507.7411],[125.586,-9.0103,564.7725],[125.5894,-9.0056,694.5847],[125.5921,-8.9846,1023.5433],[125.5943,-8.9808,1146.2628],[125.5943,-8.9761,1250.4304],[125.5921,-8.9718,1364.6075],[125.5943,-8.9677,1488.0079],[125.5937,-8.9619,1741.0156],[125.5973,-8.9534,2417.3943],[125.6079,-8.9467,1954.3179],[125.6062,-8.9439,1744.522],[125.6068,-8.9417,1580.3621],[125.6078,-8.9395,1416.3597],[125.6101,-8.9393,1374.3396]]]]}}