{"type": "Feature","id": "545","bbox": [125.41062,-9.2408,125.69138,-8.76799],"geometry": {"type": "Polygon","coordinates": [[[125.68828,-8.7946,1038.6187],[125.69138,-8.77089,921.3492],[125.67443,-8.76799,1068.84],[125.64508,-8.77254,842.076],[125.63267,-8.78081,1040.2847],[125.62027,-8.78908,974.5986],[125.59877,-8.79383,1022.155],[125.59216,-8.81223,1601.8672],[125.5719,-8.83662,1860.051],[125.53924,-8.84861,1959.7598],[125.49232,-8.85501,1843.6981],[125.48798,-8.85563,1799.7959],[125.49273,-8.86452,1769.4426],[125.48963,-8.88995,2059.4006],[125.47165,-8.90586,2098.8618],[125.46483,-8.92302,2216.6768],[125.45284,-8.93625,2172.7078],[125.44333,-8.94948,2269.2446],[125.44271,-8.97366,2158.428],[125.4131,-8.98219,1906.821],[125.41232,-9.00922,1973.4189],[125.41062,-9.03413,1139.2031],[125.41191,-9.03382,1139.2031],[125.42493,-9.0487,677.3065],[125.43175,-9.06358,472.2932],[125.44602,-9.06999,364.898],[125.45656,-9.095,494.2444],[125.45987,-9.13407,166.7392],[125.4731,-9.14957,280.2839],[125.49521,-9.15515,93.4352],[125.51113,-9.16445,237.7878],[125.49521,-9.21344,5.6676],[125.48801,-9.2408,0.0],[125.55209,-9.21722,0.0],[125.5726,-9.20574,0.0],[125.59303,-9.18963,0.0],[125.60939,-9.18621,2.3344],[125.66017,-9.19354,5.7224],[125.6701,-9.19327,7.0886],[125.67009,-9.19324,7.0886],[125.6674,-9.18636,12.5425],[125.65996,-9.14957,58.2894],[125.66719,-9.13179,53.93],[125.67319,-9.1165,120.4472],[125.66471,-9.09397,268.5055],[125.65004,-9.08012,202.4416],[125.62523,-9.06834,271.5153],[125.59547,-9.05531,366.0497],[125.58162,-9.03216,600.9974],[125.57893,-8.99909,869.7291],[125.58079,-8.98007,1414.3054],[125.58885,-8.96602,1595.4698],[125.59712,-8.947,2167.7937],[125.60043,-8.92798,1310.1509],[125.62358,-8.91599,1581.5416],[125.65665,-8.91641,1154.582],[125.67195,-8.90669,715.0302],[125.67484,-8.87837,991.5345],[125.67546,-8.85998,1267.4966],[125.6798,-8.83538,1258.3169],[125.68807,-8.79631,997.7849],[125.68828,-8.7946,1038.6187]]]}
,"properties": {"ISO3166-1-Alpha-3": "TLS","country": "East Timor","fill": "#FF0","name": "Ainaro","area_km2": 852.2418,"hist_schema_id": "Elevation0-9000","hist_area_km2": {"0": 28.1705,"25": 24.2161,"50": 9.0422,"75": 9.1053,"100": 10.5078,"125": 10.6755,"150": 13.8576,"175": 14.5905,"200": 18.5684,"225": 23.0069,"250": 24.1588,"275": 27.9484,"300": 28.3675,"325": 26.2741,"350": 24.6621,"375": 21.3543,"400": 16.2462,"425": 13.8808,"450": 10.6151,"475": 10.0291,"500": 7.1819,"525": 5.9885,"550": 6.0095,"575": 5.3185,"600": 5.1092,"625": 4.7952,"650": 4.6069,"675": 4.6488,"700": 4.607,"725": 5.0887,"750": 4.6281,"775": 4.712,"800": 5.9265,"825": 5.5916,"850": 6.4923,"875": 6.5342,"900": 6.8488,"925": 6.8278,"950": 7.3306,"975": 8.1266,"1000": 8.5037,"1025": 8.1478,"1050": 7.8545,"1075": 6.954,"1100": 7.6034,"1125": 7.3729,"1150": 7.729,"1175": 7.4987,"1200": 7.4151,"1225": 7.7712,"1250": 7.7293,"1275": 8.798,"1300": 10.2017,"1325": 10.034,"1350": 9.4684,"1375": 10.076,"1400": 9.9084,"1425": 9.343,"1450": 9.9296,"1475": 9.6782,"1500": 8.6725,"1525": 7.7718,"1550": 7.6041,"1575": 7.1432,"1600": 6.1376,"1625": 5.3834,"1650": 4.6921,"1675": 4.7549,"1700": 4.5454,"1725": 4.5244,"1750": 4.4617,"1775": 4.3988,"1800": 4.4198,"1825": 4.6293,"1850": 5.0901,"1875": 5.4881,"1900": 5.1739,"1925": 6.2003,"1950": 5.7604,"1975": 5.2786,"2000": 5.2367,"2025": 5.5509,"2050": 6.0326,"2075": 5.6136,"2100": 5.8021,"2125": 5.9698,"2150": 5.0481,"2175": 4.8177,"2200": 5.1318,"2225": 4.4406,"2250": 3.8331,"2275": 3.9169,"2300": 3.7073,"2325": 2.6391,"2350": 2.283,"2375": 2.1155,"2400": 1.4661,"2425": 1.529,"2450": 1.4034,"2475": 1.4662,"2500": 1.1729,"2525": 1.0892,"2550": 0.9844,"2575": 0.9426,"2600": 0.7331,"2625": 0.5865,"2650": 0.5865,"2675": 0.5027,"2700": 0.3142,"2725": 0.398,"2750": 0.3561,"2775": 0.3142,"2800": 0.1676,"2825": 0.0838,"2850": 0.0838,"2875": 0.0628,"2900": 0.0419,"2950": 0.0209}}}