{"type":"Feature","properties":{"GID_2":"TLS.9.3_1","GID_0":"TLS","country":"Timor-Leste","GID_1":"TLS.9_1","province":"Lautém","NL_NAME_1":"NA","county":"LosPalos","VARNAME_2":"Lospalos","NL_NAME_2":"NA","TYPE_2":"Subdistrito","ENGTYPE_2":"Subdistrict","CC_2":"NA","HASC_2":"NA","name":"Los_Palos.county"},
"geometry":{"type": "MultiPolygon","coordinates": [[[[126.9316,-8.6487,44.4203],[126.9301,-8.6516,43.2473],[126.937,-8.6562,54.7742],[126.9368,-8.6604,29.1335],[126.9419,-8.6634,56.3129],[126.9433,-8.6691,36.1909],[126.948,-8.6717,39.8767],[126.9546,-8.6838,0.0],[126.9642,-8.6806,6.9214],[126.9777,-8.6792,9.6579],[126.9819,-8.6811,14.0673],[126.9885,-8.6797,0.0],[126.9961,-8.6825,5.949],[127.0025,-8.6819,2.3138],[127.0128,-8.6864,0.0],[127.0192,-8.6806,0.0],[127.0256,-8.6658,0.0],[127.0319,-8.6589,3.1762],[127.0511,-8.6442,2.3671],[127.0619,-8.6275,1.5527],[127.065,-8.6258,0.0],[127.07,-8.6178,1.6679],[127.085,-8.6031,3.1159],[127.0869,-8.5986,13.7877],[127.1008,-8.5883,0.0],[127.1097,-8.5767,9.4239],[127.1272,-8.5658,2.8779],[127.1325,-8.5586,3.0828],[127.1354,-8.5581,0.0],[127.135,-8.5509,158.424],[127.1327,-8.5492,155.8473],[127.1312,-8.5443,42.5829],[127.1332,-8.5433,57.7],[127.1356,-8.5379,87.2884],[127.1409,-8.5353,110.6484],[127.1422,-8.5331,117.8479],[127.1383,-8.5286,199.8299],[127.14,-8.5007,458.2298],[127.1256,-8.4895,367.7508],[127.1181,-8.4778,335.0],[127.1191,-8.4729,335.0],[127.1152,-8.4704,335.0],[127.1125,-8.4659,335.0],[127.1126,-8.4436,335.0],[127.1171,-8.4371,335.0],[127.1076,-8.4325,345.4581],[127.1039,-8.4158,395.3183],[127.1058,-8.4028,502.9366],[127.1107,-8.3941,474.6276],[127.1047,-8.3936,502.5814],[127.0898,-8.4031,441.6429],[127.0745,-8.4034,465.9144],[127.067,-8.4063,454.9332],[127.0528,-8.4085,470.6474],[127.031,-8.4026,498.2305],[127.0221,-8.4065,457.0771],[127.0096,-8.4057,455.4158],[127.0029,-8.4014,481.2687],[126.9918,-8.4026,534.9176],[126.983,-8.4057,558.1146],[126.9615,-8.419,582.7513],[126.9484,-8.429,556.7426],[126.9173,-8.4448,53.0355],[126.9173,-8.4508,63.6297],[126.9139,-8.4486,69.0534],[126.9117,-8.449,81.3904],[126.9117,-8.454,69.2798],[126.9148,-8.4558,77.3431],[126.9133,-8.4592,73.8921],[126.9165,-8.4592,104.0367],[126.915,-8.4618,72.2],[126.9185,-8.4625,80.3823],[126.9158,-8.464,75.806],[126.9138,-8.4623,73.0806],[126.9123,-8.4646,97.7336],[126.914,-8.4686,86.398],[126.9128,-8.4709,80.7428],[126.9143,-8.4716,82.9275],[126.914,-8.4762,85.8287],[126.9155,-8.4779,98.8871],[126.9096,-8.4843,101.172],[126.9118,-8.4869,101.1241],[126.9143,-8.4863,108.17],[126.9141,-8.4887,100.9297],[126.9117,-8.4899,106.0272],[126.9078,-8.4887,114.1353],[126.909,-8.4945,126.5968],[126.9045,-8.5003,117.3157],[126.9007,-8.5018,146.6894],[126.9009,-8.5051,128.1377],[126.8845,-8.5138,182.2272],[126.8848,-8.5154,155.1686],[126.8868,-8.5159,141.9552],[126.8824,-8.5219,150.1246],[126.8894,-8.5232,186.459],[126.8898,-8.5247,172.6134],[126.8839,-8.5304,179.337],[126.8854,-8.5333,171.0807],[126.882,-8.5375,192.9695],[126.8813,-8.5422,199.3223],[126.8841,-8.5457,229.8569],[126.8839,-8.5478,219.8213],[126.8781,-8.5554,219.1939],[126.8782,-8.5603,235.7676],[126.8746,-8.5611,269.6223],[126.8747,-8.5653,241.0411],[126.8726,-8.5668,262.4691],[126.8725,-8.5696,248.012],[126.8776,-8.5805,343.3666],[126.8774,-8.5839,302.712],[126.8749,-8.5856,329.164],[126.874,-8.589,330.9171],[126.8758,-8.5904,376.5317],[126.8766,-8.5972,415.9949],[126.8803,-8.6001,482.6298],[126.8848,-8.6012,509.5587],[126.8925,-8.599,465.4599],[126.8998,-8.6036,333.2878],[126.9047,-8.6041,230.4868],[126.9078,-8.6014,221.5088],[126.9121,-8.6011,113.8414],[126.9149,-8.5983,142.4163],[126.9174,-8.5984,154.6299],[126.9189,-8.5995,173.2328],[126.9175,-8.6031,108.4452],[126.9227,-8.6052,127.9668],[126.9242,-8.608,94.8388],[126.9276,-8.6071,129.0593],[126.9246,-8.6122,86.2647],[126.9313,-8.618,64.5694],[126.9311,-8.6208,62.4454],[126.9351,-8.6246,50.7621],[126.9357,-8.6278,56.3431],[126.9282,-8.6332,40.5164],[126.9331,-8.6399,100.8078],[126.9337,-8.6446,100.3038],[126.9316,-8.6487,44.4203]]]]}}