{"type":"Feature","properties":{"GID_2":"TLS.6.5_1","GID_0":"TLS","country":"Timor-Leste","GID_1":"TLS.6_1","province":"Covalima","NL_NAME_1":"NA","county":"SuaiKota","VARNAME_2":"NA","NL_NAME_2":"NA","TYPE_2":"Subdistrito","ENGTYPE_2":"Subdistrict","CC_2":"NA","HASC_2":"NA","name":"Suai_Kota.county"},
"geometry":{"type": "MultiPolygon","coordinates": [[[[125.2897,-9.3361,0.0],[125.2983,-9.3256,0.8407],[125.3139,-9.3125,6.3608],[125.32,-9.3106,0.0],[125.3308,-9.3027,5.8744],[125.3378,-9.3008,1.343],[125.3716,-9.2736,0.0],[125.3925,-9.2639,1.9998],[125.4111,-9.2617,0.0],[125.4156,-9.2581,0.0],[125.4172,-9.2586,0.2252],[125.4167,-9.2606,0.0],[125.4272,-9.2614,1.2555],[125.4305,-9.2588,1.8328],[125.4346,-9.2506,8.484],[125.4336,-9.2443,7.568],[125.428,-9.237,16.1432],[125.4289,-9.2331,8.6529],[125.4256,-9.2289,12.2657],[125.4263,-9.2259,13.2254],[125.4199,-9.2153,25.0242],[125.4133,-9.2136,41.1403],[125.3965,-9.1855,64.188],[125.3935,-9.1767,118.5776],[125.3952,-9.1688,90.1219],[125.3925,-9.1594,104.2277],[125.3855,-9.1535,114.8665],[125.3779,-9.1565,128.4883],[125.3679,-9.143,156.3423],[125.3604,-9.1385,197.5966],[125.3605,-9.1304,177.1335],[125.3572,-9.1279,193.4508],[125.3421,-9.1253,241.5098],[125.3385,-9.1284,283.9519],[125.3314,-9.1283,317.0641],[125.329,-9.13,359.59],[125.3262,-9.137,527.6892],[125.3201,-9.1405,655.2834],[125.3171,-9.1449,938.5599],[125.3169,-9.156,527.384],[125.3211,-9.1571,524.7508],[125.3292,-9.1632,470.1073],[125.3406,-9.1655,265.9309],[125.3527,-9.1725,201.1658],[125.3452,-9.1812,443.7347],[125.3459,-9.1875,301.1827],[125.3357,-9.1978,355.1557],[125.327,-9.1948,213.0567],[125.3238,-9.1956,192.1747],[125.3215,-9.1983,161.2226],[125.3197,-9.1951,164.5583],[125.3113,-9.1992,250.9337],[125.3034,-9.2053,415.8124],[125.2969,-9.2022,619.4009],[125.2859,-9.2008,543.4258],[125.2806,-9.2049,418.5775],[125.2785,-9.2107,288.6146],[125.2672,-9.2039,597.736],[125.2588,-9.2077,391.1043],[125.2546,-9.2122,298.2256],[125.2511,-9.2135,253.1559],[125.246,-9.2075,264.4244],[125.242,-9.2088,314.3369],[125.2414,-9.2118,355.2131],[125.2382,-9.2083,330.9554],[125.2347,-9.2088,310.1113],[125.2263,-9.2049,392.7602],[125.2254,-9.2,340.2641],[125.2281,-9.1942,374.1442],[125.2278,-9.1913,379.4257],[125.2318,-9.1861,415.207],[125.2296,-9.1796,438.1801],[125.2243,-9.1754,484.5231],[125.2115,-9.1706,554.5018],[125.1948,-9.1684,757.8975],[125.1836,-9.1628,982.6739],[125.1794,-9.1663,806.0922],[125.1747,-9.1737,588.1726],[125.1747,-9.175,600.3988],[125.1826,-9.1793,549.1498],[125.1834,-9.1814,589.6035],[125.1871,-9.1821,523.0453],[125.1894,-9.1875,518.8896],[125.1986,-9.1956,469.6683],[125.1969,-9.1998,454.0082],[125.1988,-9.2027,431.7074],[125.1965,-9.2058,428.9996],[125.1966,-9.2097,485.8376],[125.1916,-9.2176,433.6064],[125.1911,-9.2245,341.9379],[125.193,-9.2265,313.7391],[125.1927,-9.2293,315.9381],[125.1872,-9.2381,299.6081],[125.1823,-9.2387,282.9071],[125.1811,-9.2468,276.7404],[125.183,-9.2511,242.789],[125.1907,-9.2555,228.0831],[125.1934,-9.2592,231.1554],[125.1805,-9.276,180.2838],[125.1739,-9.2791,167.5503],[125.1747,-9.2859,166.3129],[125.1727,-9.2915,159.1216],[125.1644,-9.297,132.9234],[125.1592,-9.3029,133.9162],[125.1509,-9.3211,102.4213],[125.1507,-9.3278,91.0922],[125.1538,-9.3331,97.9648],[125.162,-9.3372,86.8794],[125.1704,-9.3371,75.5231],[125.174,-9.3394,83.2129],[125.1823,-9.3409,57.6684],[125.1854,-9.3508,49.9278],[125.1911,-9.3551,43.6052],[125.215,-9.3574,24.2561],[125.2257,-9.3518,19.5983],[125.2339,-9.3448,13.4517],[125.2432,-9.3511,10.884],[125.2472,-9.3581,5.0115],[125.2455,-9.3626,7.9213],[125.2386,-9.3699,10.0362],[125.2412,-9.3718,8.0953],[125.2473,-9.3724,4.5088],[125.2464,-9.3744,4.5377],[125.252,-9.37,1.1176],[125.2558,-9.3614,2.2111],[125.2625,-9.3536,0.0],[125.2706,-9.351,2.2306],[125.2761,-9.3542,0.0],[125.2828,-9.3489,0.0],[125.2869,-9.3433,0.0],[125.2897,-9.3361,0.0]]]]}}