{"type": "Feature","bbox": [125.6239,-8.7015,125.6663,-8.6782],"geometry": {"type": "MultiPolygon","coordinates": [[[[125.6268,-8.6983,1262.3329],[125.6298,-8.699,1270.8489],[125.636,-8.6964,1231.6182],[125.6443,-8.6987,1022.0325],[125.6475,-8.7013,956.1974],[125.653,-8.7015,914.1058],[125.6639,-8.6987,830.1892],[125.6663,-8.6953,796.1611],[125.6638,-8.6924,838.4296],[125.6631,-8.6883,852.7828],[125.6596,-8.6858,893.9085],[125.6502,-8.6809,947.2166],[125.6386,-8.6797,1026.4968],[125.6366,-8.6782,1049.5542],[125.6268,-8.6816,1306.2452],[125.627,-8.6857,1265.407],[125.6239,-8.6887,1173.7627],[125.6262,-8.6918,1233.4607],[125.6268,-8.6983,1262.3329]]]]}
,"properties": {"GID_3": "TLS.1.3.4_1","GID_0": "TLS","country": "Timor-Leste","GID_1": "TLS.1_1","province": "Aileu","NL_NAME_1": "NA","GID_2": "TLS.1.3_1","county": "Lequidoe","NL_NAME_2": "NA","city": "Fahisoi","VARNAME_3": "FahiSoi","NL_NAME_3": "NA","TYPE_3": "Suco","ENGTYPE_3": "Community","CC_3": "NA","HASC_3": "NA","name": "Fahisoi.city","area_km2": 8.090094,"hist_schema_id": "Elevation0-9000","hist_area_km2": {"825": 0.104793,"850": 0.230545,"875": 0.251503,"900": 0.251505,"925": 0.33534,"950": 0.398217,"975": 0.419177,"1000": 0.461096,"1025": 0.419174,"1050": 0.586849,"1075": 0.482053,"1100": 0.482051,"1125": 0.440136,"1150": 0.461095,"1175": 0.419176,"1200": 0.419177,"1225": 0.251506,"1250": 0.461096,"1275": 0.419175,"1300": 0.419175,"1325": 0.31438,"1350": 0.062876}}}