{"type":"Feature","properties":{"GID_3":"TLS.8.3.10_1","GID_0":"TLS","country":"Timor-Leste","GID_1":"TLS.8_1","province":"Ermera","NL_NAME_1":"NA","GID_2":"TLS.8.3_1","county":"Hatólia","NL_NAME_2":"NA","city":"Manusae","VARNAME_3":"NA","NL_NAME_3":"NA","TYPE_3":"Suco","ENGTYPE_3":"Community","CC_3":"NA","HASC_3":"NA","name":"Manusae.city"},
"geometry":{"type": "MultiPolygon","coordinates": [[[[125.3802,-8.7615,1465.3092],[125.3743,-8.7629,1408.1129],[125.3663,-8.7673,1269.4625],[125.3641,-8.7665,1261.3666],[125.3583,-8.7707,1207.295],[125.356,-8.77,1198.6162],[125.3553,-8.7718,1203.2507],[125.3314,-8.7737,834.0157],[125.3283,-8.7786,738.4946],[125.3226,-8.7806,553.5527],[125.3264,-8.7831,646.3632],[125.3272,-8.7931,1162.3777],[125.314,-8.7956,803.4706],[125.3157,-8.8039,757.6188],[125.3179,-8.8052,738.3646],[125.3278,-8.8011,988.265],[125.3308,-8.8018,996.9172],[125.332,-8.7996,1040.4089],[125.3348,-8.7988,1062.7188],[125.3344,-8.8028,1014.4012],[125.3297,-8.8088,832.4171],[125.3319,-8.8097,833.4246],[125.3446,-8.8039,1159.8073],[125.3542,-8.8021,1263.4297],[125.3593,-8.8034,1364.7031],[125.3608,-8.8057,1381.376],[125.3668,-8.8024,1383.3892],[125.3742,-8.7911,1279.4954],[125.374,-8.7814,1335.7549],[125.3821,-8.7785,1311.3478],[125.3783,-8.7688,1486.4355],[125.3802,-8.7615,1465.3092]]]]}}