{"type":"Feature","properties":{"GID_3":"TLS.2.4.3_1","GID_0":"TLS","country":"Timor-Leste","GID_1":"TLS.2_1","province":"Ainaro","NL_NAME_1":"NA","GID_2":"TLS.2.4_1","county":"Maubisse","NL_NAME_2":"NA","city":"Fatubesi","VARNAME_3":"Fatubesse","NL_NAME_3":"NA","TYPE_3":"Suco","ENGTYPE_3":"Community","CC_3":"NA","HASC_3":"NA","name":"Fatubesi.city"},
"geometry":{"type": "MultiPolygon","coordinates": [[[[125.6083,-8.788,946.46489999999994],[125.606,-8.7905,965.6034],[125.6052,-8.7949,1009.0361],[125.6089,-8.8028,1095.8079],[125.6071,-8.8084,1236.4841],[125.6099,-8.8142,1333.8447],[125.6093,-8.8197,1545.8588],[125.6203,-8.8245,1564.8792],[125.6219,-8.8244,1564.8792],[125.6272,-8.8182,1417.9685],[125.6356,-8.815,1386.8446],[125.6363,-8.8121,1390.8885],[125.6416,-8.8087,1450.1271],[125.6483,-8.8003,1201.0549],[125.6483,-8.7981,1084.3258],[125.6425,-8.7924,908.7036],[125.6426,-8.79,890.6557],[125.6385,-8.7879,904.085],[125.6354,-8.7883,897.1486],[125.6353,-8.7859,911.6301],[125.6321,-8.7879,905.2104],[125.6295,-8.786,937.7462],[125.6265,-8.7881,915.619],[125.624,-8.7854,916.7383],[125.6133,-8.7886,937.4572],[125.6083,-8.788,946.46489999999994]]]]}}