{"type":"Feature","properties":{"GID_2":"TLS.4.5_1","GID_0":"TLS","country":"Timor-Leste","GID_1":"TLS.4_1","province":"Baucau","NL_NAME_1":"NA","county":"Vemasse","VARNAME_2":"NA","NL_NAME_2":"NA","TYPE_2":"Subdistrito","ENGTYPE_2":"Subdistrict","CC_2":"NA","HASC_2":"NA","name":"Vemasse.county"},
"geometry":{"type": "MultiPolygon","coordinates": [[[[126.3331,-8.6389,435.2959],[126.3468,-8.6227,490.5475],[126.3526,-8.6195,534.0115],[126.3622,-8.6174,650.2495],[126.3652,-8.6126,704.1097],[126.3726,-8.6069,797.3578],[126.3575,-8.5831,753.3239],[126.3472,-8.5765,746.0316],[126.347,-8.5746,736.5461],[126.3431,-8.5716,739.5376],[126.3414,-8.5653,750.2339],[126.3453,-8.5593,737.5741],[126.3429,-8.5538,730.2942],[126.3445,-8.5469,711.9778],[126.3432,-8.5444,708.3422],[126.3448,-8.5426,704.0565],[126.3404,-8.5242,636.8281],[126.3327,-8.5084,471.5453],[126.328,-8.5063,406.752],[126.3155,-8.4951,213.3731],[126.3153,-8.4874,174.3923],[126.3102,-8.4741,68.0942],[126.3011,-8.4729,36.2386],[126.2929,-8.4693,0.0],[126.2903,-8.4728,1.3611],[126.2786,-8.4811,3.4053],[126.2747,-8.4806,0.0],[126.2685,-8.4847,4.5448],[126.2606,-8.4867,2.4471],[126.2536,-8.4867,0.0],[126.2437,-8.4984,7.7905],[126.2359,-8.5025,1.1811],[126.2303,-8.5017,1.774],[126.2225,-8.4978,0.0],[126.2058,-8.4947,1.203],[126.1892,-8.5028,0.0],[126.1819,-8.5024,1.4142],[126.1683,-8.4958,0.0],[126.161,-8.496,0.0],[126.164,-8.5062,7.7492],[126.1681,-8.5122,9.7539],[126.1848,-8.5263,25.7451],[126.185,-8.5283,27.9263],[126.1826,-8.5304,38.9201],[126.1825,-8.5352,44.7008],[126.1856,-8.5656,233.168],[126.197,-8.5798,340.1601],[126.192,-8.5986,304.8521],[126.1964,-8.6056,265.7798],[126.1905,-8.6116,282.6849],[126.1936,-8.6172,262.5476],[126.1952,-8.6249,343.1776],[126.1881,-8.638,437.0987],[126.1853,-8.6395,469.0344],[126.1835,-8.643,509.4332],[126.1811,-8.6434,519.39],[126.1799,-8.649,472.3406],[126.1661,-8.6548,399.1763],[126.1654,-8.6569,378.1833],[126.152,-8.667,263.4637],[126.1495,-8.6729,163.4218],[126.1551,-8.6732,156.4559],[126.1606,-8.6792,167.7576],[126.1649,-8.6761,207.7989],[126.1683,-8.6766,182.5833],[126.1737,-8.6807,180.8092],[126.1786,-8.6876,195.8339],[126.1833,-8.6891,194.3125],[126.1874,-8.6879,220.221],[126.1882,-8.6921,206.9507],[126.1921,-8.6898,227.6422],[126.1936,-8.6922,227.2654],[126.1958,-8.6885,231.2134],[126.1984,-8.6919,232.4201],[126.2008,-8.6857,262.2572],[126.2023,-8.6878,240.3372],[126.208,-8.6865,230.9205],[126.2124,-8.6958,239.6787],[126.2141,-8.6951,236.0449],[126.2136,-8.6917,231.6375],[126.2148,-8.6912,260.5868],[126.2174,-8.6929,243.1029],[126.2187,-8.6971,249.3321],[126.2266,-8.6974,242.0056],[126.2291,-8.6954,243.0059],[126.2278,-8.6907,248.1838],[126.2319,-8.6832,254.1206],[126.2345,-8.6853,260.3068],[126.2379,-8.6827,270.8903],[126.2404,-8.6842,264.2946],[126.2394,-8.686,262.3231],[126.2458,-8.6857,274.7675],[126.2456,-8.6881,279.9343],[126.2517,-8.6846,286.4302],[126.2565,-8.6894,320.3845],[126.2531,-8.6934,340.9306],[126.2604,-8.6916,310.105],[126.262,-8.6939,310.1079],[126.2645,-8.6929,338.304],[126.2644,-8.6909,316.3489],[126.2675,-8.6891,315.3067],[126.2688,-8.686,322.2026],[126.2727,-8.6864,345.722],[126.2738,-8.6787,340.1076],[126.2783,-8.6771,347.4863],[126.2786,-8.6735,368.7733],[126.2821,-8.6709,375.2272],[126.2807,-8.6696,375.2272],[126.2877,-8.668,411.2735],[126.2949,-8.6701,453.6626],[126.3057,-8.6648,637.3325],[126.3185,-8.6542,840.8912],[126.3195,-8.6505,977.8622],[126.3245,-8.65,883.2816],[126.3331,-8.6389,435.2959]]]]}}