{"type": "Feature","bbox": [124.3214,-9.4286,124.3611,-9.389],"geometry": {"type": "MultiPolygon","coordinates": [[[[124.3611,-9.4205,547.3342],[124.3583,-9.4177,680.9844],[124.3538,-9.4165,717.7994],[124.3516,-9.4107,620.4625],[124.3525,-9.4066,550.515],[124.3484,-9.4017,487.7951],[124.3421,-9.3978,417.7675],[124.3394,-9.3982,425.3593],[124.3376,-9.3959,378.4594],[124.3332,-9.3982,386.1296],[124.3283,-9.3948,321.3015],[124.3261,-9.3901,269.1934],[124.3234,-9.389,257.4722],[124.3239,-9.3917,290.211],[124.3214,-9.3947,279.0479],[124.3265,-9.4017,367.7408],[124.3253,-9.4122,472.6361],[124.3286,-9.4163,546.3672],[124.3313,-9.4239,650.3229],[124.3509,-9.4286,806.4193],[124.3541,-9.424,697.1736],[124.3611,-9.4205,547.3342]]]]}
,"properties": {"GID_3": "TLS.3.2.3_1","GID_0": "TLS","country": "Timor-Leste","GID_1": "TLS.3_1","province": "Ambeno","NL_NAME_1": "NA","GID_2": "TLS.3.2_1","county": "OeSilo","NL_NAME_2": "NA","city": "UsiTaqueno","VARNAME_3": "UsiTakeno","NL_NAME_3": "NA","TYPE_3": "Suco","ENGTYPE_3": "Community","CC_3": "NA","HASC_3": "NA","name": "Usi_Taqueno.city","area_km2": 9.412568,"hist_schema_id": "Elevation0-9000","hist_area_km2": {"250": 0.041836,"275": 0.146425,"300": 0.125507,"325": 0.167342,"350": 0.334682,"375": 0.230092,"400": 0.292843,"425": 0.251007,"450": 0.543848,"475": 0.522928,"500": 0.543846,"525": 0.606594,"550": 0.439256,"575": 0.460169,"600": 0.460167,"625": 0.585665,"650": 0.481079,"675": 0.439248,"700": 0.522912,"725": 0.564744,"750": 0.481075,"775": 0.334658,"800": 0.481071,"825": 0.188244,"850": 0.167328}}}