{"type":"Feature","properties":{"GID_3":"TLS.8.3.2_1","GID_0":"TLS","country":"Timor-Leste","GID_1":"TLS.8_1","province":"Ermera","NL_NAME_1":"NA","GID_2":"TLS.8.3_1","county":"Hatólia","NL_NAME_2":"NA","city":"AsuLau","VARNAME_3":"Asslau|Sare","NL_NAME_3":"NA","TYPE_3":"Suco","ENGTYPE_3":"Community","CC_3":"NA","HASC_3":"NA","name":"Asu_Lau.city"},
"geometry":{"type": "MultiPolygon","coordinates": [[[[125.202,-8.7681,40.2104],[125.2106,-8.7655,43.4713],[125.2326,-8.767,56.0244],[125.2407,-8.7722,62.4154],[125.2473,-8.78,69.5712],[125.2517,-8.7809,72.7822],[125.2587,-8.7772,86.9426],[125.2639,-8.7834,109.8363],[125.2719,-8.7864,111.7826],[125.28,-8.7807,154.7471],[125.2841,-8.7675,183.8074],[125.291,-8.7674,256.649],[125.2936,-8.7636,275.0786],[125.2919,-8.7603,281.09],[125.2939,-8.7511,330.0639],[125.2935,-8.7425,301.3105],[125.2864,-8.737,189.4523],[125.2866,-8.7332,183.9677],[125.284,-8.7321,168.3853],[125.2799,-8.7268,169.4464],[125.2748,-8.7236,136.6224],[125.2683,-8.7247,142.3392],[125.2642,-8.7227,124.0239],[125.2481,-8.733,99.6065],[125.2366,-8.7326,87.0482],[125.2309,-8.7345,79.458],[125.222,-8.7342,70.0817],[125.2162,-8.7379,62.2195],[125.2097,-8.737,54.9984],[125.2028,-8.7419,48.3735],[125.1977,-8.7435,42.6844],[125.1941,-8.7502,36.3354],[125.1899,-8.7536,31.2335],[125.1964,-8.7635,35.1107],[125.202,-8.7681,40.2104]]]]}}