{"type": "Feature","bbox": [125.5833,-8.7177,125.6357,-8.6283],"geometry": {"type": "MultiPolygon","coordinates": [[[[125.5833,-8.7177,931.8062],[125.595,-8.7174,962.0188],[125.6068,-8.7119,1043.8245],[125.6099,-8.7071,1183.4485],[125.6101,-8.6978,1329.7218],[125.6123,-8.6969,1330.3276],[125.616,-8.6883,1111.9861],[125.6161,-8.6792,1143.5153],[125.6137,-8.6738,1095.5386],[125.62,-8.6659,1271.7615],[125.6306,-8.6584,1431.495],[125.6357,-8.6588,1456.4785],[125.6318,-8.6545,1289.9492],[125.6286,-8.6462,1187.7687],[125.632,-8.6328,1146.4623],[125.6286,-8.6283,1224.2964],[125.6184,-8.6312,1252.4236],[125.6141,-8.6373,1206.6841],[125.6061,-8.6376,1227.199],[125.6086,-8.6438,1190.251],[125.6065,-8.6583,1051.8292],[125.6084,-8.6672,1031.3101],[125.606,-8.6674,1017.6095],[125.6069,-8.6686,1025.0012],[125.6054,-8.6701,1040.8701],[125.5985,-8.6685,1000.5794],[125.5978,-8.6715,1025.3766],[125.5928,-8.6761,1023.9718],[125.593,-8.6844,980.1205],[125.587,-8.6932,972.9384],[125.5882,-8.6957,958.4208],[125.5871,-8.7034,948.8515],[125.5884,-8.704,959.1714],[125.5882,-8.7079,944.4476],[125.587,-8.7111,939.5904],[125.584,-8.7123,936.9872],[125.5833,-8.7177,931.8062]]]]}
,"properties": {"GID_3": "TLS.1.1.14_1","GID_0": "TLS","country": "Timor-Leste","GID_1": "TLS.1_1","province": "Aileu","NL_NAME_1": "NA","GID_2": "TLS.1.1_1","county": "Aileu","NL_NAME_2": "NA","city": "Saboria","VARNAME_3": "NA","NL_NAME_3": "NA","TYPE_3": "Suco","ENGTYPE_3": "Community","CC_3": "NA","HASC_3": "NA","name": "Saboria.city","area_km2": 22.4478,"hist_schema_id": "Elevation0-9000","hist_area_km2": {"925": 0.2934,"950": 0.88023,"975": 0.85929,"1000": 0.9641,"1025": 1.00603,"1050": 1.63484,"1075": 2.07502,"1100": 2.36847,"1125": 2.34751,"1150": 2.05408,"1175": 1.88641,"1200": 1.92832,"1225": 1.55105,"1250": 1.08992,"1275": 0.60783,"1300": 0.48208,"1325": 0.16768,"1350": 0.02096,"1375": 0.14672,"1400": 0.02096,"1425": 0.04192,"1450": 0.02096}}}