{"type":"Feature","properties":{"GID_3":"TLS.4.4.9_1","GID_0":"TLS","country":"Timor-Leste","GID_1":"TLS.4_1","province":"Baucau","NL_NAME_1":"NA","GID_2":"TLS.4.4_1","county":"Quelicai","NL_NAME_2":"NA","city":"Lelalai","VARNAME_3":"NA","NL_NAME_3":"NA","TYPE_3":"Suco","ENGTYPE_3":"Community","CC_3":"NA","HASC_3":"NA","name":"Lelalai.city"},
"geometry":{"type": "MultiPolygon","coordinates": [[[[126.4875,-8.6169,171.0915],[126.4865,-8.6213,205.2507],[126.4847,-8.6223,225.3207],[126.4862,-8.6288,232.8209],[126.4849,-8.632,253.855],[126.4866,-8.637,304.5025],[126.48779999999999,-8.6368,304.5025],[126.4873,-8.6433,365.1074],[126.4888,-8.6472,395.8174],[126.5013,-8.6597,325.7686],[126.5109,-8.6773,437.1616],[126.5231,-8.6818,363.4483],[126.526,-8.6815,343.7599],[126.5249,-8.6767,369.429],[126.5261,-8.6751,378.6113],[126.5238,-8.6706,389.6295],[126.5261,-8.6633,496.5002],[126.5216,-8.6533,463.694],[126.5226,-8.649,431.1508],[126.5201,-8.6468,413.0659],[126.5206,-8.6436,397.7424],[126.519,-8.6416,386.894],[126.5091,-8.6355,311.0109],[126.5103,-8.6316,269.5431],[126.5085,-8.6291,249.3192],[126.5119,-8.6243,259.0697],[126.5113,-8.6177,242.1919],[126.5072,-8.6145,251.1945],[126.4996,-8.6144,210.5905],[126.4953,-8.6127,235.3006],[126.4875,-8.6169,171.0915]]]]}}