{"type": "Feature","bbox": [126.61,-8.5907,126.6406,-8.5109],"geometry": {"type": "MultiPolygon","coordinates": [[[[126.6378,-8.5222,518.4188],[126.627,-8.5155,276.2089],[126.6242,-8.5109,251.1137],[126.6194,-8.5109,198.98],[126.61,-8.5144,91.1537],[126.6124,-8.5196,174.2667],[126.6183,-8.5238,314.4878],[126.6186,-8.5386,679.868],[126.6217,-8.5421,710.4893],[126.6207,-8.5464,769.9875],[126.6224,-8.5548,774.8123],[126.6152,-8.5697,525.0167],[126.6121,-8.5727,512.8829],[126.6189,-8.5771,993.9424],[126.6273,-8.5907,1115.3982],[126.6328,-8.585,922.4487],[126.6322,-8.5789,1010.787],[126.6271,-8.569,1290.2886],[126.6263,-8.5629,1000.9068],[126.6298,-8.5576,1113.4159],[126.6326,-8.546,1115.2571],[126.6395,-8.542,1097.5034],[126.6406,-8.5391,1100.3561],[126.6401,-8.5327,856.1323],[126.6368,-8.5239,531.6389],[126.6378,-8.5222,518.4188]]]]}
,"properties": {"GID_3": "TLS.4.4.13_1","GID_0": "TLS","country": "Timor-Leste","GID_1": "TLS.4_1","province": "Baucau","NL_NAME_1": "NA","GID_2": "TLS.4.4_1","county": "Quelicai","NL_NAME_2": "NA","city": "Namanai","VARNAME_3": "Namanei","NL_NAME_3": "NA","TYPE_3": "Suco","ENGTYPE_3": "Community","CC_3": "NA","HASC_3": "NA","name": "Namanai.city","area_km2": 13.4188,"hist_schema_id": "Elevation0-9000","hist_area_km2": {"100": 0.12581,"125": 0.14678,"150": 0.14678,"175": 0.20969,"200": 0.18872,"225": 0.35646,"250": 0.08387,"275": 0.18871,"300": 0.16775,"325": 0.29355,"350": 0.20968,"375": 0.18871,"400": 0.29355,"425": 0.31452,"450": 0.29355,"475": 0.37742,"500": 0.58709,"525": 0.52419,"550": 0.54515,"575": 0.44032,"600": 0.50321,"625": 0.29354,"650": 0.4403,"675": 0.3774,"700": 0.27257,"725": 0.39837,"750": 0.2516,"775": 0.2516,"800": 0.2516,"825": 0.27256,"850": 0.39835,"875": 0.35641,"900": 0.41931,"925": 0.31449,"950": 0.25159,"975": 0.39835,"1000": 0.20966,"1025": 0.37739,"1050": 0.23062,"1075": 0.33545,"1100": 0.31449,"1125": 0.33546,"1150": 0.20966,"1175": 0.10483,"1200": 0.04193,"1225": 0.04193,"1250": 0.02097,"1275": 0.0629}}}