{"type":"Feature","properties":{"GID_3":"TLS.3.3.7_1","GID_0":"TLS","country":"Timor-Leste","GID_1":"TLS.3_1","province":"Ambeno","NL_NAME_1":"NA","GID_2":"TLS.3.3_1","county":"PanteMacassar","NL_NAME_2":"NA","city":"Monemeco","VARNAME_3":"Costa","NL_NAME_3":"NA","TYPE_3":"Suco","ENGTYPE_3":"Community","CC_3":"NA","HASC_3":"NA","name":"Monemeco.city"},
"geometry":{"type": "MultiPolygon","coordinates": [[[[124.4595,-9.2905,826.6332],[124.4577,-9.2869,776.4125],[124.446,-9.2864,540.7872],[124.4385,-9.2812,297.6012],[124.4389,-9.2703,378.5616],[124.4412,-9.2628,548.6317],[124.4335,-9.265,417.8034],[124.4179,-9.2641,359.0532],[124.3924,-9.2706,177.3417],[124.3919,-9.2727,160.9193],[124.3982,-9.2767,135.3864],[124.4034,-9.286,260.1454],[124.4111,-9.2869,521.4453],[124.4164,-9.2909,647.4918],[124.4186,-9.2953,762.0446],[124.4238,-9.2966,847.5639],[124.4431,-9.3129,707.3199],[124.4445,-9.3113,707.3199],[124.4468,-9.3064,926.9284],[124.4542,-9.3087,1012.7574],[124.4594,-9.3048,985.5037],[124.4627,-9.2991,954.3306],[124.462,-9.2935,889.644],[124.4595,-9.2905,826.6332]]]]}}