{"type": "Feature","bbox": [124.2778,-9.5047,124.3574,-9.4624],"geometry": {"type": "MultiPolygon","coordinates": [[[[124.3565,-9.4814,748.8654],[124.3553,-9.4766,680.8843],[124.3569,-9.4718,615.0366],[124.3549,-9.4693,580.1461],[124.3574,-9.4637,513.386],[124.3413,-9.4655,575.892],[124.332,-9.4633,587.3821],[124.3071,-9.4624,972.5048],[124.2999,-9.4659,971.8097],[124.2947,-9.4707,997.5128],[124.2825,-9.4932,1334.5925],[124.2792,-9.4936,1388.625],[124.2778,-9.5019,1510.6581],[124.2788,-9.5033,1530.3545],[124.2851,-9.5029,1330.4851],[124.2878,-9.5047,1297.7783],[124.2927,-9.5017,1139.5277],[124.2968,-9.5027,1067.7557],[124.3016,-9.4934,1155.0386],[124.3162,-9.4959,1112.8491],[124.3322,-9.4856,981.9531],[124.3383,-9.4866,865.7831],[124.3422,-9.4828,831.0628],[124.3497,-9.4856,835.0885],[124.3548,-9.4852,797.1088],[124.3565,-9.4814,748.8654]]]]}
,"properties": {"GID_3": "TLS.3.4.2_1","GID_0": "TLS","country": "Timor-Leste","GID_1": "TLS.3_1","province": "Ambeno","NL_NAME_1": "NA","GID_2": "TLS.3.4_1","county": "Passabe","NL_NAME_2": "NA","city": "Haemnanu","VARNAME_3": "Abani","NL_NAME_3": "NA","TYPE_3": "Suco","ENGTYPE_3": "Community","CC_3": "NA","HASC_3": "NA","name": "Haemnanu.city","area_km2": 23.25487,"hist_schema_id": "Elevation0-9000","hist_area_km2": {"525": 0.06274,"550": 0.20914,"575": 0.25096,"600": 0.50192,"625": 0.58557,"650": 0.85745,"675": 0.85744,"700": 1.06657,"725": 0.962,"750": 1.00382,"775": 0.83652,"800": 0.75286,"825": 0.92016,"850": 0.96199,"875": 0.85743,"900": 0.77377,"925": 1.08747,"950": 1.00381,"975": 1.23385,"1000": 1.29659,"1025": 0.96197,"1050": 0.89923,"1075": 0.73193,"1100": 0.75284,"1125": 0.56462,"1150": 0.48097,"1175": 0.58553,"1200": 0.48097,"1225": 0.29277,"1250": 0.16729,"1275": 0.16729,"1300": 0.23003,"1325": 0.1882,"1350": 0.16729,"1375": 0.12547,"1400": 0.12547,"1425": 0.08365,"1450": 0.08365,"1475": 0.06273,"1500": 0.02091}}}