{"type": "Feature","bbox": [125.5518,-8.5934,125.574,-8.5741],"geometry": {"type": "MultiPolygon","coordinates": [[[[125.5728,-8.584,299.8242],[125.574,-8.5745,272.5204],[125.5674,-8.5741,48.9798],[125.5615,-8.5773,79.0404],[125.5624,-8.5815,102.1953],[125.5598,-8.5836,162.6317],[125.5524,-8.5818,319.5333],[125.5518,-8.59,354.9061],[125.5552,-8.5897,271.9451],[125.5567,-8.5934,458.7574],[125.5609,-8.5925,256.3351],[125.5615,-8.5895,227.8073],[125.5682,-8.5912,385.6404],[125.5728,-8.584,299.8242]]]]}
,"properties": {"GID_3": "TLS.7.2.11_1","GID_0": "TLS","country": "Timor-Leste","GID_1": "TLS.7_1","province": "Dili","NL_NAME_1": "NA","GID_2": "TLS.7.2_1","county": "DiliBarat","NL_NAME_2": "NA","city": "HansoHatora","VARNAME_3": "VilaVerde","NL_NAME_3": "NA","TYPE_3": "Suco","ENGTYPE_3": "Community","CC_3": "NA","HASC_3": "NA","name": "Hanso_Hatora.city","area_km2": 2.89313,"hist_schema_id": "Elevation0-9000","hist_area_km2": {"50": 0.083861,"75": 0.188685,"100": 0.209649,"125": 0.230613,"150": 0.188683,"175": 0.293507,"200": 0.335435,"225": 0.125789,"250": 0.251575,"275": 0.31447,"300": 0.167716,"325": 0.251575,"350": 0.104822,"375": 0.062893,"400": 0.041929,"425": 0.020965,"450": 0.020964}}}