{"type": "Feature","bbox": [126.3575,-8.6069,126.4,-8.5729],"geometry": {"type": "MultiPolygon","coordinates": [[[[126.3575,-8.5831,753.3239],[126.3726,-8.6069,797.3578],[126.3825,-8.5962,686.9954],[126.3836,-8.5891,661.9734],[126.3803,-8.5819,683.7121],[126.3848,-8.5793,625.4634],[126.4,-8.5763,493.282],[126.3966,-8.5738,518.2663],[126.3925,-8.5749,535.8914],[126.3894,-8.5729,576.5649],[126.3856,-8.5749,584.1412],[126.3852,-8.5782,625.4634],[126.3744,-8.5794,707.1575],[126.3631,-8.577,720.0942],[126.3575,-8.5831,753.3239]]]]}
,"properties": {"GID_3": "TLS.4.6.7_1","GID_0": "TLS","country": "Timor-Leste","GID_1": "TLS.4_1","province": "Baucau","NL_NAME_1": "NA","GID_2": "TLS.4.6_1","county": "Venilale","NL_NAME_2": "NA","city": "UmaAnaIco","VARNAME_3": "NA","NL_NAME_3": "NA","TYPE_3": "Suco","ENGTYPE_3": "Community","CC_3": "NA","HASC_3": "NA","name": "Uma_Ana_Ico.city","area_km2": 6.436094,"hist_schema_id": "Elevation0-9000","hist_area_km2": {"500": 0.04193,"525": 0.083861,"550": 0.146756,"575": 0.104826,"600": 0.167721,"625": 0.12579,"650": 0.08386,"675": 0.377361,"700": 0.964376,"725": 1.635236,"750": 1.928715,"775": 0.733735,"800": 0.041927}}}