{"type":"Feature","properties":{"GID_3":"TLS.8.3.3_1","GID_0":"TLS","country":"Timor-Leste","GID_1":"TLS.8_1","province":"Ermera","NL_NAME_1":"NA","GID_2":"TLS.8.3_1","county":"Hatólia","NL_NAME_2":"NA","city":"Fatubesi","VARNAME_3":"FatuBesi","NL_NAME_3":"NA","TYPE_3":"Suco","ENGTYPE_3":"Community","CC_3":"NA","HASC_3":"NA","name":"Fatubesi.city"},
"geometry":{"type": "MultiPolygon","coordinates": [[[[125.3226,-8.7806,553.5527],[125.3283,-8.7786,738.4946],[125.3368,-8.7655,934.96],[125.3435,-8.7623,1058.0983],[125.3495,-8.747,1280.1196],[125.3423,-8.747,1275.0535],[125.3388,-8.7365,1251.5863],[125.3307,-8.7303,1244.5504],[125.3296,-8.7262,1129.6763],[125.3201,-8.7241,828.5028],[125.3135,-8.7256,629.9997],[125.3069,-8.7239,427.3675],[125.3017,-8.7276,290.9565],[125.2941,-8.7294,209.1625],[125.2857,-8.7239,177.474],[125.2801,-8.7235,156.7439],[125.2756,-8.7251,150.9],[125.2799,-8.7268,169.4464],[125.284,-8.7321,168.3853],[125.2866,-8.7332,183.9677],[125.2864,-8.737,189.4523],[125.2935,-8.7425,301.3105],[125.294,-8.7486,348.8719],[125.2919,-8.7603,281.09],[125.2936,-8.7636,275.0786],[125.291,-8.7674,256.649],[125.2841,-8.7675,183.8074],[125.284,-8.7701,159.3837],[125.2817,-8.7719,150.0391],[125.2802,-8.7803,154.7471],[125.2758,-8.7837,126.7607],[125.2868,-8.782,149.3359],[125.2918,-8.7841,173.3896],[125.2949,-8.7812,199.0766],[125.3014,-8.7852,321.6115],[125.3044,-8.7895,330.6582],[125.3114,-8.7846,410.7659],[125.3165,-8.7842,494.7025],[125.3226,-8.7806,553.5527]]]]}}