{"type": "Feature","bbox": [125.533,-8.7345,125.5691,-8.6877],"geometry": {"type": "MultiPolygon","coordinates": [[[[125.5561,-8.6877,1020.3553],[125.5466,-8.6925,1159.7491],[125.5437,-8.7054,1190.3734],[125.5465,-8.7072,1201.1688],[125.5398,-8.7134,1168.9561],[125.5346,-8.7135,1182.7566],[125.533,-8.7157,1150.5829],[125.5335,-8.7208,1129.2415],[125.5435,-8.7345,1053.4247],[125.5671,-8.7336,909.4346],[125.568,-8.7322,917.0159],[125.5691,-8.7226,924.871],[125.566,-8.7176,936.9042],[125.5674,-8.7139,936.3087],[125.5661,-8.71,941.993],[125.5629,-8.7065,949.8074],[125.5638,-8.6996,971.0486],[125.5561,-8.6877,1020.3553]]]]}
,"properties": {"GID_3": "TLS.1.1.16_1","GID_0": "TLS","country": "Timor-Leste","GID_1": "TLS.1_1","province": "Aileu","NL_NAME_1": "NA","GID_2": "TLS.1.1_1","county": "Aileu","NL_NAME_2": "NA","city": "Seloi","VARNAME_3": "NA","NL_NAME_3": "NA","TYPE_3": "Suco","ENGTYPE_3": "Community","CC_3": "NA","HASC_3": "NA","name": "Seloi.city","area_km2": 13.05646,"hist_schema_id": "Elevation0-9000","hist_area_km2": {"900": 0.02096,"925": 0.7754,"950": 1.38317,"975": 1.57181,"1000": 1.40415,"1025": 1.7185,"1050": 1.78138,"1075": 1.13171,"1100": 0.985,"1125": 0.67064,"1150": 0.75447,"1175": 0.56586,"1200": 0.23053,"1225": 0.06287}}}