{"type":"Feature","properties":{"ISO3166-1-Alpha-3":"TLS","country":"East Timor","fill":"#F00","id":"552","name":"Viqueque"},
"geometry":{"type": "Polygon","coordinates": [[[126.51882,-8.68324,395.2018],[126.49174,-8.67001,324.1895],[126.47479,-8.62619,249.3527],[126.45536,-8.60717,155.2565],[126.44854,-8.63343,332.9155],[126.44544,-8.6634,208.4352],[126.44937,-8.69358,245.48],[126.43221,-8.70639,478.642],[126.40637,-8.69626,827.7028],[126.37433,-8.6849,915.9542],[126.33113,-8.67539,889.4365],[126.28173,-8.67828,460.8265],[126.23439,-8.69585,256.8721],[126.18086,-8.69482,296.2009],[126.14003,-8.68107,255.7979],[126.13125,-8.67807,270.007],[126.1114,-8.67497,247.3347],[126.09197,-8.688,377.908],[126.07998,-8.71962,616.0276],[126.06882,-8.74546,681.1613],[126.05022,-8.75766,708.5092],[126.03699,-8.77461,539.1465],[126.03368,-8.79404,431.5064],[126.05725,-8.83,370.4822],[126.07833,-8.86845,241.9835],[126.07895,-8.88995,266.6781],[126.08329,-8.91145,93.3336],[126.09425,-8.94121,46.3065],[126.1114,-8.96602,27.8203],[126.13766,-8.99868,0.0],[126.13802,-8.99991,0.0],[126.16586,-8.98838,0.0],[126.43019,-8.95469,0.0],[126.47242,-8.9428,29.8837],[126.50782,-8.91188,0.0],[126.54412,-8.85027,0.0],[126.58326,-8.80584,0.7892],[126.59352,-8.80202,0.0],[126.61549,-8.80088,66.1066],[126.62403,-8.799,0.0],[126.63136,-8.79583,0.0],[126.66065999999999,-8.77418,0.0],[126.67237,-8.76865,0.0],[126.69418,-8.76344,0.0],[126.72837,-8.76099,0.0],[126.72837,-8.76096,0.0],[126.72821,-8.72624,25.0142],[126.73545,-8.70123,120.4771],[126.73896,-8.69647,44.6155],[126.72491,-8.67828,101.4457],[126.70672,-8.66464,152.136],[126.68356,-8.65844,158.0039],[126.65111,-8.64872,363.2742],[126.62734,-8.66009,739.6731],[126.61556,-8.68366,888.6547],[126.60254,-8.68986,972.3594],[126.586,-8.68014,1140.4268],[126.55954,-8.67663,759.7024],[126.51882,-8.68324,395.2018]]]}}