{"type":"Feature","properties":{"GID_1":"TLS.13_1","GID_0":"TLS","country":"Timor-Leste","province":"Viqueque","VARNAME_1":"NA","NL_NAME_1":"NA","TYPE_1":"Distrito","ENGTYPE_1":"District","CC_1":"NA","HASC_1":"TP.VQ","ISO_1":"NA","name":"Viqueque.province"},
"geometry":{"type": "MultiPolygon","coordinates": [[[[126.3861,-8.9528,2.2842],[126.3894,-8.9531,1.3402],[126.4119,-8.9469,1.3891],[126.4183,-8.9467,0.0],[126.4274,-8.9498,0.0],[126.4347,-8.9467,6.5609],[126.4446,-8.9486,2.2222],[126.4508,-8.9472,5.2077],[126.4531,-8.9506,1.0034],[126.4565,-8.9514,0.0],[126.4686,-8.9476,7.1943],[126.4799,-8.9462,9.425],[126.4844,-8.9422,0.0],[126.4849,-8.9396,0.0],[126.4967,-8.9306,0.0],[126.5089,-8.9017,1.9044],[126.5192,-8.8881,0.0],[126.5419,-8.8517,7.2107],[126.5631,-8.8249,0.8619],[126.57,-8.8186,1.1578],[126.5742,-8.8183,0.0],[126.5861,-8.8025,8.6165],[126.593,-8.7995,13.0262],[126.6044,-8.8003,11.0683],[126.6126,-8.8026,7.9516],[126.618,-8.8018,5.1885],[126.6375,-8.7838,6.2652],[126.6759,-8.764,3.224],[126.7081,-8.7572,1.7662],[126.7258,-8.7561,1.5854],[126.7347,-8.7589,0.0],[126.7372,-8.7583,1.1799],[126.7341,-8.7535,7.2845],[126.7351,-8.7486,2.9194],[126.7371,-8.7468,18.129],[126.7348,-8.7418,9.9846],[126.7384,-8.7374,14.3125],[126.7385,-8.7305,25.4982],[126.7373,-8.7288,22.318],[126.7339,-8.7298,18.7187],[126.732,-8.7286,13.1904],[126.7354,-8.7215,33.7957],[126.7288,-8.7134,19.7398],[126.7308,-8.7101,30.0619],[126.729,-8.7056,24.327],[126.7302,-8.7009,40.3841],[126.7277,-8.6989,43.4418],[126.73,-8.696,39.7256],[126.7294,-8.6884,36.6615],[126.7348,-8.6776,46.5121],[126.7325,-8.6723,49.4087],[126.7298,-8.6716,50.3475],[126.7282,-8.6655,56.5639],[126.7292,-8.6626,56.1361],[126.7222,-8.6589,66.5023],[126.7106,-8.6464,106.8459],[126.7056,-8.6485,91.1201],[126.6901,-8.647,131.1192],[126.6852,-8.6481,104.7144],[126.6825,-8.6455,140.6678],[126.676,-8.645,108.5434],[126.6731,-8.6415,137.1104],[126.6705,-8.6423,143.5753],[126.6664,-8.6386,188.8521],[126.6575,-8.6352,229.4308],[126.6517,-8.6376,256.2393],[126.6455,-8.6472,389.8928],[126.6417,-8.6471,440.6677],[126.6387,-8.6493,452.3913],[126.6268,-8.6519,733.36],[126.621,-8.6621,800.884],[126.6225,-8.6635,772.2958],[126.6213,-8.6697,839.434],[126.6226,-8.6754,811.545],[126.6188,-8.6782,881.0409],[126.618,-8.6829,855.9373],[126.6131,-8.6855,958.0375],[126.61279999999999,-8.6883,999.7985],[126.5879,-8.6605,1621.6178],[126.5872,-8.6573,1976.6537],[126.589,-8.6534,2081.2104],[126.5849,-8.6516,1752.9847],[126.5763,-8.6553,1460.0208],[126.5748,-8.6573,1258.2102],[126.5669,-8.6573,1080.8129],[126.5626,-8.6623,900.2158],[126.5529,-8.6657,737.1309],[126.5518,-8.6675,686.2958],[126.5458,-8.6686,625.8978],[126.5379,-8.6763,513.2859],[126.5356,-8.6766,486.4999],[126.5334,-8.681,426.6861],[126.5231,-8.6818,363.4483],[126.5109,-8.6773,437.1616],[126.5013,-8.6597,325.7686],[126.4888,-8.6472,395.8174],[126.4873,-8.6433,365.1074],[126.48779999999999,-8.6368,304.5025],[126.4866,-8.637,304.5025],[126.4849,-8.632,253.855],[126.4862,-8.6288,232.8209],[126.4847,-8.6223,225.3207],[126.48779999999999,-8.6171,171.0915],[126.4823,-8.6113,164.9492],[126.4778,-8.6119,154.9344],[126.4776,-8.6084,142.8665],[126.4757,-8.6072,157.665],[126.4781,-8.6038,134.2015],[126.4761,-8.5956,136.6434],[126.4736,-8.5936,125.1207],[126.4642,-8.5921,109.5971],[126.4609,-8.595,100.2451],[126.4651,-8.5975,132.0398],[126.4623,-8.6041,107.6027],[126.466,-8.6052,109.217],[126.4661,-8.6077,109.3986],[126.465,-8.6099,109.7864],[126.4611,-8.6088,112.1275],[126.459,-8.6106,115.2937],[126.4595,-8.6127,113.4311],[126.462,-8.6127,112.7946],[126.4622,-8.6172,117.0842],[126.4603,-8.6208,120.4676],[126.4633,-8.6228,125.103],[126.4674,-8.623,126.9203],[126.4695,-8.6265,129.9178],[126.468,-8.629,144.2375],[126.4633,-8.6314,146.0183],[126.4589,-8.6406,153.7485],[126.4542,-8.6425,179.4537],[126.4546,-8.6469,168.5432],[126.4484,-8.6527,169.1906],[126.449,-8.6552,176.5855],[126.4469,-8.6562,178.4182],[126.4448,-8.661,239.8528],[126.4477,-8.6619,212.6087],[126.4479,-8.6656,205.6223],[126.4502,-8.6661,219.651],[126.4504,-8.6683,207.0796],[126.4549,-8.6705,214.2521],[126.451,-8.6727,221.0868],[126.453,-8.6786,236.3557],[126.4549,-8.6785,218.8756],[126.4563,-8.6825,235.0326],[126.4556,-8.6847,233.3515],[126.4503,-8.685,242.3712],[126.4502,-8.6885,236.3789],[126.4529,-8.6913,238.4439],[126.4487,-8.6939,255.262],[126.4476,-8.6996,257.7613],[126.4436,-8.7017,311.7871],[126.4267,-8.6985,607.1707],[126.3999,-8.6895,1352.6523],[126.3951,-8.6808,1184.8519],[126.3954,-8.6769,1124.4993],[126.3908,-8.6737,957.7247],[126.3902,-8.6681,798.6549],[126.3906,-8.665,741.5978],[126.3977,-8.6591,630.3809],[126.3951,-8.6569,637.3363],[126.3938,-8.6583,631.1724],[126.3882,-8.6559,646.9175],[126.3866,-8.658,659.7571],[126.3844,-8.6581,656.2678],[126.3852,-8.6604,653.5729],[126.3811,-8.6598,660.0477],[126.3806,-8.6625,669.0271],[126.3785,-8.6628,663.7789],[126.3762,-8.6658,706.4995],[126.3674,-8.6658,716.1509],[126.3643,-8.6691,710.2413],[126.3605,-8.6699,716.9662],[126.3593,-8.6724,733.398],[126.357,-8.6717,726.5751],[126.3581,-8.6773,734.8432],[126.3546,-8.6769,747.1072],[126.3518,-8.6806,756.6323],[126.3459,-8.6834,791.1686],[126.3429,-8.6839,801.2241],[126.3396,-8.6822,890.1086],[126.335,-8.6738,893.1376],[126.3323,-8.6726,887.4645],[126.324,-8.6757,871.4071],[126.3227,-8.6785,855.7509],[126.3173,-8.6811,789.967],[126.3078,-8.6815,664.4174],[126.2975,-8.6734,660.3099],[126.2866,-8.668,389.0619],[126.2802,-8.67,367.4235],[126.2821,-8.6709,375.2272],[126.2786,-8.6735,368.7733],[126.2792,-8.676,386.5828],[126.2738,-8.6787,340.1076],[126.273,-8.686,356.1367],[126.2704,-8.6852,326.8784],[126.268,-8.6866,316.0608],[126.2675,-8.6891,315.3067],[126.2644,-8.6909,316.3489],[126.2645,-8.6929,338.304],[126.262,-8.6939,310.1079],[126.2604,-8.6916,310.105],[126.2531,-8.6934,340.9306],[126.2565,-8.6894,320.3845],[126.2517,-8.6846,286.4302],[126.2456,-8.6881,279.9343],[126.2458,-8.6857,274.7675],[126.2394,-8.686,262.3231],[126.2404,-8.6842,264.2946],[126.2379,-8.6827,270.8903],[126.2342,-8.6853,260.3068],[126.2325,-8.6828,265.009],[126.2278,-8.6907,248.1838],[126.2291,-8.6954,243.0059],[126.2266,-8.6974,242.0056],[126.2187,-8.6971,249.3321],[126.2174,-8.6929,243.1029],[126.2148,-8.6912,260.5868],[126.2136,-8.6917,231.6375],[126.2141,-8.6951,236.0449],[126.2124,-8.6958,239.6787],[126.208,-8.6865,230.9205],[126.2023,-8.6878,240.3372],[126.2008,-8.6857,262.2572],[126.1984,-8.6919,232.4201],[126.1958,-8.6885,231.2134],[126.1936,-8.6922,227.2654],[126.1921,-8.6898,227.6422],[126.1882,-8.6921,206.9507],[126.1874,-8.6879,220.221],[126.1833,-8.6891,194.3125],[126.1786,-8.6876,195.8339],[126.1737,-8.6807,180.8092],[126.1683,-8.6766,182.5833],[126.1649,-8.6761,207.7989],[126.1601,-8.6791,167.7576],[126.1551,-8.6732,156.4559],[126.1481,-8.6728,149.0594],[126.1425,-8.6672,138.5478],[126.1319,-8.67,161.5885],[126.1295,-8.6678,188.2308],[126.125,-8.6669,169.9585],[126.1177,-8.6706,186.1835],[126.1117,-8.6689,210.1314],[126.1122,-8.6723,209.152],[126.1084,-8.6735,203.5576],[126.1045,-8.6821,233.554],[126.0984,-8.6871,246.9034],[126.0974,-8.6897,257.5604],[126.0985,-8.6922,260.3531],[126.0956,-8.6939,258.8352],[126.0972,-8.6951,273.4531],[126.0966,-8.6991,286.499],[126.0981,-8.6991,308.2939],[126.0991,-8.7021,298.6906],[126.0968,-8.7037,305.6466],[126.0978,-8.7055,318.0516],[126.0947,-8.7077,377.5888],[126.0968,-8.7127,345.5213],[126.0974,-8.7216,395.7422],[126.0909,-8.7261,424.2915],[126.0915,-8.7275,422.9906],[126.0882,-8.7336,525.2086],[126.0764,-8.7455,588.6882],[126.0711,-8.7473,674.8789],[126.0615,-8.7571,550.8483],[126.0564,-8.7569,687.1974],[126.0495,-8.7606,765.672],[126.0513,-8.7646,676.4429],[126.0479,-8.7697,491.2754],[126.0463,-8.7769,339.0436],[126.0518,-8.7873,303.5907],[126.0479,-8.7956,273.3408],[126.0549,-8.7997,248.1838],[126.0555,-8.8043,241.0709],[126.0581,-8.8036,237.7333],[126.0594,-8.8068,243.7671],[126.073,-8.8174,215.3457],[126.0754,-8.8236,189.5669],[126.0748,-8.8324,195.7163],[126.079,-8.837,177.6071],[126.089,-8.8411,151.6391],[126.0945,-8.849,148.1383],[126.0931,-8.8571,137.5188],[126.0886,-8.8628,124.0744],[126.092,-8.8728,109.4364],[126.0878,-8.8769,120.0634],[126.0847,-8.8845,95.4918],[126.0881,-8.8844,210.6455],[126.0878,-8.8879,98.403],[126.092,-8.8915,81.5855],[126.0923,-8.8972,87.5347],[126.0976,-8.9032,117.0134],[126.0997,-8.9085,97.6391],[126.1006,-8.9225,56.4329],[126.1044,-8.9362,47.8262],[126.1042,-8.9407,44.6954],[126.1086,-8.947,40.0372],[126.1177,-8.9487,36.8551],[126.1199,-8.9516,35.8778],[126.1253,-8.9527,34.676],[126.1321,-8.962,30.4952],[126.1367,-8.9619,25.0017],[126.1385,-8.9666,37.995],[126.142,-8.9663,30.2369],[126.1416,-8.9689,26.8331],[126.1448,-8.9697,24.8414],[126.1427,-8.9733,35.0128],[126.1443,-8.9766,32.2483],[126.1428,-8.9779,32.2483],[126.1438,-8.9831,24.2291],[126.1479,-8.9831,20.9734],[126.1503,-8.9851,21.5021],[126.1492,-8.9868,15.7201],[126.1506,-8.9896,10.3322],[126.1547,-8.9904,1.8407],[126.1869,-8.9769,2.4342],[126.2011,-8.9739,4.3781],[126.2367,-8.9758,4.1504],[126.2797,-8.9819,0.0],[126.3045,-8.9824,3.1944],[126.3092,-8.9794,8.516],[126.3397,-8.9681,1.1186],[126.3678,-8.9583,0.0],[126.38,-8.9561,2.7897],[126.3861,-8.9528,2.2842]]]]}}