{"type":"Feature","properties":{"GID_3":"TLS.8.3.11_1","GID_0":"TLS","country":"Timor-Leste","GID_1":"TLS.8_1","province":"Ermera","NL_NAME_1":"NA","GID_2":"TLS.8.3_1","county":"Hatólia","NL_NAME_2":"NA","city":"MauUbu","VARNAME_3":"NA","NL_NAME_3":"NA","TYPE_3":"Suco","ENGTYPE_3":"Community","CC_3":"NA","HASC_3":"NA","name":"Mau_Ubu.city"},
"geometry":{"type": "MultiPolygon","coordinates": [[[[125.3495,-8.747,1280.1196],[125.3524,-8.7475,1283.576],[125.3544,-8.7502,1293.1097],[125.3609,-8.749,1317.8372],[125.3578,-8.7465,1190.3201],[125.3549,-8.7403,1028.7026],[125.3581,-8.7321,810.9082],[125.3525,-8.7214,652.2924],[125.3543,-8.7105,531.5688],[125.353,-8.705,435.4247],[125.3523,-8.7036,406.3091],[125.3484,-8.7042,429.0428],[125.3451,-8.7018,410.7252],[125.3443,-8.708,538.272],[125.3408,-8.7099,614.7728],[125.3402,-8.7146,680.3717],[125.3379,-8.7164,736.1276],[125.3359,-8.7267,1022.6366],[125.3296,-8.7265,1154.1169],[125.3307,-8.7303,1244.5504],[125.3388,-8.7365,1251.5863],[125.3423,-8.747,1275.0535],[125.3495,-8.747,1280.1196]]]]}}