{"type":"Feature","properties":{"GID_3":"TLS.8.1.11_1","GID_0":"TLS","country":"Timor-Leste","GID_1":"TLS.8_1","province":"Ermera","NL_NAME_1":"NA","GID_2":"TLS.8.1_1","county":"Atsabe","NL_NAME_2":"NA","city":"Obulo","VARNAME_3":"NA","NL_NAME_3":"NA","TYPE_3":"Suco","ENGTYPE_3":"Community","CC_3":"NA","HASC_3":"NA","name":"Obulo.city"},
"geometry":{"type": "MultiPolygon","coordinates": [[[[125.3729,-8.9865,737.5875],[125.3734,-8.9778,894.4347],[125.3756,-8.9735,933.6256],[125.373,-8.9709,1013.8174],[125.3696,-8.972,980.3488],[125.3554,-8.9703,1016.3198],[125.349,-8.9648,867.8474],[125.3398,-8.9755,442.083],[125.3442,-8.9864,495.6113],[125.3424,-8.9903,503.8529],[125.3441,-8.9934,522.3239],[125.3479,-8.9937,529.8157],[125.3491,-8.9955,575.4833],[125.3566,-8.9962,592.4473],[125.3588,-8.994,621.6292],[125.3624,-8.994,633.7504],[125.3729,-8.9865,737.5875]]]]}}