{"type": "Feature","bbox": [125.1732,-9.1251,125.2254,-9.0797],"geometry": {"type": "MultiPolygon","coordinates": [[[[125.1795,-9.118,516.5543],[125.1882,-9.1156,751.8173],[125.1903,-9.1131,781.1507],[125.1979,-9.1143,839.254],[125.2071,-9.1244,882.4985],[125.2101,-9.1251,906.4603],[125.2177,-9.1239,911.7083],[125.2254,-9.119,978.545],[125.2243,-9.101,1630.4807],[125.2185,-9.0895,1221.1357],[125.2169,-9.0797,1385.8351],[125.2132,-9.088,1114.3345],[125.2031,-9.0935,884.7776],[125.1983,-9.0917,754.6141],[125.1962,-9.0876,679.857],[125.1906,-9.0849,587.6882],[125.1867,-9.0849,548.184],[125.1841,-9.0822,448.798],[125.1845,-9.0803,420.1346],[125.1819,-9.0819,432.313],[125.1791,-9.0868,439.768],[125.1774,-9.0957,465.5101],[125.1782,-9.0998,465.3086],[125.1766,-9.1037,480.2332],[125.1732,-9.1065,503.9363],[125.1781,-9.1125,495.8739],[125.1795,-9.118,516.5543]]]]}
,"properties": {"GID_3": "TLS.5.5.2_1","GID_0": "TLS","country": "Timor-Leste","GID_1": "TLS.5_1","province": "Bobonaro","NL_NAME_1": "NA","GID_2": "TLS.5.5_1","county": "Lolotoi","NL_NAME_2": "NA","city": "Gildapil","VARNAME_3": "NA","NL_NAME_3": "NA","TYPE_3": "Suco","ENGTYPE_3": "Community","CC_3": "NA","HASC_3": "NA","name": "Gildapil.city","area_km2": 17.83673,"hist_schema_id": "Elevation0-9000","hist_area_km2": {"425": 0.08375,"450": 0.41872,"475": 0.27216,"500": 0.5862,"525": 0.48151,"550": 0.52339,"575": 0.48151,"600": 0.37684,"625": 0.58619,"650": 0.39777,"675": 0.43964,"700": 0.3559,"725": 0.39777,"750": 0.25122,"775": 0.16748,"800": 0.14655,"825": 0.16748,"850": 0.43964,"875": 0.27215,"900": 0.56523,"925": 0.52336,"950": 0.81645,"975": 0.69085,"1000": 0.6071,"1025": 0.62804,"1050": 0.54431,"1075": 0.54431,"1100": 0.71179,"1125": 0.58618,"1150": 0.37683,"1175": 0.48151,"1200": 0.31403,"1225": 0.27216,"1250": 0.39777,"1275": 0.20935,"1300": 0.27216,"1325": 0.18842,"1350": 0.33497,"1375": 0.16748,"1400": 0.23029,"1425": 0.29309,"1450": 0.27216,"1475": 0.10468,"1500": 0.14655,"1525": 0.12561,"1550": 0.12561,"1575": 0.14655,"1600": 0.06281,"1625": 0.08374,"1650": 0.10468,"1675": 0.02094,"1700": 0.04187}}}