{"type": "Feature","bbox": [124.2764,-9.5047,124.3651,-9.4205],"geometry": {"type": "MultiPolygon","coordinates": [[[[124.3566,-9.4818,748.8654],[124.3553,-9.4766,680.8843],[124.3569,-9.4718,615.0366],[124.3549,-9.4693,580.1461],[124.3565,-9.4642,525.5289],[124.3651,-9.4596,498.6202],[124.3621,-9.4461,781.5658],[124.358,-9.4429,828.5177],[124.3541,-9.4426,794.8998],[124.3485,-9.4352,895.0963],[124.3496,-9.4286,810.369],[124.3243,-9.423,674.1307],[124.3188,-9.4205,461.8333],[124.3076,-9.4206,806.6027],[124.2933,-9.4288,728.3569],[124.2841,-9.4299,626.0881],[124.2764,-9.4362,456.4731],[124.2841,-9.4447,497.001],[124.287,-9.4512,524.5771],[124.2836,-9.4584,655.5936],[124.2846,-9.4628,705.2134],[124.287,-9.4646,778.0548],[124.2865,-9.4687,837.8038],[124.2882,-9.4724,867.8491],[124.2849,-9.476,919.8352],[124.2824,-9.4853,1147.219],[124.2794,-9.4889,1257.1062],[124.2788,-9.5033,1530.3545],[124.2851,-9.5029,1330.4851],[124.2878,-9.5047,1297.7783],[124.2927,-9.5017,1139.5277],[124.2968,-9.5027,1067.7557],[124.3016,-9.4934,1155.0386],[124.3162,-9.4959,1112.8491],[124.3322,-9.4856,981.9531],[124.3383,-9.4866,865.7831],[124.3422,-9.4828,831.0628],[124.3497,-9.4856,835.0885],[124.3548,-9.4852,797.1088],[124.3566,-9.4818,748.8654]]]]}
,"properties": {"GID_2": "TLS.3.4_1","GID_0": "TLS","country": "Timor-Leste","GID_1": "TLS.3_1","province": "Ambeno","NL_NAME_1": "NA","county": "Passabe","VARNAME_2": "NA","NL_NAME_2": "NA","TYPE_2": "Subdistrito","ENGTYPE_2": "Subdistrict","CC_2": "NA","HASC_2": "NA","name": "Passabe.county","area_km2": 60.6712,"hist_schema_id": "Elevation0-9000","hist_area_km2": {"450": 0.16732,"475": 0.16732,"500": 0.56471,"525": 0.89933,"550": 1.15029,"575": 2.21692,"600": 2.42606,"625": 2.27967,"650": 3.03258,"675": 2.96985,"700": 3.72276,"725": 3.32539,"750": 3.45085,"775": 3.2208,"800": 3.05349,"825": 3.45086,"850": 2.80249,"875": 2.63519,"900": 2.40511,"925": 2.50966,"950": 2.1541,"975": 1.98676,"1000": 1.67303,"1025": 1.21293,"1050": 1.04562,"1075": 0.83649,"1100": 0.83649,"1125": 0.66919,"1150": 0.5228,"1175": 0.69009,"1200": 0.5228,"1225": 0.33459,"1250": 0.25094,"1275": 0.25094,"1300": 0.27185,"1325": 0.23003,"1350": 0.20912,"1375": 0.14638,"1400": 0.12547,"1425": 0.08365,"1450": 0.08365,"1475": 0.06273,"1500": 0.02091}}}