{"type": "Feature","bbox": [125.3202,-8.8675,125.3877,-8.7785],"geometry": {"type": "MultiPolygon","coordinates": [[[[125.3849,-8.7811,1339.6963],[125.3821,-8.7785,1311.3478],[125.3745,-8.7807,1304.7635],[125.3732,-8.784,1339.2944],[125.3742,-8.7911,1279.4954],[125.37,-8.7957,1311.5009],[125.3675,-8.8017,1420.6228],[125.3575,-8.8093,1269.9539],[125.3544,-8.8252,929.3254],[125.3506,-8.8279,905.8921],[125.3473,-8.8402,722.7836],[125.3409,-8.8435,639.4806],[125.3408,-8.8453,642.6766],[125.3382,-8.8469,562.5378],[125.3366,-8.8531,472.9432],[125.3306,-8.853,388.679],[125.3283,-8.8555,362.3659],[125.3265,-8.8544,336.1766],[125.3202,-8.8623,210.0645],[125.328,-8.8675,256.4737],[125.3355,-8.8673,288.1274],[125.3414,-8.8648,306.4875],[125.3428,-8.8657,339.7808],[125.3493,-8.8581,424.9221],[125.3533,-8.8588,479.1978],[125.3593,-8.853,562.8273],[125.3623,-8.8535,573.9889],[125.3678,-8.8502,668.0508],[125.3739,-8.8497,722.376],[125.3777,-8.8464,786.3226],[125.3773,-8.8441,792.7059],[125.3809,-8.8425,807.4023],[125.3832,-8.8376,848.4114],[125.3821,-8.8354,859.4296],[125.3846,-8.8308,996.4305],[125.3843,-8.8249,1114.6581],[125.3877,-8.8189,1282.9526],[125.3842,-8.7976,1507.1265],[125.3811,-8.7916,1354.1877],[125.3849,-8.7811,1339.6963]]]]}
,"properties": {"GID_3": "TLS.8.3.6_1","GID_0": "TLS","country": "Timor-Leste","GID_1": "TLS.8_1","province": "Ermera","NL_NAME_1": "NA","GID_2": "TLS.8.3_1","county": "Hatólia","NL_NAME_2": "NA","city": "Koliatileotelo","VARNAME_3": "ColiateLeotelu","NL_NAME_3": "NA","TYPE_3": "Suco","ENGTYPE_3": "Community","CC_3": "NA","HASC_3": "NA","name": "Koliatileotelo.city","area_km2": 27.27813,"hist_schema_id": "Elevation0-9000","hist_area_km2": {"200": 0.02095,"225": 0.0838,"250": 0.16759,"275": 0.23044,"300": 0.29329,"325": 0.31424,"350": 0.23044,"375": 0.33519,"400": 0.29329,"425": 0.27234,"450": 0.20949,"475": 0.35614,"500": 0.25139,"525": 0.41899,"550": 0.56564,"575": 0.35614,"600": 0.37709,"625": 0.52374,"650": 0.2933,"675": 0.419,"700": 0.2095,"725": 0.48185,"750": 0.3352,"775": 0.419,"800": 0.52375,"825": 0.52376,"850": 0.46091,"875": 0.54471,"900": 0.60756,"925": 0.71232,"950": 0.73327,"975": 0.69137,"1000": 0.64947,"1025": 0.56567,"1050": 0.62852,"1075": 0.50282,"1100": 0.52377,"1125": 0.60758,"1150": 0.60758,"1175": 0.67044,"1200": 0.73329,"1225": 0.33522,"1250": 0.46094,"1275": 0.52379,"1300": 0.64952,"1325": 0.73334,"1350": 0.90097,"1375": 0.88002,"1400": 0.50286,"1425": 0.58666,"1450": 0.54476,"1475": 0.52381,"1500": 0.44,"1525": 0.56571,"1550": 0.37714,"1575": 0.33524,"1600": 0.29333,"1625": 0.33524,"1650": 0.23048,"1675": 0.20952,"1700": 0.10476}}}