{"type": "Feature","bbox": [125.3994,-8.9052,125.4392,-8.884],"geometry": {"type": "MultiPolygon","coordinates": [[[[125.4392,-8.9052,1376.6893],[125.4324,-8.8988,1827.4324],[125.4329,-8.8881,1727.3484],[125.4313,-8.8855,1688.6691],[125.4245,-8.8844,1383.0571],[125.4202,-8.8869,1439.9314],[125.411,-8.884,1500.7131],[125.3994,-8.8856,1413.3586],[125.4047,-8.8885,1407.1038],[125.402,-8.8976,1292.1141],[125.4036,-8.899,1258.1963],[125.42,-8.8947,1345.444],[125.4285,-8.9049,1793.1199],[125.4392,-8.9052,1376.6893]]]]}
,"properties": {"GID_3": "TLS.8.4.7_1","GID_0": "TLS","country": "Timor-Leste","GID_1": "TLS.8_1","province": "Ermera","NL_NAME_1": "NA","GID_2": "TLS.8.4_1","county": "Letefoho","NL_NAME_2": "NA","city": "Lauana","VARNAME_3": "NA","NL_NAME_3": "NA","TYPE_3": "Suco","ENGTYPE_3": "Community","CC_3": "NA","HASC_3": "NA","name": "Lauana.city","area_km2": 5.257782,"hist_schema_id": "Elevation0-9000","hist_area_km2": {"1275": 0.14663,"1300": 0.146631,"1325": 0.230419,"1350": 0.377051,"1375": 0.335158,"1400": 0.230423,"1425": 0.398001,"1450": 0.314213,"1475": 0.314214,"1500": 0.293266,"1525": 0.251371,"1550": 0.272318,"1575": 0.062843,"1600": 0.08379,"1625": 0.209474,"1650": 0.125684,"1675": 0.146632,"1700": 0.209471,"1725": 0.146631,"1750": 0.14663,"1775": 0.209471,"1800": 0.209471,"1825": 0.20947,"1850": 0.167575,"1875": 0.020947}}}