{"type":"Feature","properties":{"GID_3":"TLS.6.4.5_1","GID_0":"TLS","country":"Timor-Leste","GID_1":"TLS.6_1","province":"Covalima","NL_NAME_1":"NA","GID_2":"TLS.6.4_1","county":"Mape","NL_NAME_2":"NA","city":"Mape","VARNAME_3":"NA","NL_NAME_3":"NA","TYPE_3":"Suco","ENGTYPE_3":"Community","CC_3":"NA","HASC_3":"NA","name":"Mape.city"},
"geometry":{"type": "MultiPolygon","coordinates": [[[[125.4442,-9.0614,399.6809],[125.4368,-9.0604,400.7112],[125.4315,-9.0624,417.069],[125.4265,-9.0555,484.0345],[125.4222,-9.054,502.7763],[125.4201,-9.0503,547.4203],[125.4169,-9.0486,545.6355],[125.4031,-9.0507,874.4256],[125.3933,-9.0603,536.7579],[125.395,-9.0685,480.7805],[125.3917,-9.071,443.2068],[125.3939,-9.0715,472.9581],[125.3962,-9.0761,454.937],[125.395,-9.0888,367.5421],[125.3993,-9.0914,364.1039],[125.3987,-9.0945,372.4006],[125.4013,-9.0945,365.2765],[125.4017,-9.0963,400.8958],[125.404,-9.0963,349.2874],[125.4153,-9.1047,319.5539],[125.4236,-9.1051,303.7925],[125.4284,-9.1033,271.709],[125.4303,-9.1093,248.3975],[125.4342,-9.1016,291.8253],[125.4417,-9.095,375.9655],[125.4447,-9.0866,499.8737],[125.4536,-9.0793,390.9511],[125.4569,-9.0734,320.5341],[125.4637,-9.071,297.7792],[125.4655,-9.0727,293.2537],[125.468,-9.072,281.6527],[125.4668,-9.0682,291.287],[125.4637,-9.0655,306.4365],[125.4442,-9.0614,399.6809]]]]}}