{"type": "Feature","bbox": [125.5074,-8.8734,125.5474,-8.8365],"geometry": {"type": "MultiPolygon","coordinates": [[[[125.5114,-8.8452,2291.9531],[125.5074,-8.8487,2284.9404],[125.5076,-8.8506,2277.4199],[125.5169,-8.8638,2201.946],[125.5206,-8.8667,2276.8867],[125.5223,-8.8722,2335.1299],[125.5376,-8.8734,2440.8767],[125.5427,-8.8713,2315.563],[125.5461,-8.8582,2211.1187],[125.5452,-8.8453,2066.3696],[125.5474,-8.8413,2046.5253],[125.5462,-8.8365,2015.7548],[125.534,-8.8457,1803.4636],[125.5114,-8.8452,2291.9531]]]]}
,"properties": {"GID_3": "TLS.2.4.5_1","GID_0": "TLS","country": "Timor-Leste","GID_1": "TLS.2_1","province": "Ainaro","NL_NAME_1": "NA","GID_2": "TLS.2.4_1","county": "Maubisse","NL_NAME_2": "NA","city": "Liurai","VARNAME_3": "NA","NL_NAME_3": "NA","TYPE_3": "Suco","ENGTYPE_3": "Community","CC_3": "NA","HASC_3": "NA","name": "Liurai.city","area_km2": 10.977491,"hist_schema_id": "Elevation0-9000","hist_area_km2": {"1775": 0.10475,"1800": 0.1676,"1825": 0.2514,"1850": 0.230449,"1875": 0.377099,"1900": 0.314249,"1925": 0.418995,"1950": 0.460895,"1975": 0.544693,"2000": 0.54469,"2025": 0.586589,"2050": 0.607535,"2075": 0.607535,"2100": 0.481835,"2125": 0.523733,"2150": 0.544682,"2175": 0.586579,"2200": 0.71227,"2225": 0.796068,"2250": 0.460879,"2275": 0.712269,"2300": 0.335184,"2325": 0.293286,"2350": 0.230436,"2375": 0.041897,"2400": 0.020949,"2425": 0.020949}}}