{"type":"Feature","properties":{"GID_3":"TLS.4.1.6_1","GID_0":"TLS","country":"Timor-Leste","GID_1":"TLS.4_1","province":"Baucau","NL_NAME_1":"NA","GID_2":"TLS.4.1_1","county":"Baguia","NL_NAME_2":"NA","city":"Haeconi","VARNAME_3":"NA","NL_NAME_3":"NA","TYPE_3":"Suco","ENGTYPE_3":"Community","CC_3":"NA","HASC_3":"NA","name":"Haeconi.city"},
"geometry":{"type": "MultiPolygon","coordinates": [[[[126.647,-8.6039,537.5755],[126.6448,-8.6007,571.1318],[126.6342,-8.5976,1171.2555],[126.6273,-8.5907,1115.3982],[126.6201,-8.6015,1239.9224],[126.6137,-8.6067,1392.1863],[126.6122,-8.6098,1755.4633],[126.6036,-8.6151,1869.8726],[126.6071,-8.6264,1471.7351],[126.6171,-8.6266,1611.1316],[126.6233,-8.6289,1505.1438],[126.6275,-8.6442,784.6989],[126.6312,-8.6512,634.58],[126.6417,-8.6471,440.6677],[126.6455,-8.6472,389.8928],[126.6501,-8.6407,270.6666],[126.6444,-8.6365,617.2381],[126.6405,-8.6254,971.3177],[126.6433,-8.6218,871.2615],[126.6409,-8.6136,1059.7539],[126.647,-8.6039,537.5755]]]]}}