{"type":"Feature","properties":{"GID_3":"TLS.5.6.6_1","GID_0":"TLS","country":"Timor-Leste","GID_1":"TLS.5_1","province":"Bobonaro","NL_NAME_1":"NA","GID_2":"TLS.5.6_1","county":"Maliana","NL_NAME_2":"NA","city":"Saburai","VARNAME_3":"NA","NL_NAME_3":"NA","TYPE_3":"Suco","ENGTYPE_3":"Community","CC_3":"NA","HASC_3":"NA","name":"Saburai.city"},
"geometry":{"type": "MultiPolygon","coordinates": [[[[125.1845,-9.0803,420.1346],[125.1841,-9.0822,448.798],[125.1867,-9.0849,548.184],[125.1906,-9.0849,587.6882],[125.1962,-9.0876,679.857],[125.1988,-9.092,754.6141],[125.2031,-9.0935,884.7776],[125.2079,-9.0919,946.0951],[125.2135,-9.0877,1123.5969],[125.2181,-9.0775,1448.333],[125.2241,-9.0749,1494.0587],[125.2288,-9.0697,1614.2115],[125.2524,-9.0619,1702.7183],[125.2607,-9.0492,1606.5615],[125.2572,-9.0447,1452.7709],[125.2549,-9.0346,1163.2921],[125.2429,-9.0235,853.4852],[125.241,-9.0321,968.5267],[125.2365,-9.0417,923.0963],[125.2309,-9.0434,869.2321],[125.2285,-9.0475,849.7639],[125.2242,-9.0492,805.2848],[125.213,-9.0587,790.6919],[125.2107,-9.0587,761.4015],[125.2057,-9.053,600.9573],[125.2027,-9.054,539.5548],[125.1964,-9.0515,374.3123],[125.1888,-9.0512,289.3617],[125.1886,-9.0571,304.084],[125.1848,-9.0594,312.3198],[125.1839,-9.0627,336.519],[125.1876,-9.0731,383.2477],[125.1849,-9.0745,401.0699],[125.1845,-9.0803,420.1346]]]]}}