{"type": "Feature","bbox": [125.384,-8.8309,125.4213,-8.7994],"geometry": {"type": "MultiPolygon","coordinates": [[[[125.3851,-8.8034,1645.1248],[125.3877,-8.8189,1282.9526],[125.384,-8.8268,1055.3901],[125.3846,-8.8302,996.4305],[125.3871,-8.8309,1010.1024],[125.3949,-8.8304,1064.2771],[125.4001,-8.8248,1086.0234],[125.4041,-8.8231,1135.8103],[125.411,-8.8129,1138.6104],[125.4123,-8.814,1119.0256],[125.4106,-8.8142,1105.678],[125.4128,-8.8151,1129.7513],[125.4144,-8.8127,1141.5586],[125.4134,-8.8116,1126.4194],[125.4189,-8.8101,1133.3264],[125.4213,-8.8044,1195.6041],[125.4199,-8.8003,1258.4636],[125.4141,-8.7994,1394.9636],[125.3981,-8.8052,1520.7922],[125.3891,-8.8027,1686.2555],[125.3851,-8.8034,1645.1248]]]]}
,"properties": {"GID_3": "TLS.8.2.7_1","GID_0": "TLS","country": "Timor-Leste","GID_1": "TLS.8_1","province": "Ermera","NL_NAME_1": "NA","GID_2": "TLS.8.2_1","county": "Ermera","NL_NAME_2": "NA","city": "Raimehei","VARNAME_3": "RaimerHei","NL_NAME_3": "NA","TYPE_3": "Suco","ENGTYPE_3": "Community","CC_3": "NA","HASC_3": "NA","name": "Raimehei.city","area_km2": 8.171221,"hist_schema_id": "Elevation0-9000","hist_area_km2": {"1000": 0.020951,"1025": 0.104755,"1050": 0.104755,"1075": 0.230462,"1100": 0.251416,"1125": 0.586644,"1150": 0.502835,"1175": 0.649503,"1200": 0.502844,"1225": 0.523799,"1250": 0.586654,"1275": 0.460944,"1300": 0.460941,"1325": 0.419043,"1350": 0.356188,"1375": 0.481894,"1400": 0.272376,"1425": 0.146663,"1450": 0.230472,"1475": 0.230472,"1500": 0.167617,"1525": 0.125713,"1550": 0.18857,"1575": 0.18857,"1600": 0.146666,"1625": 0.062857,"1650": 0.062857,"1675": 0.041905,"1700": 0.041905,"1725": 0.020952}}}