{"type": "Feature","bbox": [124.3269,-9.3319,124.3854,-9.2854],"geometry": {"type": "MultiPolygon","coordinates": [[[[124.3835,-9.3244,154.2182],[124.3854,-9.3183,187.4741],[124.3842,-9.3141,140.5307],[124.3805,-9.3141,142.2729],[124.3753,-9.309,125.301],[124.3672,-9.3082,118.4838],[124.358,-9.2981,90.822],[124.3485,-9.2995,79.6696],[124.3434,-9.2948,85.3227],[124.3421,-9.2859,61.4262],[124.3399,-9.2854,63.9056],[124.3386,-9.2907,65.1715],[124.3282,-9.2924,85.1195],[124.3269,-9.3009,76.5207],[124.3312,-9.3046,80.5842],[124.3328,-9.3127,142.7962],[124.3312,-9.315,116.5194],[124.3313,-9.3189,92.2118],[124.3276,-9.3216,96.1389],[124.341,-9.319,205.1346],[124.3477,-9.3204,252.2672],[124.3544,-9.3233,180.0906],[124.3561,-9.3309,204.4838],[124.3592,-9.3319,253.1239],[124.3835,-9.3244,154.2182]]]]}
,"properties": {"GID_3": "TLS.3.2.1_1","GID_0": "TLS","country": "Timor-Leste","GID_1": "TLS.3_1","province": "Ambeno","NL_NAME_1": "NA","GID_2": "TLS.3.2_1","county": "OeSilo","NL_NAME_2": "NA","city": "Bobomanat","VARNAME_3": "Bobometo","NL_NAME_3": "NA","TYPE_3": "Suco","ENGTYPE_3": "Community","CC_3": "NA","HASC_3": "NA","name": "Bobomanat.city","area_km2": 15.79673,"hist_schema_id": "Elevation0-9000","hist_area_km2": {"50": 0.02092,"75": 1.94591,"100": 1.86217,"125": 1.73661,"150": 1.75752,"175": 1.92489,"200": 2.17595,"225": 2.07132,"250": 1.1298,"275": 0.60675,"300": 0.39752,"325": 0.16738}}}