{"type": "Feature","bbox": [125.2254,-9.2088,125.2988,-9.1222],"geometry": {"type": "MultiPolygon","coordinates": [[[[125.272,-9.1233,650.053],[125.2661,-9.1256,732.9514],[125.259,-9.1248,795.8544],[125.2461,-9.1306,1065.2058],[125.2356,-9.1426,1046.8369],[125.2318,-9.155,685.5132],[125.2323,-9.1702,511.7311],[125.2296,-9.1796,438.1801],[125.2317,-9.1873,411.5935],[125.2278,-9.1913,379.4257],[125.2281,-9.1942,374.1442],[125.2254,-9.2,340.2641],[125.227,-9.2054,392.7602],[125.2347,-9.2088,310.1113],[125.2372,-9.1982,497.5709],[125.2456,-9.1928,485.8075],[125.249,-9.185,670.0167],[125.2572,-9.1828,489.5853],[125.2666,-9.1725,718.7344],[125.2706,-9.1634,789.5844],[125.2702,-9.1535,1054.7178],[125.2786,-9.1535,678.2042],[125.2814,-9.157,603.7899],[125.2954,-9.1587,717.8618],[125.294,-9.1503,998.4086],[125.2988,-9.1411,876.9535],[125.2878,-9.14,1022.1376],[125.2844,-9.1332,867.7949],[125.2777,-9.1316,705.0577],[125.2798,-9.1239,590.345],[125.2764,-9.1222,630.4329],[125.272,-9.1233,650.053]]]]}
,"properties": {"GID_3": "TLS.5.5.1_1","GID_0": "TLS","country": "Timor-Leste","GID_1": "TLS.5_1","province": "Bobonaro","NL_NAME_1": "NA","GID_2": "TLS.5.5_1","county": "Lolotoi","NL_NAME_2": "NA","city": "Deudet","VARNAME_3": "NA","NL_NAME_3": "NA","TYPE_3": "Suco","ENGTYPE_3": "Community","CC_3": "NA","HASC_3": "NA","name": "Deudet.city","area_km2": 34.78893,"hist_schema_id": "Elevation0-9000","hist_area_km2": {"300": 0.12557,"325": 0.25115,"350": 0.16744,"375": 0.18837,"400": 0.23023,"425": 0.35581,"450": 0.39767,"475": 0.50233,"500": 0.66978,"525": 0.75349,"550": 1.00467,"575": 1.19305,"600": 1.15121,"625": 1.48611,"650": 1.36054,"675": 1.4652,"700": 1.48616,"725": 1.40245,"750": 1.19313,"775": 1.65365,"800": 1.50713,"825": 1.56994,"850": 1.25596,"875": 1.10943,"900": 1.36063,"925": 1.42342,"950": 1.2769,"975": 1.10943,"1000": 1.00477,"1025": 1.04664,"1050": 1.02571,"1075": 0.87918,"1100": 0.66985,"1125": 0.69079,"1150": 0.75358,"1175": 0.50239,"1200": 0.27212,"1225": 0.27213,"1250": 0.02093}}}