{"type":"Feature","properties":{"GID_3":"TLS.3.1.5_1","GID_0":"TLS","country":"Timor-Leste","GID_1":"TLS.3_1","province":"Ambeno","NL_NAME_1":"NA","GID_2":"TLS.3.1_1","county":"Nitibe","NL_NAME_2":"NA","city":"Suni-Ufe","VARNAME_3":"SuniUfe","NL_NAME_3":"NA","TYPE_3":"Suco","ENGTYPE_3":"Community","CC_3":"NA","HASC_3":"NA","name":"Suni-Ufe.city"},
"geometry":{"type": "MultiPolygon","coordinates": [[[[124.1664,-9.2866,7.3543],[124.1669,-9.285,1.9455],[124.1717,-9.2877,15.549],[124.1769,-9.2941,45.1164],[124.181,-9.2924,69.6191],[124.1861,-9.2998,156.8221],[124.1938,-9.301,206.8161],[124.1961,-9.3054,284.4077],[124.2055,-9.3086,381.045],[124.2083,-9.3188,569.9515],[124.2135,-9.322,708.4797],[124.2186,-9.3315,905.451],[124.2247,-9.3153,608.0012],[124.2425,-9.3065,298.217],[124.2392,-9.3032,283.1416],[124.2413,-9.2988,250.2648],[124.2411,-9.2904,151.8671],[124.2367,-9.2833,120.1371],[124.2366,-9.2792,79.4378],[124.2305,-9.2725,57.0318],[124.2274,-9.266,33.3417],[124.2286,-9.2609,21.0708],[124.2261,-9.2569,39.4351],[124.228,-9.2514,13.9144],[124.2273,-9.2488,12.7884],[124.2198,-9.2405,2.7596],[124.214,-9.2448,4.2388],[124.2038,-9.244,0.0],[124.2005,-9.2463,23.0904],[124.1903,-9.2477,0.0],[124.1851,-9.25,1.1793],[124.173,-9.2782,0.0],[124.1676,-9.2836,2.8752],[124.1664,-9.2858,1.9455],[124.1664,-9.2866,7.3543]]]]}}