{"type":"Feature","properties":{"GID_2":"TLS.1.3_1","GID_0":"TLS","country":"Timor-Leste","GID_1":"TLS.1_1","province":"Aileu","NL_NAME_1":"NA","county":"Lequidoe","VARNAME_2":"Liquidoe","NL_NAME_2":"NA","TYPE_2":"Subdistrito","ENGTYPE_2":"Subdistrict","CC_2":"NA","HASC_2":"NA","name":"Lequidoe.county"},
"geometry":{"type": "MultiPolygon","coordinates": [[[[125.6548,-8.7633,821.7577],[125.6551,-8.7643,816.0432],[125.659,-8.7627,801.5414],[125.6609,-8.764,806.04],[125.6715,-8.7591,773.6097],[125.6717,-8.7637,773.476],[125.6744,-8.7581,757.6024],[125.6757,-8.7591,764.0241],[125.6774,-8.7568,758.6077],[125.6867,-8.7558,770.6974],[125.6841,-8.7608,735.572],[125.689,-8.7592,749.1409],[125.6915,-8.7614,792.8154],[125.6937,-8.7606,782.6029],[125.6964,-8.7640999999999991,802.3509],[125.7005,-8.7647,749.5927],[125.7023,-8.7619,708.366],[125.7065,-8.7623,686.616],[125.7101,-8.7664,685.3164],[125.7141,-8.7676,666.1547],[125.7152,-8.77,669.4197],[125.7182,-8.7702,665.1866],[125.7189,-8.7727,661.6854],[125.7221,-8.773,644.9147],[125.7252,-8.777,636.5897],[125.7228,-8.7816,607.6296],[125.7242,-8.783,579.7149],[125.7302,-8.7834,558.9305],[125.7369,-8.7864,545.0809],[125.7415,-8.7805,531.8256],[125.7453,-8.7801,522.7759],[125.7487,-8.7741,527.4476],[125.7531,-8.7723,532.7261],[125.7541,-8.7618,487.5883],[125.756,-8.7614,495.7655],[125.7577,-8.7632,502.1461],[125.7597,-8.7591,485.0247],[125.7638,-8.7594,472.5664],[125.7637,-8.7568,455.7457],[125.7681,-8.7547,451.4518],[125.7714,-8.7466,464.5075],[125.7693,-8.7395,458.5987],[125.7785,-8.7392,464.5456],[125.7856,-8.744,501.8123],[125.7901,-8.7432,585.9756],[125.7939,-8.7484,659.7144],[125.7991,-8.7492,782.0731],[125.8054,-8.745,1110.9348],[125.8073,-8.7373,993.7484],[125.8179,-8.7288,484.2072],[125.8101,-8.7135,338.9473],[125.8125,-8.7081,315.8904],[125.812,-8.695,304.1796],[125.8141,-8.6847,275.0384],[125.8116,-8.6827,271.4037],[125.805,-8.6861,291.3778],[125.8015,-8.6849,291.5648],[125.7995,-8.686,291.7298],[125.7997,-8.6879,306.669],[125.787,-8.6942,326.658],[125.7777,-8.6937,398.7049],[125.7749,-8.696,396.3821],[125.7719,-8.6962,386.2033],[125.7706,-8.6936,433.3499],[125.7708,-8.6953,386.2033],[125.7577,-8.7012,413.584],[125.7554,-8.6995,422.1389],[125.7523,-8.6927,466.95],[125.7434,-8.695,464.1823],[125.7357,-8.6935,489.3104],[125.7345,-8.6959,503.061],[125.7334,-8.6922,493.0947],[125.7296,-8.6908,517.2414],[125.729,-8.6887,512.4426],[125.7238,-8.6883,515.2639],[125.7144,-8.6916,555.5482],[125.7086,-8.6983,664.1293],[125.7011,-8.7023,659.3204],[125.6954,-8.7005,693.2113],[125.693,-8.7025,710.8542],[125.6871,-8.7029,710.9072],[125.6779,-8.696,781.9347],[125.6655,-8.6949,796.1611],[125.6631,-8.6883,852.7828],[125.6502,-8.6809,947.2166],[125.6386,-8.6797,1026.4968],[125.6366,-8.6782,1049.5542],[125.6268,-8.6816,1306.2452],[125.627,-8.6857,1265.407],[125.6239,-8.6887,1173.7627],[125.6273,-8.6961,1338.8801],[125.6227,-8.7081,1296.0011],[125.629,-8.7255,1263.3662],[125.6233,-8.7331,1105.3378],[125.6236,-8.7387,958.5812],[125.6294,-8.7447,866.2717],[125.6373,-8.7387,849.7973],[125.644,-8.74,837.3245],[125.6498,-8.7594,872.9142],[125.6548,-8.7633,821.7577]]]]}}