{"type": "Feature","bbox": [125.8002,-8.912,126.0309,-8.7018],"geometry": {"type": "MultiPolygon","coordinates": [[[[125.9401,-8.9013,222.3767],[125.9421,-8.8995,228.5604],[125.9447,-8.8999,249.0353],[125.9487,-8.8913,273.9542],[125.9515,-8.89,285.5295],[125.9578,-8.8907,311.4478],[125.964,-8.8873,349.203],[125.9684,-8.8724,509.3763],[125.9766,-8.8625,616.3098],[125.9849,-8.861,684.7929],[125.9939,-8.843,597.8115],[126.0057,-8.8351,862.5182],[126.0047,-8.828,796.1045],[126.0081,-8.8246,707.3578],[126.0089,-8.8213,594.1097],[126.0248,-8.8189,404.7598],[126.0309,-8.8039,309.8113],[126.0246,-8.799,343.8362],[126.0216,-8.7939,385.2462],[126.0181,-8.7964,402.1711],[126.0138,-8.796,444.9436],[126.0099,-8.7981,536.0375],[126.0017,-8.7975,751.7202],[125.9826,-8.81,994.7263],[125.9776,-8.8161,784.1486],[125.9773,-8.8204,711.0482],[125.9705,-8.8243,574.8926],[125.9692,-8.8267,524.5965],[125.9651,-8.828,467.0093],[125.9617,-8.833,420.6343],[125.9526,-8.8317,385.6779],[125.9465,-8.8352,461.4026],[125.9435,-8.8331,456.3059],[125.9391,-8.8345,485.0625],[125.9219,-8.8265,573.467],[125.919,-8.8231,586.9421],[125.9193,-8.8201,589.8605],[125.915,-8.8183,611.8865],[125.9132,-8.8143,637.7678],[125.9119,-8.8155,662.5963],[125.9066,-8.8116,685.5302],[125.9066,-8.8064,673.8606],[125.8975,-8.8033,792.3593],[125.8984,-8.7974,772.3182],[125.8956,-8.798,829.9917],[125.8931,-8.7959,783.8928],[125.8893,-8.7954,785.168],[125.8857,-8.7932,776.108],[125.885,-8.7905,809.2903],[125.8808,-8.7899,867.9957],[125.88,-8.7873,854.5331],[125.8738,-8.7867,859.9103],[125.8714,-8.7843,880.4286],[125.8671,-8.785,878.8554],[125.8653,-8.7812,936.0894],[125.8606,-8.7793,967.4333],[125.8583,-8.7823,990.6584],[125.8572,-8.781,1016.5631],[125.8586,-8.7791,996.5382],[125.856,-8.7762,1041.724],[125.8557,-8.7772,1010.2444],[125.8544,-8.7752,1038.2524],[125.8525,-8.7763,1094.844],[125.8519,-8.7744,1089.4086],[125.8509,-8.7756,1033.0565],[125.8491,-8.7734,1061.0535],[125.8494,-8.77,1074.3833],[125.8426,-8.7682,1246.5709],[125.8363,-8.7621,1418.8468],[125.8335,-8.7584,1359.8114],[125.8308,-8.7501,1268.2278],[125.8169,-8.7443,664.277],[125.8158,-8.7377,575.7734],[125.8187,-8.7309,487.6206],[125.8179,-8.7288,484.2072],[125.8155,-8.7302,593.152],[125.8073,-8.7373,993.7484],[125.8054,-8.745,1110.9348],[125.8082,-8.7486,1115.2451],[125.8085,-8.7521,1097.1864],[125.8108,-8.7535,1114.0354],[125.8136,-8.7532,1038.9467],[125.8194,-8.748,734.0429],[125.8215,-8.7532,846.1483],[125.8212,-8.7576,1035.7632],[125.8174,-8.7666,1229.7965],[125.8147,-8.7678,1189.7769],[125.8159,-8.773,1391.2351],[125.814,-8.7785,1608.7328],[125.8202,-8.7802,1544.4867],[125.8158,-8.7904,1644.6414],[125.8098,-8.7995,1488.962],[125.8086,-8.8054,1387.7485],[125.8041,-8.8085,1310.006],[125.8038,-8.8111,1310.139],[125.8005,-8.8128,1283.7256],[125.8002,-8.8146,1298.7573],[125.8028,-8.8178,1201.3665],[125.8042,-8.8233,921.3539],[125.8089,-8.8259,1051.4147],[125.8069,-8.8301,743.4957],[125.8086,-8.8326,747.6851],[125.8068,-8.8361,671.4227],[125.8123,-8.8403,645.0102],[125.8187,-8.8503,607.9138],[125.8229,-8.8529,597.0132],[125.826,-8.8593,570.9272],[125.8287,-8.8597,564.1255],[125.8307,-8.8651,534.8746],[125.8296,-8.8677,613.1926],[125.8307,-8.8686,542.3037],[125.8284,-8.8723,540.678],[125.83,-8.8715,524.8734],[125.8307,-8.8726,524.8734],[125.8282,-8.877,472.7813],[125.8297,-8.8775,472.7813],[125.8293,-8.8792,495.8635],[125.8354,-8.8822,446.9704],[125.8385,-8.878,619.6182],[125.8411,-8.8773,660.9509],[125.8436,-8.8788,756.9623],[125.8567,-8.8806,558.5676],[125.8569,-8.8749,536.2312],[125.8511,-8.8692,599.5976],[125.8523,-8.8656,624.0966],[125.8512,-8.862,647.7693],[125.8531,-8.8597,687.2928],[125.8501,-8.8568,777.4824],[125.8498,-8.853,783.6508],[125.8538,-8.8553,775.5979],[125.8635,-8.844,978.2466],[125.8653,-8.8443,1017.0842],[125.871,-8.841,1086.2778],[125.8748,-8.8423,1197.1003],[125.8788,-8.833,1255.2815],[125.8903,-8.8339,1191.2054],[125.8931,-8.838,1163.5212],[125.9012,-8.8359,963.1248],[125.9111,-8.8395,847.1102],[125.9187,-8.8399,842.4177],[125.919,-8.8415,812.6282],[125.9247,-8.8439,799.2009],[125.9271,-8.8433,793.7463],[125.9311,-8.8567,798.8624],[125.936,-8.8574,809.9957],[125.9371,-8.8634,600.6611],[125.9315,-8.8644,672.3491],[125.9137,-8.8782,328.952],[125.9098,-8.8789,364.8298],[125.9037,-8.8874,496.8526],[125.9036,-8.8907,455.1922],[125.9076,-8.8956,387.7802],[125.9163,-8.8987,317.4699],[125.9234,-8.9049,263.981],[125.9273,-8.9053,266.2291],[125.9274,-8.9076,255.8922],[125.9311,-8.908,227.9963],[125.9344,-8.912,204.5465],[125.9401,-8.9013,222.3767]]],
[[[125.9908,-8.7275,1022.1675],[125.992,-8.7249,1041.8593],[125.9875,-8.7183,1027.6223],[125.9881,-8.7152,953.2565],[125.9832,-8.7106,772.2398],[125.982,-8.7039,531.0921],[125.9772,-8.7018,477.0854],[125.9726,-8.7073,506.684],[125.9721,-8.7131,591.5736],[125.9679,-8.7204,590.3471],[125.9573,-8.7298,640.5938],[125.9567,-8.7348,695.4353],[125.9591,-8.7364,725.8824],[125.9633,-8.7458,901.4136],[125.9689,-8.7473,1043.5343],[125.9777,-8.7424,1212.9087],[125.9856,-8.7409,1425.4467],[125.9912,-8.7324,1094.9617],[125.9908,-8.7275,1022.1675]]]]}
,"properties": {"GID_2": "TLS.11.6_1","GID_0": "TLS","country": "Timor-Leste","GID_1": "TLS.11_1","province": "Manatuto","NL_NAME_1": "NA","county": "Soibada","VARNAME_2": "NA","NL_NAME_2": "NA","TYPE_2": "Subdistrito","ENGTYPE_2": "Subdistrict","CC_2": "NA","HASC_2": "NA","name": "Soibada.county","area_km2": 169.8524,"hist_schema_id": "Elevation0-9000","hist_area_km2": {"200": 0.1257,"225": 0.7122,"250": 1.2568,"275": 1.6549,"300": 2.032,"325": 3.0375,"350": 3.4356,"375": 3.6241,"400": 3.5195,"425": 3.708,"450": 3.4776,"475": 3.1215,"500": 3.4986,"525": 3.352,"550": 3.1007,"575": 3.415,"600": 3.1427,"625": 3.3731,"650": 3.3732,"675": 3.2475,"700": 4.1065,"725": 3.017,"750": 3.3313,"775": 3.9598,"800": 3.8551,"825": 3.9388,"850": 4.3789,"875": 3.499,"900": 3.6038,"925": 3.5619,"950": 3.3734,"975": 3.6876,"1000": 3.2267,"1025": 3.5619,"1050": 3.499,"1075": 3.2895,"1100": 2.8914,"1125": 3.3943,"1150": 3.7505,"1175": 3.101,"1200": 2.9334,"1225": 3.3105,"1250": 3.2267,"1275": 3.1429,"1300": 2.7867,"1325": 2.661,"1350": 3.2686,"1375": 2.7238,"1400": 2.3676,"1425": 1.8647,"1450": 2.1371,"1475": 2.0324,"1500": 1.3619,"1525": 1.4876,"1550": 1.5295,"1575": 1.1943,"1600": 1.1733,"1625": 1.1943,"1650": 0.8381,"1675": 0.6286,"1700": 0.3771,"1725": 0.2514,"1750": 0.1257}}}