{"type":"Feature","properties":{"GID_3":"TLS.8.1.14_1","GID_0":"TLS","country":"Timor-Leste","GID_1":"TLS.8_1","province":"Ermera","NL_NAME_1":"NA","GID_2":"TLS.8.1_1","county":"Atsabe","NL_NAME_2":"NA","city":"Tiarlelo","VARNAME_3":"Estado","NL_NAME_3":"NA","TYPE_3":"Suco","ENGTYPE_3":"Community","CC_3":"NA","HASC_3":"NA","name":"Tiarlelo.city"},
"geometry":{"type": "MultiPolygon","coordinates": [[[[125.4285,-8.7798,1605.2422],[125.424,-8.7838,1611.6311],[125.4205,-8.7842,1597.5391],[125.4177,-8.7884,1574.8126],[125.4142,-8.7885,1571.1191],[125.4127,-8.7908,1559.8657],[125.4096,-8.7911,1508.0913],[125.4065,-8.7875,1439.7743],[125.3994,-8.7893,1381.9741],[125.393,-8.7873,1368.8572],[125.3856,-8.7834,1337.3325],[125.3849,-8.7811,1339.6963],[125.3811,-8.7916,1354.1877],[125.3851,-8.8034,1645.1248],[125.3891,-8.8027,1686.2555],[125.3981,-8.8052,1520.7922],[125.4141,-8.7994,1394.9636],[125.4202,-8.8009,1258.4636],[125.4213,-8.8044,1195.6041],[125.4189,-8.8101,1133.3264],[125.4249,-8.8085,1164.3173],[125.4277,-8.8009,1157.7205],[125.4337,-8.7972,1154.4307],[125.4347,-8.7874,1207.6477],[125.4384,-8.7854,1183.2856],[125.4432,-8.7729,1243.8135],[125.4483,-8.7705,1214.0452],[125.447,-8.7675,1261.7018],[125.4496,-8.7652,1244.1554],[125.4465,-8.7640999999999991,1188.5325],[125.4356,-8.7713,1393.0334],[125.4323,-8.7746,1503.1475],[125.4308,-8.7795,1513.0291],[125.4285,-8.7798,1605.2422]]]]}}