{"type": "Feature","bbox": [124.2669,-9.4362,124.3313,-9.3701],"geometry": {"type": "MultiPolygon","coordinates": [[[[124.2764,-9.4362,456.4731],[124.2841,-9.4299,626.0881],[124.2933,-9.4288,728.3569],[124.307,-9.4207,877.1194],[124.3188,-9.4205,461.8333],[124.3313,-9.4239,650.3229],[124.3286,-9.4163,546.3672],[124.3253,-9.4122,472.6361],[124.3265,-9.4017,367.7408],[124.3214,-9.3947,279.0479],[124.324,-9.39,255.1736],[124.3193,-9.3836,240.5479],[124.3203,-9.3761,268.3932],[124.3188,-9.3722,291.6077],[124.3097,-9.3737,200.9108],[124.3058,-9.3701,195.1469],[124.2995,-9.3747,240.554],[124.2957,-9.3748,232.3982],[124.2947,-9.3805,288.0916],[124.2966,-9.3838,306.9794],[124.2948,-9.3848,337.3963],[124.2935,-9.3936,385.6053],[124.2946,-9.3981,408.7836],[124.2902,-9.4024,536.7191],[124.2876,-9.4086,564.0958],[124.2848,-9.4097,524.361],[124.2765,-9.4081,406.2074],[124.2745,-9.4096,386.929],[124.2669,-9.4074,346.1893],[124.2678,-9.4124,363.0437],[124.2698,-9.4112,361.9463],[124.2716,-9.4124,359.1027],[124.2711,-9.4146,382.0165],[124.274,-9.4204,379.3514],[124.2733,-9.424,389.0894],[124.2756,-9.4248,392.292],[124.2765,-9.4291,414.0624],[124.2764,-9.4315,429.2476],[124.274,-9.4334,427.6252],[124.2764,-9.4362,456.4731]]]]}
,"properties": {"GID_3": "TLS.3.1.1_1","GID_0": "TLS","country": "Timor-Leste","GID_1": "TLS.3_1","province": "Ambeno","NL_NAME_1": "NA","GID_2": "TLS.3.1_1","county": "Nitibe","NL_NAME_2": "NA","city": "Banafi","VARNAME_3": "NA","NL_NAME_3": "NA","TYPE_3": "Suco","ENGTYPE_3": "Community","CC_3": "NA","HASC_3": "NA","name": "Banafi.city","area_km2": 24.013,"hist_schema_id": "Elevation0-9000","hist_area_km2": {"200": 0.39746,"225": 0.60665,"250": 0.62756,"275": 0.85766,"300": 0.96225,"325": 0.89948,"350": 0.87856,"375": 1.38057,"400": 1.86164,"425": 1.7152,"450": 1.7152,"475": 1.69427,"500": 1.3596,"525": 1.27593,"550": 1.17134,"575": 0.94126,"600": 0.81575,"625": 0.60658,"650": 0.52292,"675": 0.46016,"700": 0.46017,"725": 0.56475,"750": 0.50199,"775": 0.3765,"800": 0.56474,"825": 0.29283,"850": 0.16733,"875": 0.10458,"900": 0.10458,"925": 0.04183,"950": 0.08366}}}