{"type": "Feature","bbox": [125.6227,-8.7447,125.648,-8.6964],"geometry": {"type": "MultiPolygon","coordinates": [[[[125.6423,-8.7398,841.2859],[125.6382,-8.7351,912.0161],[125.6394,-8.7246,1338.365],[125.6369,-8.7229,1368.9227],[125.6338,-8.7168,1383.2358],[125.648,-8.7014,956.1974],[125.6443,-8.6987,1022.0325],[125.636,-8.6964,1231.6182],[125.6298,-8.699,1270.8489],[125.6268,-8.6983,1262.3329],[125.6227,-8.7081,1296.0011],[125.629,-8.7255,1263.3662],[125.6233,-8.7331,1105.3378],[125.6236,-8.7387,958.5812],[125.6294,-8.7447,866.2717],[125.6356,-8.7393,856.2556],[125.6423,-8.7398,841.2859]]]]}
,"properties": {"GID_3": "TLS.1.3.6_1","GID_0": "TLS","country": "Timor-Leste","GID_1": "TLS.1_1","province": "Aileu","NL_NAME_1": "NA","GID_2": "TLS.1.3_1","county": "Lequidoe","NL_NAME_2": "NA","city": "Manukasa","VARNAME_3": "ManuCassa","NL_NAME_3": "NA","TYPE_3": "Suco","ENGTYPE_3": "Community","CC_3": "NA","HASC_3": "NA","name": "Manukasa.city","area_km2": 7.670352,"hist_schema_id": "Elevation0-9000","hist_area_km2": {"850": 0.31434,"875": 0.272428,"900": 0.188605,"925": 0.209562,"950": 0.125737,"975": 0.251479,"1000": 0.167656,"1025": 0.146698,"1050": 0.188611,"1075": 0.209571,"1100": 0.251486,"1125": 0.188617,"1150": 0.251487,"1175": 0.230531,"1200": 0.209575,"1225": 0.41915,"1250": 0.52394,"1275": 0.544898,"1300": 0.712557,"1325": 0.733516,"1350": 0.607772,"1375": 0.523938,"1400": 0.209576,"1425": 0.188619}}}