{"type": "Feature","bbox": [125.2748,-8.7294,125.3452,-8.692],"geometry": {"type": "MultiPolygon","coordinates": [[[[125.2756,-8.7251,150.9],[125.2801,-8.7235,156.7439],[125.2857,-8.7239,177.474],[125.2941,-8.7294,209.1625],[125.3017,-8.7276,290.9565],[125.3069,-8.7239,427.3675],[125.3135,-8.7256,629.9997],[125.3201,-8.7241,828.5028],[125.3356,-8.7268,1022.6366],[125.3408,-8.7099,614.7728],[125.3443,-8.708,538.272],[125.3452,-8.6988,376.2827],[125.3433,-8.697,378.9582],[125.3404,-8.6999,459.4265],[125.3381,-8.7,411.2059],[125.3387,-8.6964,317.0102],[125.3361,-8.695,291.9548],[125.3348,-8.6978,291.4871],[125.3313,-8.696,295.2734],[125.3216,-8.6995,255.2921],[125.3189,-8.6972,273.8964],[125.3217,-8.6951,265.1488],[125.3159,-8.692,237.9403],[125.3165,-8.6954,257.8678],[125.311,-8.6961,239.4619],[125.3107,-8.7009,213.5941],[125.3078,-8.7016,215.371],[125.3072,-8.7046,203.3221],[125.3008,-8.7039,214.1322],[125.2971,-8.7071,185.5169],[125.2921,-8.708,169.9891],[125.2891,-8.7136,205.0543],[125.2748,-8.7236,136.6224],[125.2756,-8.7251,150.9]]]]}
,"properties": {"GID_3": "TLS.8.3.13_1","GID_0": "TLS","country": "Timor-Leste","GID_1": "TLS.8_1","province": "Ermera","NL_NAME_1": "NA","GID_2": "TLS.8.3_1","county": "Hatólia","NL_NAME_2": "NA","city": "Urahou","VARNAME_3": "NA","NL_NAME_3": "NA","TYPE_3": "Suco","ENGTYPE_3": "Community","CC_3": "NA","HASC_3": "NA","name": "Urahou.city","area_km2": 17.16422,"hist_schema_id": "Elevation0-9000","hist_area_km2": {"125": 0.04191,"150": 0.2934,"175": 0.50298,"200": 0.60777,"225": 0.94309,"250": 0.90117,"275": 1.19458,"300": 1.00596,"325": 0.81735,"350": 0.73352,"375": 0.52394,"400": 0.5449,"425": 0.3982,"450": 0.52394,"475": 0.44011,"500": 0.44011,"525": 0.37724,"550": 0.64969,"575": 0.35628,"600": 0.29341,"625": 0.3982,"650": 0.48202,"675": 0.33532,"700": 0.41915,"725": 0.48202,"750": 0.37723,"775": 0.39819,"800": 0.23053,"825": 0.56585,"850": 0.20957,"875": 0.25149,"900": 0.37723,"925": 0.25149,"950": 0.23053,"975": 0.08383,"1000": 0.10478,"1025": 0.1467,"1050": 0.10478,"1075": 0.04191,"1125": 0.04191,"1150": 0.04191}}}