{"type":"Feature","properties":{"GID_3":"TLS.5.2.1_1","GID_0":"TLS","country":"Timor-Leste","GID_1":"TLS.5_1","province":"Bobonaro","NL_NAME_1":"NA","GID_2":"TLS.5.2_1","county":"Balibó","NL_NAME_2":"NA","city":"Atara,Balibo","VARNAME_3":"Balibo","NL_NAME_3":"NA","TYPE_3":"Suco","ENGTYPE_3":"Community","CC_3":"NA","HASC_3":"NA","name":"Atara,Balibo.city"},
"geometry":{"type": "MultiPolygon","coordinates": [[[[125.0236,-8.9776,427.8804],[125.0312,-8.9856,482.083],[125.0381,-8.9849,526.6802],[125.0483,-8.9933,583.7161],[125.0561,-8.9914,651.7356],[125.0705,-8.9769,667.5573],[125.0807,-8.9526,358.0054],[125.0835,-8.9515,327.4764],[125.0893,-8.9433,152.2336],[125.0797,-8.9419,191.8714],[125.0667,-8.9317,243.0179],[125.0582,-8.9306,363.3693],[125.0537,-8.9323,415.8949],[125.0509,-8.9296,473.6491],[125.0463,-8.9289,533.4959],[125.0446,-8.9316,493.9731],[125.0404,-8.9335,449.0875],[125.0338,-8.9465,472.2792],[125.027,-8.9514,310.8112],[125.0153,-8.956,138.6626],[125.0091,-8.9632,80.9388],[125.014,-8.9712,140.6809],[125.0227,-8.9726,193.8459],[125.0236,-8.9776,427.8804]]]]}}