{"type":"Feature","properties":{"GID_2":"TLS.12.2_1","GID_0":"TLS","country":"Timor-Leste","GID_1":"TLS.12_1","province":"Manufahi","NL_NAME_1":"NA","county":"FatoBerliu","VARNAME_2":"Fatuberliu","NL_NAME_2":"NA","TYPE_2":"Subdistrito","ENGTYPE_2":"Subdistrict","CC_2":"NA","HASC_2":"NA","name":"Fato_Berliu.county"},
"geometry":{"type": "MultiPolygon","coordinates": [[[[125.9838,-9.1079,14.9943],[125.9831,-9.111,0.0],[125.995,-9.1031,0.0],[126.015,-9.0842,14.3621],[126.0244,-9.0772,2.0265],[126.0269,-9.0731,1.5395],[126.0253,-9.0725,1.5],[126.0258,-9.0692,1.5],[126.0292,-9.0681,1.5],[126.0311,-9.0694,1.5],[126.0281,-9.0744,0.9596],[126.0431,-9.0658,3.391],[126.0587,-9.0596,1.3778],[126.0616,-9.0551,6.7616],[126.0586,-9.0507,5.3188],[126.0575,-9.0424,17.5922],[126.0541,-9.0421,14.4621],[126.0548,-9.036,25.8098],[126.0494,-9.0336,18.4088],[126.043,-9.0162,32.787],[126.035,-9.0151,24.5],[126.0336,-9.0097,32.9753],[126.0276,-9.0025,41.6074],[126.026,-8.9979,41.6776],[126.0209,-8.9954,47.0361],[126.0164,-8.9908,54.55],[126.0112,-8.9918,56.6649],[125.9987,-8.9862,72.9337],[125.996,-8.9823,75.3936],[125.9798,-8.9707,101.2468],[125.9758,-8.9684,102.1968],[125.9715,-8.9682,116.8413],[125.9566,-8.9607,139.2113],[125.9473,-8.951,156.2697],[125.9438,-8.9382,166.7219],[125.9399,-8.9391,176.3157],[125.9367,-8.938,181.515],[125.937,-8.933,219.1212],[125.9282,-8.9242,191.6218],[125.9344,-8.912,204.5465],[125.9311,-8.908,227.9963],[125.9274,-8.9076,255.8922],[125.9273,-8.9053,266.2291],[125.9234,-8.9049,263.981],[125.9139,-8.8973,336.5719],[125.9076,-8.8956,387.7802],[125.904,-8.8907,455.1922],[125.8949,-8.8872,598.21],[125.8877,-8.8881,707.3647],[125.8778,-8.8834,681.7558],[125.868,-8.8845,551.2913],[125.8586,-8.8808,504.7946],[125.8436,-8.8788,756.9623],[125.8411,-8.8773,660.9509],[125.8385,-8.878,619.6182],[125.8358,-8.8821,446.9704],[125.8309,-8.881,463.6884],[125.8282,-8.877,472.7813],[125.8307,-8.8726,524.8734],[125.83,-8.8715,524.8734],[125.8284,-8.8723,540.678],[125.8307,-8.8686,542.3037],[125.8287,-8.8597,564.1255],[125.8263,-8.8595,570.9272],[125.8229,-8.8529,597.0132],[125.8193,-8.8508,607.9138],[125.8168,-8.8534,713.2267],[125.8144,-8.8514,904.045],[125.8014,-8.8546,1178.7861],[125.799,-8.8661,1047.9075],[125.8014,-8.8779,916.4316],[125.7937,-8.8878,649.3306],[125.7634,-8.882,1266.1388],[125.759,-8.8892,858.1531],[125.7543,-8.888,796.7573],[125.7471,-8.8888,715.2362],[125.7441,-8.8914,670.2972],[125.7323,-8.8957,550.9648],[125.7292,-8.9026,569.9026],[125.732,-8.9068,483.3029],[125.7295,-8.9093,471.5322],[125.7252,-8.9089,456.7116],[125.7258,-8.9145,438.5693],[125.7236,-8.9153,448.2375],[125.7283,-8.9227,489.9941],[125.7261,-8.9262,453.3848],[125.7228,-8.9278,444.799],[125.7284,-8.9314,411.9439],[125.7279,-8.935,392.2444],[125.7304,-8.9355,381.4088],[125.7296,-8.9402,360.405],[125.7324,-8.9419,369.3506],[125.731,-8.9466,335.6464],[125.7276,-8.9473,332.6535],[125.7262,-8.95,372.2649],[125.7292,-8.9504,346.1813],[125.7288,-8.9541,313.152],[125.7243,-8.9571,317.6359],[125.7226,-8.9605,330.5552],[125.7233,-8.9641,305.8242],[125.7212,-8.9662,285.0617],[125.7209,-8.9721,300.164],[125.7225,-8.9754,267.5036],[125.7178,-8.9856,262.0828],[125.7187,-8.995,240.1797],[125.7145,-9.002,226.396],[125.7166,-9.0079,219.4382],[125.719,-9.0084,226.4876],[125.7342,-8.9962,281.6939],[125.7451,-8.995,332.1472],[125.7507,-8.9899,460.0302],[125.7525,-8.9901,471.2334],[125.7534,-8.9857,434.1909],[125.7508,-8.9841,431.4772],[125.7508,-8.981,430.8022],[125.7485,-8.9787,454.5711],[125.751,-8.9751,382.9805],[125.7568,-8.978,311.899],[125.7618,-8.9762,332.5878],[125.7601,-8.9737,332.8243],[125.763,-8.9675,371.4803],[125.7649,-8.9666,397.3668],[125.7634,-8.9583,459.8878],[125.7651,-8.9553,487.3766],[125.7625,-8.951,540.733],[125.7627,-8.9455,644.8099],[125.7599,-8.9422,643.7697],[125.7684,-8.9421,1021.3769],[125.7719,-8.947,952.1158],[125.7759,-8.9458,823.3906],[125.7919,-8.949,327.6599],[125.7898,-8.9461,339.0853],[125.7904,-8.9438,339.2544],[125.7945,-8.944,355.4934],[125.7946,-8.9398,363.3685],[125.80029999999999,-8.9395,367.5098],[125.8029,-8.9356,400.2999],[125.8089,-8.9357,427.0561],[125.8184,-8.9408,723.5112],[125.8227,-8.94,643.5928],[125.8273,-8.9417,543.7921],[125.8355,-8.9397,423.2706],[125.8443,-8.945,349.0915],[125.8453,-8.947,305.3795],[125.8495,-8.9467,302.3185],[125.8535,-8.9486,235.2054],[125.8462,-8.9584,233.5967],[125.8457,-8.9616,232.4926],[125.8471,-8.967,210.1355],[125.8505,-8.9707,205.5712],[125.8554,-8.9709,200.2107],[125.8578,-8.9725,196.0081],[125.8587,-8.9818,191.6029],[125.8637,-8.9975,165.2277],[125.8673,-8.9982,165.0894],[125.8856,-8.9952,142.37],[125.8942,-9.0026,127.5397],[125.906,-9.0051,121.1184],[125.9084,-9.0146,108.1334],[125.9108,-9.018,104.721],[125.9289,-9.0197,89.766],[125.9351,-9.031,78.7685],[125.9377,-9.045,64.322],[125.946,-9.0493,59.5052],[125.949,-9.0612,60.303],[125.9582,-9.0696,43.6875],[125.9591,-9.0768,32.6051],[125.9662,-9.0813,27.2725],[125.9777,-9.0959,14.0259],[125.9834,-9.1001,11.0459],[125.9838,-9.1079,14.9943]]]]}}