{"type": "Feature","bbox": [126.4575,-8.4863,126.5176,-8.4473],"geometry": {"type": "MultiPolygon","coordinates": [[[[126.4793,-8.483,253.7811],[126.4981,-8.4713,20.1972],[126.5055,-8.4724,17.4325],[126.5082,-8.471,9.4368],[126.5176,-8.4578,0.0],[126.5136,-8.4567,3.9142],[126.5044,-8.45,0.0],[126.494,-8.4473,2.7085],[126.4881,-8.4545,39.9768],[126.4873,-8.4671,82.9562],[126.4806,-8.4724,193.6767],[126.4745,-8.47,260.5747],[126.4668,-8.4586,280.8416],[126.4638,-8.4621,313.3619],[126.4637,-8.467,395.7336],[126.4575,-8.4863,459.5385],[126.471,-8.4856,358.0564],[126.4737,-8.4833,317.323],[126.4793,-8.483,253.7811]]]]}
,"properties": {"GID_3": "TLS.4.2.6_1","GID_0": "TLS","country": "Timor-Leste","GID_1": "TLS.4_1","province": "Baucau","NL_NAME_1": "NA","GID_2": "TLS.4.2_1","county": "Baucau","NL_NAME_2": "NA","city": "CaibadaUaimua","VARNAME_3": "Caibada","NL_NAME_3": "NA","TYPE_3": "Suco","ENGTYPE_3": "Community","CC_3": "NA","HASC_3": "NA","name": "Caibada_Uaimua.city","area_km2": 12.142257,"hist_schema_id": "Elevation0-9000","hist_area_km2": {"0": 3.061833,"25": 2.327836,"50": 0.985652,"75": 0.146798,"100": 0.25165,"125": 0.146796,"150": 0.209708,"175": 0.188736,"200": 0.209706,"225": 0.251647,"250": 0.440382,"275": 0.31456,"300": 0.650099,"325": 0.608155,"350": 0.524264,"375": 0.60815,"400": 0.461353,"425": 0.671053,"450": 0.083881}}}