{"type": "Feature","bbox": [126.5399,-8.5814,126.7656,-8.4249],"geometry": {"type": "MultiPolygon","coordinates": [[[[126.7023,-8.5766,599.5478],[126.7165,-8.5814,923.5704],[126.7255,-8.5803,1006.5104],[126.735,-8.576,921.4788],[126.7437,-8.5746,1003.2346],[126.757,-8.5684,1043.3622],[126.7605,-8.562,826.9692],[126.7656,-8.5569,834.3047],[126.758,-8.5533,624.1626],[126.7557,-8.548,516.7461],[126.7559,-8.5439,436.4519],[126.7481,-8.5312,289.9771],[126.7371,-8.5283,228.6538],[126.7322,-8.5252,199.4851],[126.7305,-8.5212,222.4591],[126.7253,-8.519,229.9199],[126.723,-8.52,205.2108],[126.7244,-8.5178,165.3879],[126.7225,-8.5114,152.6863],[126.7236,-8.503,155.3116],[126.7308,-8.5015,102.907],[126.7337,-8.4947,128.5739],[126.7417,-8.4954,83.0558],[126.7461,-8.4913,78.7289],[126.7407,-8.4919,111.45],[126.7367,-8.4873,149.7637],[126.7297,-8.4866,178.8256],[126.7166,-8.4799,456.6438],[126.7117,-8.4682,249.1899],[126.7126,-8.4658,261.5845],[126.7077,-8.4586,199.7682],[126.708,-8.4536,172.802],[126.7054,-8.4484,140.1233],[126.7073,-8.4454,141.5725],[126.7069,-8.4431,158.8166],[126.7029,-8.437,131.1545],[126.697,-8.4332,34.4423],[126.695,-8.4288,13.8775],[126.6954,-8.4249,2.9518],[126.6581,-8.4375,0.0],[126.6378,-8.451,0.4615],[126.6303,-8.4517,0.0],[126.6153,-8.4569,1.3083],[126.6082,-8.4604,1.2925],[126.5983,-8.4697,4.9476],[126.5944,-8.4692,0.0],[126.5898,-8.4712,0.0],[126.5817,-8.4703,0.4027],[126.568,-8.4822,0.7341],[126.565,-8.4828,0.0],[126.5609,-8.4809,0.2935],[126.56,-8.4961,31.0329],[126.5482,-8.5044,61.7383],[126.5399,-8.5229,97.357],[126.5409,-8.5302,108.4658],[126.5421,-8.5311,114.9893],[126.5474,-8.5284,153.3058],[126.5501,-8.5287,185.3223],[126.5571,-8.5358,322.0349],[126.5597,-8.535,353.6121],[126.5627,-8.5303,339.8836],[126.5723,-8.5235,216.6921],[126.5817,-8.523,177.1683],[126.5919,-8.5257,90.163],[126.5977,-8.5189,76.4057],[126.5987,-8.5143,67.4236],[126.6056,-8.5147,90.5619],[126.6076,-8.513,87.5464],[126.613,-8.5140999999999991,120.1238],[126.6155,-8.512,156.2054],[126.6242,-8.5109,251.1137],[126.627,-8.5155,276.2089],[126.6366,-8.5207,485.6119],[126.6442,-8.5296,749.7495],[126.6513,-8.5337,760.4495],[126.6569,-8.5392,861.8896],[126.6633,-8.5508,959.1751],[126.6787,-8.5576,570.6722],[126.6847,-8.5566,467.9585],[126.6899,-8.5616,411.0777],[126.6936,-8.5611,384.0064],[126.6968,-8.5654,444.0661],[126.6994,-8.5738,538.433],[126.7023,-8.5766,599.5478]]]]}
,"properties": {"GID_2": "TLS.4.3_1","GID_0": "TLS","country": "Timor-Leste","GID_1": "TLS.4_1","province": "Baucau","NL_NAME_1": "NA","county": "Laga","VARNAME_2": "NA","NL_NAME_2": "NA","TYPE_2": "Subdistrito","ENGTYPE_2": "Subdistrict","CC_2": "NA","HASC_2": "NA","name": "Laga.county","area_km2": 198.5775,"hist_schema_id": "Elevation0-9000","hist_area_km2": {"0": 6.8787,"25": 7.9061,"50": 9.4786,"75": 10.8625,"100": 8.472,"125": 8.2203,"150": 8.0944,"175": 8.4089,"200": 7.8218,"225": 6.291,"250": 6.5006,"275": 6.2699,"300": 6.2908,"325": 6.4795,"350": 5.8713,"375": 6.3955,"400": 6.8148,"425": 7.276,"450": 7.4229,"475": 7.3809,"500": 5.9341,"525": 6.1437,"550": 5.242,"575": 3.837,"600": 3.0402,"625": 2.516,"650": 2.2435,"675": 2.3064,"700": 2.0128,"725": 2.0128,"750": 1.8032,"775": 1.3838,"800": 1.5515,"825": 1.3628,"850": 1.6144,"875": 1.4257,"900": 1.5096,"925": 1.1112,"950": 1.0903,"975": 0.608,"1000": 0.4193,"1025": 0.2306,"1050": 0.0419}}}