{"type": "Feature","bbox": [125.3005,-9.0577,125.3634,-9.0206],"geometry": {"type": "MultiPolygon","coordinates": [[[[125.3388,-9.0577,372.7353],[125.3453,-9.0551,526.2588],[125.3597,-9.0534,577.4973],[125.3618,-9.0487,675.2148],[125.3604,-9.0398,742.2855],[125.3634,-9.0324,559.984],[125.3599,-9.0299,552.646],[125.3548,-9.0298,542.2466],[125.3527,-9.0329,535.2516],[125.347,-9.0328,499.2475],[125.3427,-9.035,473.8217],[125.3406,-9.0389,453.36],[125.3324,-9.0343,647.9767],[125.3192,-9.0308,970.7467],[125.3185,-9.0259,929.6628],[125.3126,-9.0206,765.7932],[125.301,-9.0291,1009.2803],[125.3005,-9.0301,1024.0154],[125.304,-9.0316,990.8182],[125.3113,-9.0302,934.7594],[125.3193,-9.047,635.8042],[125.3219,-9.0468,605.893],[125.328,-9.05,506.2953],[125.3319,-9.0549,452.0088],[125.3367,-9.0543,378.4246],[125.3388,-9.0577,372.7353]]]]}
,"properties": {"GID_3": "TLS.5.3.3_1","GID_0": "TLS","country": "Timor-Leste","GID_1": "TLS.5_1","province": "Bobonaro","NL_NAME_1": "NA","GID_2": "TLS.5.3_1","county": "Bobonaro","NL_NAME_2": "NA","city": "Bobonaro","VARNAME_3": "NA","NL_NAME_3": "NA","TYPE_3": "Suco","ENGTYPE_3": "Community","CC_3": "NA","HASC_3": "NA","name": "Bobonaro.city","area_km2": 12.458585,"hist_schema_id": "Elevation0-9000","hist_area_km2": {"375": 0.083752,"400": 0.272196,"425": 0.418767,"450": 0.565341,"475": 0.649094,"500": 0.502526,"525": 0.649099,"550": 0.774732,"575": 0.753794,"600": 0.816609,"625": 0.984118,"650": 0.858486,"675": 0.79567,"700": 0.77473,"725": 0.314082,"750": 0.439716,"775": 0.397843,"800": 0.293149,"825": 0.272211,"850": 0.31409,"875": 0.418789,"900": 0.355971,"925": 0.355971,"950": 0.209394,"975": 0.146576,"1000": 0.041879}}}