{"type": "Feature","bbox": [126.6503,-8.5814,126.7656,-8.528],"geometry": {"type": "MultiPolygon","coordinates": [[[[126.7043,-8.5776,610.2186],[126.7165,-8.5814,923.5704],[126.7255,-8.5803,1006.5104],[126.735,-8.576,921.4788],[126.7437,-8.5746,1003.2346],[126.757,-8.5684,1043.3622],[126.7605,-8.562,826.9692],[126.7656,-8.5569,834.3047],[126.758,-8.5533,624.1626],[126.7557,-8.548,516.7461],[126.7559,-8.5439,436.4519],[126.7481,-8.5312,289.9771],[126.7413,-8.5292,263.171],[126.7409,-8.5309,236.4229],[126.7361,-8.5331,302.2659],[126.7285,-8.5405,419.394],[126.7232,-8.5417,453.9225],[126.7134,-8.5361,278.0184],[126.7074,-8.5366,438.5992],[126.6974,-8.534,592.6892],[126.6856,-8.5349,760.7802],[126.6763,-8.5379,897.055],[126.6685,-8.528,891.3964],[126.6503,-8.5332,758.2697],[126.6584,-8.5411,977.7221],[126.6633,-8.5508,959.1751],[126.6787,-8.5576,570.6722],[126.6847,-8.5566,467.9585],[126.6899,-8.5616,411.0777],[126.6936,-8.5611,384.0064],[126.6968,-8.5654,444.0661],[126.6999,-8.5745,538.433],[126.7043,-8.5776,610.2186]]]]}
,"properties": {"GID_3": "TLS.4.3.1_1","GID_0": "TLS","country": "Timor-Leste","GID_1": "TLS.4_1","province": "Baucau","NL_NAME_1": "NA","GID_2": "TLS.4.3_1","county": "Laga","NL_NAME_2": "NA","city": "Atelari","VARNAME_3": "NA","NL_NAME_3": "NA","TYPE_3": "Suco","ENGTYPE_3": "Community","CC_3": "NA","HASC_3": "NA","name": "Atelari.city","area_km2": 41.19898,"hist_schema_id": "Elevation0-9000","hist_area_km2": {"225": 0.08387,"250": 0.50322,"275": 0.46128,"300": 0.67095,"325": 0.77578,"350": 0.77578,"375": 1.63541,"400": 1.94989,"425": 2.62081,"450": 2.22244,"475": 2.41113,"500": 1.82407,"525": 1.94986,"550": 2.11759,"575": 1.86599,"600": 1.84502,"625": 1.44666,"650": 1.29989,"675": 1.21603,"700": 1.1112,"725": 1.15313,"750": 1.09024,"775": 0.85962,"800": 1.11122,"825": 1.04832,"850": 1.44669,"875": 1.1951,"900": 1.23703,"925": 1.00639,"950": 0.98543,"975": 0.58705,"1000": 0.41932,"1025": 0.23063,"1050": 0.04193}}}