{"type": "Feature","bbox": [125.4295,-8.7232,125.4624,-8.6771],"geometry": {"type": "MultiPolygon","coordinates": [[[[125.4543,-8.7232,725.7216],[125.4581,-8.706,840.0087],[125.4616,-8.7005,977.0626],[125.4624,-8.6865,667.1754],[125.4505,-8.6773,601.7993],[125.4409,-8.6771,575.2117],[125.4365,-8.6792,554.1073],[125.4295,-8.6794,530.4431],[125.4308,-8.692,637.9983],[125.4367,-8.7003,747.9724],[125.4323,-8.7109,713.3247],[125.4399,-8.7116,696.3923],[125.4417,-8.7149,701.3152],[125.4446,-8.7142,703.9053],[125.4465,-8.7168,705.8596],[125.4464,-8.7232,732.1945],[125.4496,-8.7211,717.0134],[125.4543,-8.7232,725.7216]]]]}
,"properties": {"GID_3": "TLS.8.5.2_1","GID_0": "TLS","country": "Timor-Leste","GID_1": "TLS.8_1","province": "Ermera","NL_NAME_1": "NA","GID_2": "TLS.8.5_1","county": "Railaco","NL_NAME_2": "NA","city": "Fatukero","VARNAME_3": "Fatuquero","NL_NAME_3": "NA","TYPE_3": "Suco","ENGTYPE_3": "Community","CC_3": "NA","HASC_3": "NA","name": "Fatukero.city","area_km2": 12.365475,"hist_schema_id": "Elevation0-9000","hist_area_km2": {"550": 0.167675,"575": 0.230554,"600": 0.503022,"625": 0.565896,"650": 0.44014,"675": 0.565893,"700": 1.068876,"725": 1.571839,"750": 1.446111,"775": 0.859292,"800": 0.817371,"825": 0.838335,"850": 0.607794,"875": 0.775459,"900": 0.419168,"925": 0.52396,"950": 0.314377,"975": 0.293418,"1000": 0.251501,"1025": 0.104792}}}