{"type":"Feature","properties":{"GID_2":"TLS.13.5_1","GID_0":"TLS","country":"Timor-Leste","GID_1":"TLS.13_1","province":"Viqueque","NL_NAME_1":"NA","county":"Viqueque","VARNAME_2":"NA","NL_NAME_2":"NA","TYPE_2":"Subdistrito","ENGTYPE_2":"Subdistrict","CC_2":"NA","HASC_2":"NA","name":"Viqueque.county"},
"geometry":{"type": "MultiPolygon","coordinates": [[[[126.2892,-8.8303,96.7939],[126.2829,-8.822,111.0691],[126.2842,-8.8108,107.8892],[126.2808,-8.808,108.3422],[126.2705,-8.7914,124.2114],[126.2681,-8.7787,155.8965],[126.271,-8.7667,214.3571],[126.2691,-8.7634,225.3839],[126.2663,-8.7624,318.8719],[126.2645,-8.7568,379.7419],[126.26,-8.7547,381.6367],[126.2544,-8.7467,381.1805],[126.2557,-8.7418,433.9786],[126.2554,-8.7225,500.7329],[126.2532,-8.7144,434.1197],[126.2562,-8.6987,317.9255],[126.2551,-8.6935,305.8048],[126.2529,-8.6931,340.9306],[126.2565,-8.6894,320.3845],[126.2517,-8.6846,286.4302],[126.2456,-8.6881,279.9343],[126.2458,-8.6857,274.7675],[126.2394,-8.686,262.3231],[126.2404,-8.6842,264.2946],[126.2379,-8.6827,270.8903],[126.2342,-8.6853,260.3068],[126.2325,-8.6828,265.009],[126.2278,-8.6907,248.1838],[126.2289,-8.6958,243.0059],[126.2266,-8.6974,242.0056],[126.2212,-8.6975,242.3905],[126.2226,-8.7062,319.8564],[126.2286,-8.7116,424.7838],[126.2292,-8.723,606.7779],[126.2316,-8.7262,683.043],[126.2275,-8.7316,648.3672],[126.2286,-8.7441,520.8005],[126.2256,-8.7499,766.1193],[126.2307,-8.7613,398.9025],[126.2284,-8.7682,322.0464],[126.2215,-8.775,556.8932],[126.2242,-8.7823,489.1884],[126.2235,-8.7873,558.8214],[126.225,-8.7921,762.2998],[126.2212,-8.8024,587.7252],[126.2227,-8.8093,725.5145],[126.2197,-8.8159,617.7196],[126.2259,-8.8296,227.1909],[126.2238,-8.8387,211.2092],[126.2255,-8.8456,192.2424],[126.2245,-8.8529,234.0409],[126.2311,-8.8591,172.0242],[126.2318,-8.8637,138.7844],[126.2387,-8.8671,101.3445],[126.2408,-8.8698,155.673],[126.239,-8.8773,110.0667],[126.2371,-8.8792,87.3647],[126.2374,-8.8825,72.2145],[126.2357,-8.8828,72.2145],[126.2379,-8.8846,72.684],[126.2428,-8.9016,209.976],[126.2336,-8.9068,82.665],[126.2281,-8.9027,53.3735],[126.2202,-8.9022,39.798],[126.2182,-8.8881,49.0088],[126.2165,-8.8883,52.7504],[126.214,-8.8856,49.9728],[126.2044,-8.8848,101.6768],[126.1905,-8.8912,128.1057],[126.1253,-8.9308,40.1849],[126.1231,-8.9356,31.1812],[126.1152,-8.9402,35.0882],[126.1103,-8.9478,37.9034],[126.1177,-8.9487,36.8551],[126.1199,-8.9516,35.8778],[126.1253,-8.9527,34.676],[126.1321,-8.962,30.4952],[126.1367,-8.9619,25.0017],[126.1385,-8.9666,37.995],[126.142,-8.9663,30.2369],[126.1416,-8.9689,26.8331],[126.1448,-8.9697,24.8414],[126.1427,-8.9733,35.0128],[126.1443,-8.9766,32.2483],[126.1428,-8.9779,32.2483],[126.1438,-8.9831,24.2291],[126.1479,-8.9831,20.9734],[126.1503,-8.9851,21.5021],[126.1492,-8.9868,15.7201],[126.1506,-8.9896,10.3322],[126.1547,-8.9904,1.8407],[126.1869,-8.9769,2.4342],[126.2011,-8.9739,4.3781],[126.2367,-8.9758,4.1504],[126.2797,-8.9819,0.0],[126.3045,-8.9824,3.1944],[126.3092,-8.9794,8.516],[126.3642,-8.9594,13.1764],[126.4067,-8.9478,5.5107],[126.4183,-8.9467,0.0],[126.4274,-8.9498,0.0],[126.4347,-8.9467,6.5609],[126.4446,-8.9486,2.2222],[126.4508,-8.9472,5.2077],[126.4531,-8.9506,1.0034],[126.4565,-8.9514,0.0],[126.4686,-8.9476,7.1943],[126.4799,-8.9462,9.425],[126.4844,-8.9422,0.0],[126.4849,-8.9396,0.0],[126.4967,-8.9306,0.0],[126.5089,-8.9017,1.9044],[126.5192,-8.8881,0.0],[126.5265,-8.8748,0.0],[126.5249,-8.8757,3.8132],[126.5238,-8.8739,5.2429],[126.5184,-8.8727,12.2765],[126.5185,-8.8701,6.5737],[126.5111,-8.866,14.8146],[126.5109,-8.8619,18.7064],[126.5092,-8.8613,18.7064],[126.5096,-8.8592,20.7783],[126.508,-8.8576,26.5109],[126.5028,-8.8544,28.3292],[126.501,-8.8556,21.7799],[126.5007,-8.8534,29.183],[126.4988,-8.8548,20.5579],[126.4939,-8.8418,126.9827],[126.4901,-8.8404,163.2866],[126.4844,-8.8337,122.492],[126.4846,-8.8277,160.0419],[126.4767,-8.8216,199.784],[126.477,-8.8166,169.9614],[126.4788,-8.8147,121.3795],[126.4762,-8.8134,109.1149],[126.4593,-8.8148,147.738],[126.4575,-8.8138,143.7836],[126.4408,-8.8198,353.0731],[126.4374,-8.824,343.0735],[126.4293,-8.8273,342.7365],[126.42529999999999,-8.8268,289.1049],[126.4196,-8.8223,206.2899],[126.4132,-8.8258,181.0528],[126.4112,-8.8247,163.0527],[126.4037,-8.8266,222.2277],[126.3935,-8.8256,151.2687],[126.387,-8.8284,134.7362],[126.3777,-8.8373,97.0299],[126.3729,-8.8335,69.5301],[126.3673,-8.8341,80.2464],[126.3348,-8.8296,256.5558],[126.3263,-8.832,241.9935],[126.3191,-8.832,313.3816],[126.2997,-8.8275,140.4969],[126.2917,-8.8309,103.6321],[126.2892,-8.8303,96.7939]]]]}}