{"type": "Feature","bbox": [125.4232,-8.7515,125.4492,-8.711],"geometry": {"type": "MultiPolygon","coordinates": [[[[125.4451,-8.7514,926.6401],[125.4492,-8.7411,766.6665],[125.4485,-8.737,757.141],[125.4435,-8.7328,738.8564],[125.4397,-8.7245,719.5327],[125.4363,-8.7214,707.0056],[125.4367,-8.711,689.128],[125.433,-8.7112,698.6468],[125.4316,-8.7132,683.7014],[125.4232,-8.7169,672.0721],[125.4267,-8.7215,683.6301],[125.4288,-8.7318,707.555],[125.4318,-8.7362,736.8792],[125.4307,-8.7467,762.168],[125.4333,-8.7515,862.8492],[125.4451,-8.7514,926.6401]]]]}
,"properties": {"GID_3": "TLS.8.2.8_1","GID_0": "TLS","country": "Timor-Leste","GID_1": "TLS.8_1","province": "Ermera","NL_NAME_1": "NA","GID_2": "TLS.8.2_1","county": "Ermera","NL_NAME_2": "NA","city": "Riheu","VARNAME_3": "NA","NL_NAME_3": "NA","TYPE_3": "Suco","ENGTYPE_3": "Community","CC_3": "NA","HASC_3": "NA","name": "Riheu.city","area_km2": 6.64317,"hist_schema_id": "Elevation0-9000","hist_area_km2": {"675": 0.419145,"700": 1.802304,"725": 0.544869,"750": 0.649645,"775": 0.670596,"800": 0.31434,"825": 0.481986,"850": 0.523899,"875": 0.39816,"900": 0.377203,"925": 0.314335,"950": 0.104778,"975": 0.041911}}}