{"type": "Feature","bbox": [126.695,-8.7606,127.3425,-8.3219],"geometry": {"type": "MultiPolygon","coordinates": [[[[126.804,-8.7551,1.3415],[126.8116,-8.7565,8.8204],[126.8149,-8.7601,0.0],[126.8217,-8.7606,4.0718],[126.8278,-8.7565,2.6951],[126.8527,-8.7508,0.7941],[126.8665,-8.7436,1.4668],[126.8732,-8.7349,6.5829],[126.8764,-8.7334,0.0],[126.8924,-8.7181,1.5798],[126.9061,-8.7111,10.8503],[126.9161,-8.7106,0.7484],[126.9227,-8.703,0.0],[126.9339,-8.6939,3.2804],[126.9447,-8.6878,12.8852],[126.9508,-8.6872,4.6668],[126.9569,-8.6824,6.2588],[126.9766,-8.6792,9.6579],[126.9819,-8.6811,14.0673],[126.9885,-8.6797,0.0],[126.9961,-8.6825,5.949],[127.0025,-8.6819,2.3138],[127.0094,-8.6858,0.0],[127.0136,-8.6858,0.0],[127.0192,-8.6806,0.0],[127.0256,-8.6658,0.0],[127.0319,-8.6589,3.1762],[127.0511,-8.6442,2.3671],[127.07,-8.6178,1.6679],[127.0811,-8.6075,0.0],[127.0878,-8.5978,0.0],[127.1028,-8.5864,0.0],[127.1097,-8.5767,9.4239],[127.1272,-8.5658,2.8779],[127.1325,-8.5586,3.0828],[127.1403,-8.5567,0.0],[127.145,-8.5508,7.4479],[127.1553,-8.5464,0.0],[127.1575,-8.5431,0.0],[127.16,-8.5436,0.0],[127.1661,-8.5403,0.0],[127.174,-8.5327,1.3433],[127.1834,-8.5294,0.0],[127.1939,-8.5214,0.0],[127.2064,-8.5108,15.7619],[127.2121,-8.4974,9.3068],[127.2267,-8.4869,7.9251],[127.2306,-8.4792,5.1585],[127.248,-8.4731,0.0],[127.2581,-8.4661,2.1179],[127.2606,-8.4617,2.8997],[127.2636,-8.4611,6.2615],[127.2678,-8.4558,19.5818],[127.2694,-8.4478,58.7851],[127.2761,-8.4405,38.7065],[127.2828,-8.4375,5.7163],[127.2931,-8.4369,0.0],[127.3011,-8.4311,15.5917],[127.3019,-8.4178,0.0],[127.2992,-8.4086,0.0],[127.2981,-8.3939,0.0],[127.2922,-8.3889,5.2536],[127.2861,-8.3886,27.418],[127.2822,-8.3861,0.0],[127.2783,-8.3881,46.9947],[127.2719,-8.3878,4.5731],[127.2692,-8.385,22.7731],[127.2561,-8.385,37.6878],[127.2422,-8.3786,13.0936],[127.2324,-8.378,63.5553],[127.2197,-8.3667,5.0752],[127.2133,-8.3572,0.0],[127.2044,-8.3489,49.0122],[127.2019,-8.3408,0.0],[127.1944,-8.3353,6.9462],[127.1853,-8.3361,0.0],[127.18,-8.3339,0.0],[127.1617,-8.3469,26.4927],[127.1517,-8.3581,26.6807],[127.1353,-8.3653,3.9739],[127.1186,-8.3664,15.626],[127.1158,-8.3681,8.462],[127.1053,-8.3675,0.0],[127.0997,-8.3656,0.0],[127.0897,-8.3667,5.0448],[127.0839,-8.3631,0.8899],[127.0806,-8.3644,0.0],[127.0642,-8.3633,9.3271],[127.0472,-8.3436,5.4011],[127.0361,-8.3392,0.0],[127.0311,-8.3408,3.2859],[127.0236,-8.3381,10.1506],[127.0111,-8.3275,3.5097],[127.0006,-8.3219,0.0],[126.9606,-8.3267,5.5418],[126.9489,-8.3331,3.6748],[126.9331,-8.3381,5.5504],[126.9045,-8.3614,7.4997],[126.8942,-8.3656,1.9484],[126.8869,-8.3706,1.1192],[126.8812,-8.3699,5.3409],[126.8753,-8.3722,0.0],[126.8561,-8.3825,0.0],[126.8456,-8.3911,0.0],[126.8364,-8.3956,1.8597],[126.8314,-8.3961,0.0],[126.8272,-8.4003,6.3087],[126.8214,-8.4008,0.0],[126.8126,-8.4059,0.0],[126.8008,-8.4056,0.0],[126.795,-8.4083,0.0],[126.7861,-8.4178,0.0],[126.7761,-8.4181,3.92],[126.7672,-8.4222,2.7776],[126.7578,-8.4206,3.2389],[126.7453,-8.4136,1.8113],[126.7367,-8.4033,1.13],[126.7319,-8.4028,0.0],[126.7276,-8.4044,0.0],[126.7189,-8.4111,0.0],[126.715,-8.4119,1.4858],[126.7075,-8.4192,0.0],[126.6958,-8.4244,0.0],[126.695,-8.4288,13.8775],[126.697,-8.4332,34.4423],[126.7029,-8.437,131.1545],[126.7069,-8.4431,158.8166],[126.7073,-8.4454,141.5725],[126.7054,-8.4484,140.1233],[126.708,-8.4536,172.802],[126.7077,-8.4586,199.7682],[126.7126,-8.4658,261.5845],[126.7117,-8.4682,249.1899],[126.7166,-8.4799,456.6438],[126.7297,-8.4866,178.8256],[126.7367,-8.4873,149.7637],[126.7407,-8.4919,111.45],[126.7461,-8.4913,78.7289],[126.7417,-8.4954,83.0558],[126.7337,-8.4947,128.5739],[126.7308,-8.5015,102.907],[126.7236,-8.503,155.3116],[126.7225,-8.5114,152.6863],[126.7244,-8.5178,165.3879],[126.723,-8.52,205.2108],[126.7253,-8.519,229.9199],[126.7305,-8.5212,222.4591],[126.7322,-8.5252,199.4851],[126.7371,-8.5283,228.6538],[126.7481,-8.5312,289.9771],[126.7559,-8.5439,436.4519],[126.7557,-8.548,516.7461],[126.758,-8.5533,624.1626],[126.7825,-8.566,1054.7919],[126.7858,-8.577,717.2563],[126.7855,-8.5819,593.2611],[126.7926,-8.5844,450.6729],[126.7945,-8.5877,410.8523],[126.7968,-8.5877,385.4034],[126.8014,-8.5925,349.2875],[126.8045,-8.599,236.1837],[126.8087,-8.599,189.4234],[126.8104,-8.6045,192.0892],[126.8092,-8.6071,175.7079],[126.8122,-8.613,168.683],[126.8084,-8.6166,166.5871],[126.8103,-8.6174,179.8055],[126.8103,-8.6216,152.0017],[126.8063,-8.6199,169.4652],[126.7972,-8.6229,168.2827],[126.7925,-8.6222,147.1389],[126.7867,-8.6234,182.6799],[126.7814,-8.6271,112.7388],[126.7747,-8.6394,94.2032],[126.766,-8.6464,80.7775],[126.7661,-8.6504,80.5018],[126.7638,-8.6531,90.5387],[126.765,-8.6557,73.8758],[126.7596,-8.6577,81.3605],[126.7548,-8.6568,72.2657],[126.7475,-8.6655,78.3005],[126.7456,-8.6734,56.8911],[126.7413,-8.6775,47.462],[126.7417,-8.6799,72.9467],[126.739,-8.6815,41.8097],[126.7364,-8.6863,44.4894],[126.734,-8.6853,36.7279],[126.7299,-8.6871,33.3144],[126.73,-8.696,39.7256],[126.7277,-8.6989,43.4418],[126.7302,-8.7009,40.3841],[126.729,-8.7056,24.327],[126.7308,-8.7101,30.0619],[126.7288,-8.7134,19.7398],[126.7354,-8.7215,33.7957],[126.732,-8.7286,13.1904],[126.7339,-8.7298,18.7187],[126.7373,-8.7288,22.318],[126.7385,-8.7305,25.4982],[126.7384,-8.7374,14.3125],[126.7348,-8.7413,9.9846],[126.7371,-8.7468,18.129],[126.7351,-8.7486,2.9194],[126.7342,-8.7539,7.2845],[126.7387,-8.7578,10.1855],[126.75,-8.7514,0.0],[126.7608,-8.7475,4.1438],[126.7748,-8.7473,7.3881],[126.7781,-8.7488,0.0],[126.7822,-8.7542,0.0],[126.7878,-8.7536,0.0],[126.7937,-8.7565,0.0],[126.804,-8.7551,1.3415]]],
[[[127.3267,-8.4136,7.3982],[127.3236,-8.4111,0.0],[127.3169,-8.4114,12.3281],[127.3103,-8.4158,0.0],[127.3081,-8.4203,6.1007999999999996],[127.3078,-8.4281,13.8571],[127.3086,-8.4356,0.0],[127.3107,-8.4379,4.0283],[127.3197,-8.4461,1.6688],[127.3289,-8.4483,0.0],[127.3325,-8.4442,5.6351],[127.3386,-8.4431,0.0],[127.3408,-8.4411,0.0],[127.3425,-8.4375,0.0],[127.3422,-8.4331,2.9687],[127.3369,-8.4203,0.0],[127.3314,-8.4147,6.2767],[127.3267,-8.4136,7.3982]]]]}
,"properties": {"GID_1": "TLS.9_1","GID_0": "TLS","country": "Timor-Leste","province": "Lautém","VARNAME_1": "NA","NL_NAME_1": "NA","TYPE_1": "Distrito","ENGTYPE_1": "District","CC_1": "NA","HASC_1": "TP.BT","ISO_1": "NA","name": "Lautém.province","area_km2": 1817.171,"hist_schema_id": "Elevation0-9000","hist_area_km2": {"0": 36.297,"25": 75.254,"50": 80.058,"75": 73.136,"100": 73.742,"125": 75.711,"150": 78.71,"175": 80.448,"200": 79.316,"225": 75.48,"250": 76.131,"275": 70.826,"300": 67.535,"325": 113.885,"350": 154.064,"375": 125.984,"400": 103.571,"425": 85.369,"450": 75.807,"475": 51.461,"500": 39.928,"525": 31.793,"550": 25.313,"575": 21.643,"600": 10.024,"625": 6.018,"650": 4.529,"675": 3.816,"700": 3.585,"725": 3.145,"750": 2.83,"775": 2.285,"800": 1.719,"825": 1.006,"850": 1.111,"875": 0.923,"900": 0.755,"925": 0.985,"950": 0.692,"975": 0.692,"1000": 0.398,"1025": 0.566,"1050": 0.231,"1075": 0.252,"1100": 0.063,"1150": 0.021,"1175": 0.042,"1200": 0.021}}}