{"type":"Feature","properties":{"ISO3166-1-Alpha-3":"TLS","country":"East Timor","fill":"#FF0","id":"553","name":"Lautem"},
"geometry":{"type": "Polygon","coordinates": [[[126.72837,-8.76099,0.0],[126.8462,-8.75254,10.0631],[126.87485,-8.73846,0.0],[126.93922,-8.69215,0.0],[127.00929,-8.67669,32.156],[127.02117,-8.67571,1.124],[127.02801,-8.66546,0.0],[127.09262,-8.60312,0.0],[127.18434,-8.53232,0.0],[127.23015,-8.48659,0.0],[127.30323,-8.43231,0.0],[127.31324,-8.41522,9.7935],[127.306,-8.3952,0.0],[127.28688,-8.38242,0.0],[127.24155,-8.37021,0.0],[127.22039,-8.3576,0.0],[127.21363,-8.34783,0.0],[127.21095,-8.33904,0.0],[127.20607,-8.33261,0.0],[127.19313,-8.32977,0.0],[127.18629,-8.33245,0.0],[127.15553,-8.35418,10.9121],[127.13795,-8.36273,0.0],[127.11362,-8.365,0.0],[127.08888,-8.36273,0.0],[127.06959,-8.3576,0.0],[126.99928,-8.32415,7.2784],[126.9839,-8.31292,0.0],[126.96705,-8.30901,0.0],[126.94459,-8.31862,0.0],[126.84213,-8.39105,0.0],[126.79933,-8.41009,8.6301],[126.75554,-8.41912,0.0],[126.7483,-8.41806,30.8332],[126.73129,-8.41277,6.8525],[126.72023,-8.41286,7.7398],[126.71209,-8.4166,4.3313],[126.69313,-8.42986,19.9926],[126.6882,-8.43119,9.2924],[126.68822,-8.43122,9.2924],[126.70341,-8.45339,205.4805],[126.71064,-8.4784,352.1146],[126.7216,-8.48977,205.0486],[126.73752,-8.49927,88.8457],[126.73483,-8.51622,289.1389],[126.72635,-8.52966,319.0103],[126.74144,-8.54434,286.7151],[126.77658,-8.57596,838.5513],[126.80428,-8.60387,243.173],[126.81172,-8.6202,157.8515],[126.79932,-8.63033,160.3106],[126.77224,-8.65017,116.7238],[126.75136,-8.67993,139.2116],[126.73896,-8.69647,44.6155],[126.73545,-8.70123,120.4771],[126.72821,-8.72624,25.0142],[126.72837,-8.76096,0.0],[126.72837,-8.76099,0.0]]]}}