{"type": "Feature","bbox": [125.8101,-8.8907,126.0216,-8.6111],"geometry": {"type": "MultiPolygon","coordinates": [[[[125.8566,-8.8782,542.5295],[125.8567,-8.8806,558.5676],[125.8608,-8.8827,628.4823],[125.8685,-8.8846,510.4871],[125.8778,-8.8834,681.7558],[125.8877,-8.8881,707.3647],[125.8949,-8.8872,598.21],[125.9036,-8.8907,455.1922],[125.9037,-8.8874,496.8526],[125.9098,-8.8789,364.8298],[125.9137,-8.8782,328.952],[125.9315,-8.8644,672.3491],[125.9368,-8.8642,641.2316],[125.9368,-8.8601,718.4753],[125.936,-8.8574,809.9957],[125.9311,-8.8567,798.8624],[125.9271,-8.8433,793.7463],[125.9247,-8.8439,799.2009],[125.919,-8.8415,812.6282],[125.9187,-8.8399,842.4177],[125.9111,-8.8395,847.1102],[125.9012,-8.8359,963.1248],[125.8931,-8.838,1163.5212],[125.8903,-8.8339,1191.2054],[125.8788,-8.833,1255.2815],[125.8748,-8.8423,1197.1003],[125.871,-8.841,1086.2778],[125.8653,-8.8443,1017.0842],[125.8635,-8.844,978.2466],[125.8538,-8.8553,775.5979],[125.8498,-8.853,783.6508],[125.8501,-8.8568,777.4824],[125.8531,-8.8597,687.2928],[125.8512,-8.862,647.7693],[125.8523,-8.8656,624.0966],[125.8511,-8.8692,599.5976],[125.8569,-8.8749,536.2312],[125.8566,-8.8782,542.5295]]],
[[[125.9566,-8.8323,363.1702],[125.9617,-8.833,420.6343],[125.9651,-8.828,467.0093],[125.9692,-8.8267,524.5965],[125.9705,-8.8243,574.8926],[125.9773,-8.8204,711.0482],[125.9776,-8.8161,784.1486],[125.9826,-8.81,994.7263],[125.9995,-8.7986,813.9265],[126.0181,-8.7964,402.1711],[126.0216,-8.7939,385.2462],[126.0182,-8.7874,488.8158],[126.0207,-8.7686,987.342],[126.0149,-8.7612,1087.1353],[126.0166,-8.7575,1079.9908],[126.0149,-8.7563,1156.8685],[126.0159,-8.7496,1160.6467],[126.0171,-8.7451,1217.9783],[126.0192,-8.7443,1148.1929],[126.0189,-8.7413,1121.3081],[126.009,-8.7456,1081.3091],[126.0035,-8.7463,1031.6021],[125.9976,-8.7404,1033.353],[125.9968,-8.7335,1038.7468],[125.9912,-8.7284,1038.2823],[125.99,-8.7354,1267.66],[125.9854,-8.7412,1425.4467],[125.9823,-8.7409,1382.8003],[125.9803,-8.7428,1263.4595],[125.9777,-8.7424,1212.9087],[125.9666,-8.7473,1006.8948],[125.9633,-8.7458,901.4136],[125.9591,-8.7364,725.8824],[125.9567,-8.7348,695.4353],[125.9573,-8.7298,640.5938],[125.9684,-8.7197,590.3471],[125.9721,-8.7131,591.5736],[125.9726,-8.7073,506.684],[125.9818,-8.6949,445.7758],[125.9798,-8.6931,434.5393],[125.9881,-8.6827,387.9036],[125.9852,-8.6738,345.9213],[125.9826,-8.6715,354.9727],[125.9846,-8.6693,370.3753],[125.9819,-8.6654,354.7417],[125.9832,-8.6595,289.4669],[125.9819,-8.6429,241.7122],[125.9772,-8.6316,214.8684],[125.9801,-8.6219,192.2476],[125.9768,-8.6154,194.4058],[125.968,-8.6111,160.3565],[125.9683,-8.6139,162.1558],[125.9644,-8.6169,189.0156],[125.9598,-8.6183,187.2324],[125.9583,-8.6164,202.1156],[125.9561,-8.6176,201.8244],[125.9581,-8.6194,201.6412],[125.9553,-8.6194,258.7876],[125.9543,-8.6224,209.942],[125.9513,-8.623,246.9589],[125.9533,-8.6262,244.6652],[125.9516,-8.6283,278.4499],[125.9437,-8.6282,257.4143],[125.9376,-8.6323,267.6433],[125.9355,-8.6355,271.9394],[125.9352,-8.6411,282.7845],[125.9211,-8.6391,400.3777],[125.9163,-8.6432,511.8284],[125.9075,-8.6435,306.4589],[125.9034,-8.6471,333.6319],[125.9014,-8.6469,379.5848],[125.9029,-8.6488,385.4166],[125.9012,-8.6501,379.3226],[125.9033,-8.6513,370.8423],[125.9038,-8.6559,375.1088],[125.8975,-8.6659,421.7061],[125.8961,-8.672,443.3974],[125.8978,-8.6741,434.7359],[125.8964,-8.6769,460.082],[125.8919,-8.6753,466.3654],[125.8801,-8.684,500.3159],[125.8793,-8.6913,559.4675],[125.8757,-8.6925,567.0154],[125.8693,-8.6998,729.3934],[125.8664,-8.7079,904.3052],[125.8547,-8.6982,446.1614],[125.8549,-8.695,422.552],[125.8566,-8.6952,422.552],[125.8598,-8.6916,392.8926],[125.8572,-8.6861,341.6392],[125.8572,-8.6802,321.2469],[125.8611,-8.6706,312.666],[125.8583,-8.6681,260.1245],[125.8533,-8.6672,243.0967],[125.8498,-8.6611,218.0798],[125.8414,-8.6623,225.7168],[125.8383,-8.6644,227.3843],[125.8368,-8.6677,230.5887],[125.8332,-8.6681,236.2823],[125.8114,-8.6807,286.2746],[125.8141,-8.6852,275.0384],[125.812,-8.695,304.1796],[125.8125,-8.7081,315.8904],[125.8101,-8.7135,338.9473],[125.8187,-8.7309,487.6206],[125.8158,-8.7377,575.7734],[125.8169,-8.7443,664.277],[125.8308,-8.7501,1268.2278],[125.8335,-8.7584,1359.8114],[125.8363,-8.7621,1418.8468],[125.8426,-8.7682,1246.5709],[125.8494,-8.77,1074.3833],[125.8491,-8.7734,1061.0535],[125.8509,-8.7756,1033.0565],[125.8519,-8.7744,1089.4086],[125.8525,-8.7763,1094.844],[125.8544,-8.7752,1038.2524],[125.8557,-8.7772,1010.2444],[125.856,-8.7762,1041.724],[125.8586,-8.7791,996.5382],[125.8572,-8.781,1016.5631],[125.8583,-8.7823,990.6584],[125.8606,-8.7793,967.4333],[125.8653,-8.7812,936.0894],[125.8671,-8.785,878.8554],[125.8714,-8.7843,880.4286],[125.8738,-8.7867,859.9103],[125.88,-8.7873,854.5331],[125.8808,-8.7899,867.9957],[125.885,-8.7905,809.2903],[125.8857,-8.7932,776.108],[125.8893,-8.7954,785.168],[125.8931,-8.7959,783.8928],[125.8956,-8.798,829.9917],[125.8984,-8.7974,772.3182],[125.8975,-8.8033,792.3593],[125.9066,-8.8064,673.8606],[125.9066,-8.8116,685.5302],[125.9119,-8.8155,662.5963],[125.9132,-8.8143,637.7678],[125.915,-8.8183,611.8865],[125.9193,-8.8201,589.8605],[125.919,-8.8231,586.9421],[125.9219,-8.8265,573.467],[125.9391,-8.8345,485.0625],[125.9435,-8.8331,456.3059],[125.9465,-8.8352,461.4026],[125.9526,-8.8317,385.6779],[125.9566,-8.8323,363.1702]]]]}
,"properties": {"GID_2": "TLS.11.3_1","GID_0": "TLS","country": "Timor-Leste","GID_1": "TLS.11_1","province": "Manatuto","NL_NAME_1": "NA","county": "Laclubar","VARNAME_2": "NA","NL_NAME_2": "NA","TYPE_2": "Subdistrito","ENGTYPE_2": "Subdistrict","CC_2": "NA","HASC_2": "NA","name": "Laclubar.county","area_km2": 353.3336,"hist_schema_id": "Elevation0-9000","hist_area_km2": {"150": 0.0419,"175": 0.9014,"200": 0.9852,"225": 1.3415,"250": 1.8865,"275": 2.4734,"300": 3.0393,"325": 3.6681,"350": 4.4854,"375": 5.3236,"400": 5.7846,"425": 6.1198,"450": 6.476,"475": 7.1675,"500": 7.6075,"525": 8.0893,"550": 8.4035,"575": 7.9631,"600": 7.8793,"625": 8.3822,"650": 9.5136,"675": 8.8221,"700": 8.4238,"725": 9.0316,"750": 10.0374,"775": 9.283,"800": 10.3519,"825": 9.5555,"850": 9.0945,"875": 8.5495,"900": 8.78,"925": 8.0046,"950": 8.6124,"975": 8.4448,"1000": 8.5705,"1025": 8.4657,"1050": 8.5496,"1075": 9.8279,"1100": 9.8279,"1125": 10.7499,"1150": 10.3937,"1175": 9.9117,"1200": 10.2679,"1225": 8.5287,"1250": 7.6066,"1275": 6.7893,"1300": 5.0082,"1325": 4.0024,"1350": 2.8289,"1375": 2.3679,"1400": 1.7393,"1425": 0.9429,"1450": 0.6915,"1475": 0.6915,"1500": 0.2724,"1525": 0.3772,"1550": 0.1886,"1575": 0.0838,"1600": 0.0838,"1625": 0.0419}}}