{"type": "Feature","bbox": [125.0443,-8.9639,125.1402,-8.8561],"geometry": {"type": "MultiPolygon","coordinates": [[[[125.0443,-8.8703,21.4179],[125.0443,-8.8733,24.5544],[125.0493,-8.8805,117.5852],[125.0486,-8.9118,345.1104],[125.0514,-8.9166,334.314],[125.0471,-8.9198,447.6594],[125.0482,-8.9244,491.6461],[125.0463,-8.9289,533.4959],[125.0509,-8.9296,473.6491],[125.0537,-8.9323,415.8949],[125.0582,-8.9306,363.3693],[125.0667,-8.9317,243.0179],[125.0797,-8.9419,191.8714],[125.0893,-8.9433,152.2336],[125.0835,-8.9515,327.4764],[125.0803,-8.9536,383.3859],[125.0943,-8.9564,385.2579],[125.1105,-8.9639,107.4526],[125.1138,-8.9563,102.062],[125.1151,-8.9471,108.7767],[125.1209,-8.9398,94.866],[125.1306,-8.9381,92.1997],[125.1314,-8.936,89.4112],[125.1354,-8.9339,94.5318],[125.1402,-8.9277,91.9104],[125.1401,-8.9219,83.1947],[125.1357,-8.922,90.6786],[125.1318,-8.9243,91.7075],[125.1304,-8.922,101.3946],[125.1249,-8.9231,120.48],[125.1239,-8.9214,106.3555],[125.1232,-8.9229,106.3555],[125.1183,-8.9207,115.3953],[125.1143,-8.9209,123.9312],[125.1117,-8.9176,137.74],[125.1055,-8.9157,175.0286],[125.102,-8.9105,188.6752],[125.1002,-8.9102,207.7599],[125.0972,-8.903,282.4851],[125.094,-8.8997,253.611],[125.0903,-8.9001,249.6784],[125.0902,-8.898,253.0243],[125.0802,-8.8846,290.3221],[125.0789,-8.8772,224.4806],[125.0835,-8.8702,194.7099],[125.0794,-8.8678,186.3466],[125.0748,-8.8613,165.1368],[125.0697,-8.8623,152.9014],[125.0623,-8.8561,122.6582],[125.0609,-8.8587,99.9127],[125.0558,-8.8594,93.0064],[125.0546,-8.8634,69.3169],[125.0506,-8.8641,34.2817],[125.05,-8.8663,50.2983],[125.0461,-8.8671,28.6025],[125.0443,-8.8703,21.4179]]]]}
,"properties": {"GID_3": "TLS.5.2.5_1","GID_0": "TLS","country": "Timor-Leste","GID_1": "TLS.5_1","province": "Bobonaro","NL_NAME_1": "NA","GID_2": "TLS.5.2_1","county": "Balibó","NL_NAME_2": "NA","city": "Leolima","VARNAME_3": "NA","NL_NAME_3": "NA","TYPE_3": "Suco","ENGTYPE_3": "Community","CC_3": "NA","HASC_3": "NA","name": "Leolima.city","area_km2": 54.77426,"hist_schema_id": "Elevation0-9000","hist_area_km2": {"25": 0.46087,"50": 0.20949,"75": 1.15207,"100": 2.84857,"125": 2.07361,"150": 2.53445,"175": 3.3514,"200": 3.35139,"225": 2.49257,"250": 3.498,"275": 4.54537,"300": 5.06904,"325": 5.86498,"350": 4.83859,"375": 2.89057,"400": 2.28314,"425": 2.24121,"450": 2.15744,"475": 1.67567,"500": 0.56554,"525": 0.20946,"550": 0.10473,"575": 0.08379,"600": 0.04189,"625": 0.10474,"650": 0.10474,"675": 0.02095}}}