{"type": "Feature","bbox": [126.3325,-8.5385,126.3903,-8.4433],"geometry": {"type": "MultiPolygon","coordinates": [[[[126.3364,-8.5154,548.4178],[126.3404,-8.5242,636.8281],[126.3422,-8.5338,685.9496],[126.348,-8.53,681.4633],[126.3581,-8.5385,678.752],[126.3711,-8.5335,647.9792],[126.3802,-8.5205,603.5411],[126.3856,-8.5183,598.6165],[126.3833,-8.5156,596.182],[126.3885,-8.51,570.0026],[126.3903,-8.5027,556.5568],[126.3813,-8.462,446.67],[126.3448,-8.4483,8.5537],[126.3445,-8.4433,11.6356],[126.3406,-8.4494,6.4658],[126.3353,-8.4506,0.0],[126.3325,-8.4575,19.0061],[126.3331,-8.4594,26.1308],[126.3417,-8.4754,263.5224],[126.351,-8.4805,358.5236],[126.3532,-8.4847,431.6176],[126.3601,-8.4846,478.6049],[126.3623,-8.486,484.1506],[126.3632,-8.4905,510.6118],[126.3582,-8.5083,646.2285],[126.3424,-8.5153,626.7579],[126.3364,-8.5154,548.4178]]]]}
,"properties": {"GID_3": "TLS.4.2.12_1","GID_0": "TLS","country": "Timor-Leste","GID_1": "TLS.4_1","province": "Baucau","NL_NAME_1": "NA","GID_2": "TLS.4.2_1","county": "Baucau","NL_NAME_2": "NA","city": "Triloka","VARNAME_3": "NA","NL_NAME_3": "NA","TYPE_3": "Suco","ENGTYPE_3": "Community","CC_3": "NA","HASC_3": "NA","name": "Triloka.city","area_km2": 36.10993,"hist_schema_id": "Elevation0-9000","hist_area_km2": {"0": 0.54527,"25": 0.65013,"50": 0.6711,"75": 0.50332,"100": 0.73401,"125": 0.67109,"150": 0.56623,"175": 0.73399,"200": 0.56622,"225": 0.67108,"250": 0.73399,"275": 0.69204,"300": 0.52427,"325": 0.77593,"350": 1.02758,"375": 0.69204,"400": 0.94369,"425": 0.62912,"450": 0.713,"475": 1.38406,"500": 2.30673,"525": 2.74705,"550": 1.48883,"575": 2.24369,"600": 3.10336,"625": 3.56463,"650": 3.92103,"675": 2.09677,"700": 0.20968}}}