{"type":"Feature","properties":{"GID_2":"TLS.4.4_1","GID_0":"TLS","country":"Timor-Leste","GID_1":"TLS.4_1","province":"Baucau","NL_NAME_1":"NA","county":"Quelicai","VARNAME_2":"NA","NL_NAME_2":"NA","TYPE_2":"Subdistrito","ENGTYPE_2":"Subdistrict","CC_2":"NA","HASC_2":"NA","name":"Quelicai.county"},
"geometry":{"type": "MultiPolygon","coordinates": [[[[126.5342,-8.6795,474.2558],[126.5356,-8.6766,486.4999],[126.5379,-8.6763,513.2859],[126.5458,-8.6686,625.8978],[126.5518,-8.6675,686.2958],[126.5529,-8.6657,737.1309],[126.5626,-8.6623,900.2158],[126.5669,-8.6573,1080.8129],[126.5748,-8.6573,1258.2102],[126.5845,-8.6516,1752.9847],[126.5894,-8.6534,2062.5208],[126.5895,-8.6476,2132.6714],[126.5926,-8.6426,2198.7388],[126.6038,-8.6398,1930.6349],[126.6062,-8.6369,1635.8835],[126.6084,-8.6301,1638.3418],[126.6036,-8.6151,1869.8726],[126.6122,-8.6098,1755.4633],[126.6137,-8.6067,1392.1863],[126.6201,-8.6015,1239.9224],[126.6292,-8.5874,1070.5562],[126.6326,-8.5854,922.4487],[126.6322,-8.5789,1010.787],[126.6271,-8.569,1290.2886],[126.6262,-8.5634,1090.0896],[126.6298,-8.5576,1113.4159],[126.6326,-8.546,1115.2571],[126.6395,-8.542,1097.5034],[126.6406,-8.5391,1100.3561],[126.6401,-8.5327,856.1323],[126.6368,-8.5239,531.6389],[126.6378,-8.5222,518.4188],[126.627,-8.5155,276.2089],[126.6242,-8.5109,251.1137],[126.6155,-8.512,156.2054],[126.613,-8.5140999999999991,120.1238],[126.6076,-8.513,87.5464],[126.6056,-8.5147,90.5619],[126.5987,-8.5143,67.4236],[126.5977,-8.5189,76.4057],[126.5919,-8.5257,90.163],[126.5817,-8.523,177.1683],[126.5723,-8.5235,216.6921],[126.5627,-8.5303,339.8836],[126.5597,-8.535,353.6121],[126.5571,-8.5358,322.0349],[126.5509,-8.529,217.2274],[126.5446,-8.5296,123.9675],[126.5393,-8.5352,146.3629],[126.5387,-8.5433,139.2509],[126.5356,-8.5481,187.7527],[126.5234,-8.554,166.3361],[126.5226,-8.5564,233.9553],[126.5165,-8.5612,294.566],[126.5157,-8.5666,364.5837],[126.514,-8.566,346.3839],[126.503,-8.572,291.2604],[126.5004,-8.5751,295.9071],[126.4877,-8.5821,231.4854],[126.4863,-8.5862,169.7644],[126.4772,-8.5903,138.0324],[126.4736,-8.5936,125.1207],[126.4765,-8.5966,145.8201],[126.4781,-8.6038,134.2015],[126.4757,-8.6072,157.665],[126.4776,-8.6084,142.8665],[126.4778,-8.6119,154.9344],[126.4823,-8.6113,164.9492],[126.48779999999999,-8.6171,171.0915],[126.4847,-8.6223,225.3207],[126.4862,-8.6288,232.8209],[126.4849,-8.632,253.855],[126.4866,-8.637,304.5025],[126.48779999999999,-8.6368,304.5025],[126.4873,-8.6433,365.1074],[126.4888,-8.6472,395.8174],[126.5013,-8.6597,325.7686],[126.5056,-8.6695,402.4359],[126.5115,-8.6778,436.3214],[126.5149,-8.6778,462.386],[126.5231,-8.6818,363.4483],[126.5291,-8.6823,363.807],[126.5342,-8.6795,474.2558]]]]}}