{"type":"Feature","properties":{"GID_3":"TLS.7.2.18_1","GID_0":"TLS","country":"Timor-Leste","GID_1":"TLS.7_1","province":"Dili","NL_NAME_1":"NA","GID_2":"TLS.7.2_1","county":"DiliBarat","NL_NAME_2":"NA","city":"Naroman","VARNAME_3":"BairoPite","NL_NAME_3":"NA","TYPE_3":"Suco","ENGTYPE_3":"Community","CC_3":"NA","HASC_3":"NA","name":"Naroman.city"},
"geometry":{"type": "MultiPolygon","coordinates": [[[[125.5645,-8.5594,7.5656],[125.5573,-8.565,14.287],[125.5617,-8.5661,21.5692],[125.5583,-8.5693,36.951],[125.5562,-8.5744,150.6246],[125.5513,-8.5784,273.613],[125.5524,-8.5818,319.5333],[125.5598,-8.5836,162.6317],[125.5624,-8.5815,102.1953],[125.5615,-8.5773,79.0404],[125.5666,-8.5732,48.9798],[125.5645,-8.5594,7.5656]]]]}}