{"type":"Feature","properties":{"GID_3":"TLS.7.1.1_1","GID_0":"TLS","country":"Timor-Leste","GID_1":"TLS.7_1","province":"Dili","NL_NAME_1":"NA","GID_2":"TLS.7.1_1","county":"Atauro","NL_NAME_2":"NA","city":"Beloi","VARNAME_3":"NA","NL_NAME_3":"NA","TYPE_3":"Suco","ENGTYPE_3":"Community","CC_3":"NA","HASC_3":"NA","name":"Beloi.city"},
"geometry":{"type": "MultiPolygon","coordinates": [[[[125.5115,-8.2523,0.5069],[125.5158,-8.2577,156.0965],[125.517,-8.2571,156.0965],[125.5233,-8.262,365.0641],[125.5313,-8.2641,697.5666],[125.5396,-8.2569,718.3494],[125.5418,-8.2482,528.0201],[125.5524,-8.2419,507.4136],[125.5643,-8.2458,639.3739],[125.5674,-8.2459,604.4822],[125.5694,-8.2442,594.083],[125.5864,-8.2504,371.212],[125.59,-8.248,302.0684],[125.5952,-8.2534,287.294],[125.5977,-8.2512,128.8731],[125.6022,-8.253,42.1729],[125.6072,-8.2499,2.0127],[125.6072,-8.2331,1.7503],[125.6094,-8.2292,2.7616],[125.61,-8.2214,0.0],[125.6167,-8.2103,0.7467],[125.6217,-8.2069,21.7044],[125.6258,-8.1998,18.1273],[125.6208,-8.1974,105.3634],[125.6194,-8.1935,270.9984],[125.6127,-8.1905,299.4867],[125.6094,-8.1775,305.285],[125.6049,-8.1765,253.9816],[125.6002,-8.1705,165.2271],[125.5968,-8.1706,154.8492],[125.5974,-8.1689,145.7833],[125.5907,-8.1613,0.0],[125.5882,-8.17,1.594],[125.5846,-8.1758,0.0],[125.5775,-8.1811,0.0],[125.5675,-8.1925,0.0],[125.5667,-8.1953,1.7097],[125.5619,-8.1978,0.0],[125.5594,-8.2063,2.5337],[125.5557,-8.2081,0.0],[125.5489,-8.22,0.7585],[125.5362,-8.2199,0.0],[125.5232,-8.227,0.0],[125.5213,-8.242,0.0],[125.5178,-8.2475,2.6832],[125.5115,-8.2523,0.5069]]]]}}