{"type":"Feature","properties":{"GID_3":"TLS.5.3.10_1","GID_0":"TLS","country":"Timor-Leste","GID_1":"TLS.5_1","province":"Bobonaro","NL_NAME_1":"NA","GID_2":"TLS.5.3_1","county":"Bobonaro","NL_NAME_2":"NA","city":"Lourba","VARNAME_3":"NA","NL_NAME_3":"NA","TYPE_3":"Suco","ENGTYPE_3":"Community","CC_3":"NA","HASC_3":"NA","name":"Lourba.city"},
"geometry":{"type": "MultiPolygon","coordinates": [[[[125.3608,-9.0303,552.646],[125.3635,-9.0294,590.1218],[125.3687,-9.0207,782.5689],[125.3679,-9.0156,723.8422],[125.3643,-9.0126,688.6726],[125.3622,-9.0045,638.862],[125.3577,-9.0002,606.6945],[125.3559,-9.0087,661.5779],[125.351,-9.0108,671.6841],[125.3425,-9.01,715.834],[125.338,-9.0121,818.3229],[125.3379,-9.0138,778.0251],[125.3409,-9.0321,490.9535],[125.3448,-9.0341,474.1856],[125.3527,-9.0329,535.2516],[125.3548,-9.0298,542.2466],[125.3608,-9.0303,552.646]]]]}}