{"type":"Feature","properties":{"GID_3":"TLS.1.1.9_1","GID_0":"TLS","country":"Timor-Leste","GID_1":"TLS.1_1","province":"Aileu","NL_NAME_1":"NA","GID_2":"TLS.1.1_1","county":"Aileu","NL_NAME_2":"NA","city":"Hurairaco","VARNAME_3":"Lau-Si","NL_NAME_3":"NA","TYPE_3":"Suco","ENGTYPE_3":"Community","CC_3":"NA","HASC_3":"NA","name":"Hurairaco.city"},
"geometry":{"type": "MultiPolygon","coordinates": [[[[125.6041,-8.808,1272.7656],[125.602,-8.8128,1376.4778],[125.6036,-8.8222,1550.1112],[125.6093,-8.8197,1545.8588],[125.6103,-8.817,1424.2295],[125.6071,-8.8079,1194.0645],[125.6041,-8.808,1272.7656]]]]}}