{"type":"Feature","properties":{"GID_3":"TLS.8.3.7_1","GID_0":"TLS","country":"Timor-Leste","GID_1":"TLS.8_1","province":"Ermera","NL_NAME_1":"NA","GID_2":"TLS.8.3_1","county":"Hatólia","NL_NAME_2":"NA","city":"Lemeakraik","VARNAME_3":"LeimeaCraic","NL_NAME_3":"NA","TYPE_3":"Suco","ENGTYPE_3":"Community","CC_3":"NA","HASC_3":"NA","name":"Lemeakraik.city"},
"geometry":{"type": "MultiPolygon","coordinates": [[[[125.2945,-8.8843,176.8751],[125.2966,-8.8907,183.1362],[125.3002,-8.8942,189.0349],[125.3128,-8.8976,223.1937],[125.3192,-8.9055,231.2747],[125.3334,-8.9082,238.7676],[125.3362,-8.905,240.0104],[125.34,-8.9037,244.0629],[125.3479,-8.8943,440.0671],[125.3566,-8.889,658.8638],[125.3585,-8.8772,610.8947],[125.3631,-8.8768,602.6589],[125.3648,-8.8742,535.9626],[125.3628,-8.8696,441.5772],[125.3592,-8.8695,445.0247],[125.3586,-8.8682,399.8937],[125.3537,-8.8719,386.7842],[125.3414,-8.8648,306.4875],[125.3355,-8.8673,288.1274],[125.328,-8.8675,256.4737],[125.319,-8.8617,206.6583],[125.3098,-8.8601,192.7997],[125.3036,-8.8539,174.5857],[125.2916,-8.8553,156.2976],[125.2889,-8.8569,150.4948],[125.2953,-8.8651,163.736],[125.2934,-8.8798,176.3417],[125.2945,-8.8843,176.8751]]]]}}