{"type":"Feature","properties":{"GID_3":"TLS.4.1.9_1","GID_0":"TLS","country":"Timor-Leste","GID_1":"TLS.4_1","province":"Baucau","NL_NAME_1":"NA","GID_2":"TLS.4.1_1","county":"Baguia","NL_NAME_2":"NA","city":"Ossuhuna","VARNAME_3":"OssoHuna","NL_NAME_3":"NA","TYPE_3":"Suco","ENGTYPE_3":"Community","CC_3":"NA","HASC_3":"NA","name":"Ossuhuna.city"},
"geometry":{"type": "MultiPolygon","coordinates": [[[[126.6214,-8.6601,808.9826],[126.6274,-8.6513,733.36],[126.6312,-8.6512,634.58],[126.6275,-8.6442,784.6989],[126.6236,-8.6294,1505.1438],[126.6171,-8.6266,1611.1316],[126.6071,-8.6264,1471.7351],[126.6084,-8.6308,1638.3418],[126.6048,-8.639,1813.959],[126.5948,-8.6412,2282.9844],[126.5912,-8.6442,2137.0391],[126.6024,-8.6483,1738.4099],[126.6055,-8.6473,1650.3342],[126.6084,-8.6484,1483.8328],[126.6091,-8.6555,1025.1469],[126.6214,-8.6601,808.9826]]]]}}