{"type": "Feature","bbox": [125.3115,-8.9935,125.3341,-8.9656],"geometry": {"type": "MultiPolygon","coordinates": [[[[125.333,-8.9875,783.8809],[125.3341,-8.9775,539.1866],[125.3328,-8.9701,465.0705],[125.3261,-8.9714,561.0558],[125.3219,-8.9656,332.106],[125.3212,-8.9672,335.7014],[125.3175,-8.968,348.3559],[125.3136,-8.973,355.5957],[125.3136,-8.9762,370.9548],[125.3115,-8.9775,365.5678],[125.3121,-8.9867,408.5356],[125.3143,-8.9917,484.6167],[125.3226,-8.9935,709.5319],[125.3271,-8.9916,801.6959],[125.328,-8.9865,978.8578],[125.333,-8.9875,783.8809]]]]}
,"properties": {"GID_3": "TLS.5.3.7_1","GID_0": "TLS","country": "Timor-Leste","GID_1": "TLS.5_1","province": "Bobonaro","NL_NAME_1": "NA","GID_2": "TLS.5.3_1","county": "Bobonaro","NL_NAME_2": "NA","city": "Ilatlaun","VARNAME_3": "IlatLaun","NL_NAME_3": "NA","TYPE_3": "Suco","ENGTYPE_3": "Community","CC_3": "NA","HASC_3": "NA","name": "Ilatlaun.city","area_km2": 5.591593,"hist_schema_id": "Elevation0-9000","hist_area_km2": {"325": 0.020943,"350": 0.125657,"375": 0.335083,"400": 0.376964,"425": 0.356019,"450": 0.251308,"475": 0.25131,"500": 0.251308,"525": 0.397903,"550": 0.230367,"575": 0.272253,"600": 0.209424,"625": 0.188478,"650": 0.251309,"675": 0.230364,"700": 0.20942,"725": 0.293189,"750": 0.230363,"775": 0.104711,"800": 0.167536,"825": 0.188479,"850": 0.209421,"875": 0.083768,"900": 0.041884,"925": 0.10471,"950": 0.125652,"1000": 0.020942,"1025": 0.041884,"1050": 0.020942}}}