{"type": "Feature","bbox": [126.3906,-8.695,126.4549,-8.6516],"geometry": {"type": "MultiPolygon","coordinates": [[[[126.4251,-8.6525,483.3244],[126.4158,-8.6571,437.5049],[126.411,-8.6576,527.2083],[126.409,-8.6599,478.6478],[126.4072,-8.6593,607.4792],[126.4039,-8.6624,711.101],[126.3982,-8.6591,678.5117],[126.3959,-8.6597,629.0007],[126.3906,-8.665,741.5978],[126.3906,-8.6731,957.7247],[126.3954,-8.6769,1124.4993],[126.3951,-8.6808,1184.8519],[126.4005,-8.6899,1268.8524],[126.4173,-8.695,748.0991],[126.4215,-8.6846,669.6943],[126.4257,-8.6806,609.3484],[126.4317,-8.6782,547.0629],[126.4344,-8.6812,555.3844],[126.4386,-8.6781,462.9104],[126.4525,-8.6754,218.9208],[126.4511,-8.6721,221.0868],[126.4549,-8.6705,214.2521],[126.4504,-8.6683,207.0796],[126.4502,-8.6661,219.651],[126.4481,-8.6659,205.6223],[126.4477,-8.6619,212.6087],[126.4448,-8.6614,229.3925],[126.4469,-8.6562,178.4182],[126.4432,-8.6545,224.6928],[126.4422,-8.6516,234.8142],[126.4406,-8.6517,251.7909],[126.439,-8.6548,267.536],[126.4338,-8.656,305.8787],[126.4315,-8.6546,330.4688],[126.4282,-8.6558,386.4461],[126.4251,-8.6525,483.3244]]]]}
,"properties": {"GID_3": "TLS.4.6.3_1","GID_0": "TLS","country": "Timor-Leste","GID_1": "TLS.4_1","province": "Baucau","NL_NAME_1": "NA","GID_2": "TLS.4.6_1","county": "Venilale","NL_NAME_2": "NA","city": "UaiOli","VARNAME_3": "NA","NL_NAME_3": "NA","TYPE_3": "Suco","ENGTYPE_3": "Community","CC_3": "NA","HASC_3": "NA","name": "Uai_Oli.city","area_km2": 19.22019,"hist_schema_id": "Elevation0-9000","hist_area_km2": {"175": 0.04192,"200": 0.33537,"225": 0.41921,"250": 0.23056,"275": 0.52401,"300": 0.69169,"325": 0.52401,"350": 0.58689,"375": 0.58688,"400": 0.56593,"425": 0.88033,"450": 0.79649,"475": 1.02705,"500": 0.75456,"525": 0.81743,"550": 0.48208,"575": 0.37728,"600": 0.3144,"625": 0.56592,"650": 0.524,"675": 0.67071,"700": 0.62879,"725": 0.52399,"750": 0.52399,"775": 0.44015,"800": 0.54494,"825": 0.46111,"850": 0.27247,"875": 0.62878,"900": 0.44015,"925": 0.33535,"950": 0.23055,"975": 0.14672,"1000": 0.2096,"1025": 0.12576,"1050": 0.23055,"1075": 0.14672,"1100": 0.25151,"1125": 0.25151,"1150": 0.18864,"1175": 0.33535,"1200": 0.18863,"1225": 0.27247,"1250": 0.08384,"1275": 0.02096,"1300": 0.02096}}}