{"type":"Feature","properties":{"GID_3":"TLS.7.3.15_1","GID_0":"TLS","country":"Timor-Leste","GID_1":"TLS.7_1","province":"Dili","NL_NAME_1":"NA","GID_2":"TLS.7.3_1","county":"DiliTimur","NL_NAME_2":"NA","city":"Kuluhun","VARNAME_3":"Culuhum","NL_NAME_3":"NA","TYPE_3":"Suco","ENGTYPE_3":"Community","CC_3":"NA","HASC_3":"NA","name":"Kuluhun.city"},
"geometry":{"type": "MultiPolygon","coordinates": [[[[125.6018,-8.5668,32.2105],[125.6028,-8.5619,28.9971],[125.6066,-8.5604,34.8005],[125.5982,-8.5555,22.1039],[125.5956,-8.5555,18.1101],[125.5931,-8.5524,9.1439],[125.593,-8.5536,9.863],[125.5906,-8.5526,6.9126],[125.5918,-8.5579,12.9787],[125.597,-8.5603,20.8634],[125.597,-8.5662,35.3731],[125.6018,-8.5668,32.2105]]]]}}