{"type":"Feature","properties":{"GID_3":"TLS.4.1.10_1","GID_0":"TLS","country":"Timor-Leste","GID_1":"TLS.4_1","province":"Baucau","NL_NAME_1":"NA","GID_2":"TLS.4.1_1","county":"Baguia","NL_NAME_2":"NA","city":"Samalari","VARNAME_3":"NA","NL_NAME_3":"NA","TYPE_3":"Suco","ENGTYPE_3":"Community","CC_3":"NA","HASC_3":"NA","name":"Samalari.city"},
"geometry":{"type": "MultiPolygon","coordinates": [[[[126.6757,-8.6017,385.8711],[126.6704,-8.5974,260.4264],[126.674,-8.5906,294.5557],[126.6696,-8.5853,406.9225],[126.676,-8.5794,458.3322],[126.6736,-8.5772,548.4368],[126.6689,-8.5789,498.3042],[126.662,-8.5742,663.0212],[126.6551,-8.5746,783.2661],[126.6517,-8.5766,769.0818],[126.6423,-8.5751,777.6425],[126.6373,-8.5712,1007.8322],[126.6268,-8.5672,1249.3594],[126.6322,-8.5789,1010.787],[126.6328,-8.585,922.4487],[126.6273,-8.5907,1115.3982],[126.6333,-8.5969,1171.2555],[126.6448,-8.6007,571.1318],[126.647,-8.6039,537.5755],[126.6628,-8.6082,295.3821],[126.6671,-8.6113,209.7449],[126.6681,-8.6103,232.5702],[126.6659,-8.608,234.628],[126.6674,-8.6054,232.2524],[126.6744,-8.6045,361.4546],[126.6757,-8.6017,385.8711]]]]}}