{"type":"Feature","properties":{"GID_2":"TLS.9.4_1","GID_0":"TLS","country":"Timor-Leste","GID_1":"TLS.9_1","province":"Lautém","NL_NAME_1":"NA","county":"Luro","VARNAME_2":"NA","NL_NAME_2":"NA","TYPE_2":"Subdistrito","ENGTYPE_2":"Subdistrict","CC_2":"NA","HASC_2":"NA","name":"Luro.county"},
"geometry":{"type": "MultiPolygon","coordinates": [[[[126.8089,-8.5994,189.4234],[126.8139,-8.5992,271.2817],[126.8182,-8.6017,344.7083],[126.8265,-8.6028,303.8605],[126.8309,-8.608,242.4518],[126.8326,-8.6131,244.5801],[126.8366,-8.6126,284.3906],[126.8523,-8.6027,390.9833],[126.8564,-8.5954,323.6201],[126.8561,-8.5889,332.7779],[126.8616,-8.584,295.2406],[126.861,-8.5808,283.5977],[126.8635,-8.5796,278.4773],[126.8626,-8.578,289.5809],[126.8703,-8.5763,266.3093],[126.8688,-8.5743,268.875],[126.8721,-8.5719,249.1613],[126.8712,-8.5699,248.012],[126.8679,-8.5695,317.7174],[126.8672,-8.5652,317.0078],[126.8602,-8.5611,217.7201],[126.8602,-8.5558,249.2247],[126.8579,-8.5564,180.536],[126.8567,-8.5544,181.2858],[126.8585,-8.5515,172.0011],[126.8565,-8.5508,180.2933],[126.8589,-8.549,227.9536],[126.8569,-8.5479,162.2505],[126.8568,-8.5448,157.6202],[126.8591,-8.5432,185.3769],[126.8558,-8.5397,147.0079],[126.8575,-8.5381,172.637],[126.8534,-8.5378,147.4229],[126.8539,-8.5354,161.2294],[126.8517,-8.5331,134.7117],[126.8524,-8.5275,142.1739],[126.8499,-8.5272,120.2936],[126.8502,-8.5244,115.3],[126.8484,-8.5232,120.3536],[126.8496,-8.5204,111.1537],[126.8466,-8.5204,110.4394],[126.8489,-8.5187,108.7792],[126.8486,-8.517,105.8804],[126.8466,-8.5168,107.2766],[126.8487,-8.5143,136.9559],[126.8449,-8.5128,153.8642],[126.8427,-8.5149,100.1018],[126.8422,-8.5124,136.7778],[126.8372,-8.5117,95.9867],[126.8362,-8.5072,89.0015],[126.831,-8.5005,70.5796],[126.832,-8.4977,69.7104],[126.8283,-8.4944,65.2089],[126.8297,-8.4918,67.0261],[126.8273,-8.4893,60.6654],[126.8283,-8.4877,79.9457],[126.8254,-8.4859,66.248],[126.8195,-8.4857,64.035],[126.8164,-8.4877,76.0475],[126.808,-8.484,182.6567],[126.7987,-8.4856,328.7307],[126.7902,-8.4897,220.5292],[126.7821,-8.4912,298.9008],[126.7668,-8.4998,160.3103],[126.7641,-8.4978,166.0983],[126.7619,-8.4983,122.196],[126.7594,-8.4956,134.8012],[126.7588,-8.4967,110.2855],[126.7558,-8.4955,92.3165],[126.7551,-8.4914,98.8677],[126.7533,-8.4899,77.2601],[126.7528,-8.4916,80.3515],[126.7461,-8.4913,78.7289],[126.7417,-8.4954,83.0558],[126.7365,-8.494,136.5624],[126.7334,-8.4949,128.5739],[126.7308,-8.5015,102.907],[126.729,-8.501,105.1668],[126.7276,-8.503,100.7356],[126.7241,-8.5029,165.0484],[126.723,-8.5043,176.1365],[126.7225,-8.5114,152.6863],[126.7244,-8.5178,165.3879],[126.723,-8.52,205.2108],[126.7253,-8.519,229.9199],[126.7305,-8.5212,222.4591],[126.7322,-8.5252,199.4851],[126.7371,-8.5283,228.6538],[126.7481,-8.5312,289.9771],[126.7559,-8.5439,436.4519],[126.7557,-8.548,516.7461],[126.758,-8.5533,624.1626],[126.7817,-8.5652,1054.7919],[126.7835,-8.5671,1151.4946],[126.7858,-8.577,717.2563],[126.7855,-8.5819,593.2611],[126.7926,-8.5844,450.6729],[126.7945,-8.5877,410.8523],[126.7968,-8.5877,385.4034],[126.8014,-8.5925,349.2875],[126.8045,-8.599,236.1837],[126.8089,-8.5994,189.4234]]]]}}