{"type":"Feature","properties":{"GID_1":"TLS.1_1","GID_0":"TLS","country":"Timor-Leste","province":"Aileu","VARNAME_1":"NA","NL_NAME_1":"NA","TYPE_1":"Distrito","ENGTYPE_1":"District","CC_1":"NA","HASC_1":"TP.AL","ISO_1":"NA","name":"Aileu.province"},
"geometry":{"type": "MultiPolygon","coordinates": [[[[125.5807,-8.8277,1787.3453],[125.5861,-8.824,1888.5181],[125.5937,-8.8232,1733.6865],[125.5975,-8.8244,1638.1697],[125.6093,-8.8197,1545.8588],[125.6099,-8.8142,1333.8447],[125.6071,-8.8084,1236.4841],[125.6089,-8.8028,1095.8079],[125.6052,-8.7949,1009.0361],[125.606,-8.7905,965.6034],[125.6083,-8.788,946.46489999999994],[125.6133,-8.7886,937.4572],[125.624,-8.7854,916.7383],[125.627,-8.7882,915.619],[125.6295,-8.786,937.7462],[125.6321,-8.7879,905.2104],[125.6353,-8.7859,911.6301],[125.6359,-8.7885,897.1486],[125.6385,-8.7879,904.085],[125.6419,-8.7902,890.6557],[125.6429,-8.788,877.61],[125.6444,-8.7888,877.61],[125.6467,-8.7772,864.3234],[125.6451,-8.7741,839.2287],[125.6506,-8.7657,822.2781],[125.6585,-8.7626,801.5414],[125.6604,-8.764,806.04],[125.6636,-8.7632,795.3659],[125.6652,-8.761,843.9506],[125.67,-8.7608,773.0947],[125.6715,-8.7591,773.6097],[125.6717,-8.7637,773.476],[125.6744,-8.7581,757.6024],[125.6757,-8.7591,764.0241],[125.6774,-8.7568,758.6077],[125.6867,-8.7558,770.6974],[125.6841,-8.7608,735.572],[125.689,-8.7592,749.1409],[125.6915,-8.7614,792.8154],[125.6937,-8.7606,782.6029],[125.6964,-8.7640999999999991,802.3509],[125.7005,-8.7647,749.5927],[125.7023,-8.7619,708.366],[125.7065,-8.7623,686.616],[125.7101,-8.7664,685.3164],[125.7141,-8.7676,666.1547],[125.7152,-8.77,669.4197],[125.7182,-8.7702,665.1866],[125.7189,-8.7727,661.6854],[125.7221,-8.773,644.9147],[125.7252,-8.777,636.5897],[125.7228,-8.7816,607.6296],[125.7242,-8.783,579.7149],[125.7302,-8.7834,558.9305],[125.7363,-8.7865,545.0809],[125.7415,-8.7805,531.8256],[125.7453,-8.7801,522.7759],[125.7487,-8.7741,527.4476],[125.7531,-8.7723,532.7261],[125.7541,-8.7618,487.5883],[125.756,-8.7614,495.7655],[125.7577,-8.7632,502.1461],[125.7597,-8.7591,485.0247],[125.7638,-8.7594,472.5664],[125.7637,-8.7568,455.7457],[125.7681,-8.7547,451.4518],[125.7714,-8.7466,464.5075],[125.7693,-8.7395,458.5987],[125.7785,-8.7392,464.5456],[125.7856,-8.744,501.8123],[125.7901,-8.7432,585.9756],[125.7939,-8.7484,659.7144],[125.7991,-8.7492,782.0731],[125.8054,-8.745,1110.9348],[125.8073,-8.7373,993.7484],[125.8179,-8.7288,484.2072],[125.8101,-8.7135,338.9473],[125.8125,-8.7081,315.8904],[125.812,-8.695,304.1796],[125.8141,-8.6847,275.0384],[125.8085,-8.6767,295.4579],[125.8046,-8.6774,350.1853],[125.7939,-8.6732,641.6484],[125.7916,-8.6652,927.3088],[125.7884,-8.664,867.3587],[125.7866,-8.6577,610.7234],[125.7886,-8.6491,472.5776],[125.7857,-8.6501,474.8073],[125.7812,-8.6485,492.1129],[125.778,-8.6397,630.9305],[125.7741,-8.6356,722.8688],[125.7756,-8.6259,896.0624],[125.7778,-8.6235,816.7173],[125.7737,-8.6229,905.1304],[125.771,-8.6207,952.0308],[125.7674,-8.6171,1069.8097],[125.7668,-8.6124,960.6668],[125.7641,-8.6114,1014.9031],[125.7583,-8.6044,868.5867],[125.7601,-8.5991,795.8053],[125.7655,-8.5975,691.0164],[125.7675,-8.5953,602.6935],[125.7703,-8.5872,418.5867],[125.7661,-8.571,893.4053],[125.7612,-8.5666,819.7643],[125.7567,-8.5678,789.859],[125.7536,-8.5639,758.4409],[125.7454,-8.5644,656.0525],[125.7408,-8.5671,700.5107],[125.7347,-8.5639,679.1757],[125.7315,-8.5654,687.1067],[125.7218,-8.5636,683.9032],[125.7128,-8.5655,505.4938],[125.7066,-8.5616,339.9227],[125.6975,-8.5588,92.3385],[125.6966,-8.5603,106.5228],[125.694,-8.5602,136.0718],[125.6943,-8.5624,155.1053],[125.6908,-8.5682,223.1531],[125.6877,-8.5689,296.6885],[125.6857,-8.5715,314.1398],[125.6856,-8.5771,456.4588],[125.688,-8.5821,750.3977],[125.6855,-8.5881,788.0206],[125.6758,-8.5873,601.8301],[125.6681,-8.5822,227.0059],[125.6638,-8.5773,137.9596],[125.6639,-8.5699,78.8365],[125.6612,-8.5701,96.8324],[125.659,-8.5711,137.9773],[125.6597,-8.5737,111.8878],[125.6566,-8.5761,197.5962],[125.6534,-8.5843,186.0141],[125.6458,-8.5923,334.1876],[125.6421,-8.5933,368.6322],[125.6365,-8.5916,610.6781],[125.6252,-8.5844,314.5495],[125.623,-8.5852,357.9199],[125.6179,-8.5828,239.8268],[125.6028,-8.5895,480.1605],[125.6084,-8.5995,597.1504],[125.5906,-8.6032,785.5457],[125.5885,-8.6059,816.6915],[125.5891,-8.6089,842.2518],[125.5796,-8.6189,538.5276],[125.5757,-8.6194,554.6169],[125.5754,-8.6216,493.0996],[125.5726,-8.6233,461.3043],[125.5654,-8.6234,370.7755],[125.5655,-8.6264,329.2093],[125.5626,-8.6269,314.9572],[125.5529,-8.6227,241.0846],[125.5502,-8.6234,198.1122],[125.5482,-8.6211,247.2451],[125.5442,-8.6224,160.5383],[125.5423,-8.6196,157.6449],[125.5348,-8.6149,124.4178],[125.5279,-8.6128,100.8694],[125.5239,-8.6189,111.1328],[125.5152,-8.6235,131.8384],[125.5125,-8.629,165.9086],[125.5145,-8.6325,168.591],[125.5139,-8.6349,181.8911],[125.5039,-8.6351,209.9698],[125.5041,-8.6392,205.8013],[125.5059,-8.6388,220.8066],[125.5111,-8.6437,275.8884],[125.5215,-8.6465,361.1588],[125.5225,-8.6517,463.2878],[125.5248,-8.6538,510.7587],[125.5241,-8.6562,586.8041],[125.5264,-8.6586,638.046],[125.5269,-8.6626,642.2039],[125.5298,-8.6653,668.9606],[125.5301,-8.6684,659.7537],[125.5347,-8.6703,674.2529],[125.5352,-8.6774,751.2009],[125.5318,-8.6844,803.5916],[125.5284,-8.6865,855.5024],[125.526,-8.693,1052.2034],[125.5158,-8.7008,1223.7493],[125.5099,-8.7076,1225.2554],[125.5056,-8.7076,1156.9766],[125.5028,-8.7099,1139.0498],[125.4991,-8.7085,1137.0703],[125.4968,-8.71,1164.7644],[125.4916,-8.7075,1084.8469],[125.4879,-8.7029,1070.1333],[125.4835,-8.7236,879.0272],[125.4816,-8.7225,894.2035],[125.4781,-8.7235,842.6809],[125.4757,-8.7212,821.8537],[125.4712,-8.7223,782.7382],[125.4644,-8.7204,763.8552],[125.4543,-8.7232,725.7216],[125.4538,-8.7244,725.7216],[125.4588,-8.7298,744.939],[125.4649,-8.7298,752.2676],[125.4762,-8.7377,808.0961],[125.4736,-8.7425,807.3601],[125.4761,-8.7451,896.9463],[125.4695,-8.7557,975.5422],[125.4718,-8.76,1008.5966],[125.471,-8.7623,1006.6827],[125.468,-8.7651,1074.4011],[125.464,-8.7655,1071.8663],[125.4648,-8.7668,1130.4006],[125.4615,-8.7733,1182.7749],[125.4538,-8.7808,1203.347],[125.4593,-8.7863,1281.8999],[125.4605,-8.7963,1313.4001],[125.4623,-8.797,1279.8162],[125.4636,-8.8022,1402.3096],[125.4676,-8.7984,1310.7434],[125.4695,-8.8007,1357.8159],[125.4727,-8.7987,1330.5126],[125.4768,-8.7997,1348.8748],[125.4775,-8.798,1326.9321],[125.4796,-8.8003,1334.5991],[125.4798,-8.8041,1412.3134],[125.4826,-8.8044,1408.4409],[125.4865,-8.8133,1403.5211],[125.4913,-8.8173,1438.8854],[125.4946,-8.8243,1469.2959],[125.4929,-8.8278,1501.603],[125.4972,-8.8508,1850.3939],[125.5019,-8.8495,2077.3564],[125.5052,-8.8503,2212.5625],[125.5122,-8.8449,2291.9531],[125.5181,-8.8462,2067.0474],[125.534,-8.8457,1803.4636],[125.5424,-8.8386,1815.8081],[125.548,-8.8361,1992.2495],[125.5522,-8.837,1986.7412],[125.5572,-8.8408,1943.9623],[125.5631,-8.8403,1889.8746],[125.5659,-8.8385,1816.4077],[125.565,-8.836,1835.3826],[125.5693,-8.8331,1923.9983],[125.5771,-8.8314,1763.3232],[125.5807,-8.8277,1787.3453]]]]}}