{"type":"Feature","properties":{"ISO3166-1-Alpha-3":"TLS","country":"East Timor","fill":"#F0F","id":"544","name":"Aileu"},
"geometry":{"type": "Polygon","coordinates": [[[125.76166,-8.5834,551.361],[125.73437,-8.56749,649.4672],[125.69592,-8.56501,205.766],[125.65004,-8.58733,246.0727],[125.61614,-8.60573,697.8597],[125.59216,-8.61048,825.2246],[125.56033,-8.62123,531.4623],[125.52105,-8.62702,374.9674],[125.51185,-8.62025,378.1937],[125.50121,-8.63859,228.9601],[125.49475,-8.64976,574.6744],[125.49935,-8.64996,633.3295],[125.50948,-8.67001,1000.999],[125.4979,-8.70081,975.7015],[125.4764,-8.71301,952.8655],[125.44416,-8.72396,721.1955],[125.44168,-8.73616,775.5487],[125.45759,-8.75208,1104.9424],[125.44995,-8.77419,1193.9493],[125.43362,-8.79404,1161.7114],[125.44829,-8.80892,1233.9871],[125.47516,-8.82215,1582.8662],[125.47971,-8.84034,1631.5631],[125.48798,-8.85563,1799.7959],[125.49232,-8.85501,1843.6981],[125.53924,-8.84861,1959.7598],[125.5719,-8.83662,1860.051],[125.59216,-8.81223,1601.8672],[125.59877,-8.79383,1022.155],[125.62027,-8.78908,974.5986],[125.63267,-8.78081,1040.2847],[125.64508,-8.77254,842.076],[125.67443,-8.76799,1068.84],[125.69138,-8.77089,921.3492],[125.68828,-8.7946,1038.6187],[125.70791,-8.79259,896.0043],[125.74429,-8.77419,746.0271],[125.76228,-8.75642,455.7457],[125.77902,-8.75104,762.0212],[125.80522,-8.75316,891.5566],[125.80114,-8.70557,579.3682],[125.78564,-8.67001,852.6525],[125.77158,-8.64914,608.2703],[125.75752,-8.6171,1066.9198],[125.76367,-8.58283,625.7725],[125.76166,-8.5834,551.361]]]}}