{"type": "Feature","bbox": [125.5108,-8.8136,125.5552,-8.7794],"geometry": {"type": "MultiPolygon","coordinates": [[[[125.5379,-8.7825,1361.3848],[125.5193,-8.7794,1223.5583],[125.5193,-8.7906,1323.4651],[125.5108,-8.8134,1708.9801],[125.5213,-8.8136,1713.4403],[125.5237,-8.8073,1587.3898],[125.5271,-8.8034,1470.9568],[125.5456,-8.8011,1192.4241],[125.5526,-8.7961,1165.2493],[125.552,-8.7912,1212.1895],[125.5552,-8.7864,1133.2059],[125.5511,-8.7848,1235.9871],[125.5409,-8.786,1393.0521],[125.5383,-8.7846,1440.2209],[125.5379,-8.7825,1361.3848]]]]}
,"properties": {"GID_3": "TLS.1.1.3_1","GID_0": "TLS","country": "Timor-Leste","GID_1": "TLS.1_1","province": "Aileu","NL_NAME_1": "NA","GID_2": "TLS.1.1_1","county": "Aileu","NL_NAME_2": "NA","city": "Besilau","VARNAME_3": "Sukuliurai","NL_NAME_3": "NA","TYPE_3": "Suco","ENGTYPE_3": "Community","CC_3": "NA","HASC_3": "NA","name": "Besilau.city","area_km2": 9.49167,"hist_schema_id": "Elevation0-9000","hist_area_km2": {"1150": 0.062859,"1175": 0.251436,"1200": 0.377156,"1225": 0.565735,"1250": 0.398108,"1275": 0.356201,"1300": 0.523828,"1325": 0.754311,"1350": 0.796218,"1375": 0.83812,"1400": 0.733356,"1425": 0.565735,"1450": 0.607637,"1475": 0.817165,"1500": 0.356201,"1525": 0.230478,"1550": 0.209524,"1575": 0.125714,"1600": 0.083809,"1625": 0.167617,"1650": 0.272377,"1675": 0.251424,"1700": 0.146663}}}