{"type":"Feature","properties":{"GID_2":"TLS.3.1_1","GID_0":"TLS","country":"Timor-Leste","GID_1":"TLS.3_1","province":"Ambeno","NL_NAME_1":"NA","county":"Nitibe","VARNAME_2":"NA","NL_NAME_2":"NA","TYPE_2":"Subdistrito","ENGTYPE_2":"Subdistrict","CC_2":"NA","HASC_2":"NA","name":"Nitibe.county"},
"geometry":{"type": "MultiPolygon","coordinates": [[[[124.2761,-9.436,430.348],[124.2841,-9.4299,626.0881],[124.2933,-9.4288,728.3569],[124.307,-9.4207,877.1194],[124.3188,-9.4205,461.8333],[124.3313,-9.4239,650.3229],[124.3286,-9.4163,546.3672],[124.3253,-9.4122,472.6361],[124.3265,-9.4017,367.7408],[124.3214,-9.3947,279.0479],[124.324,-9.39,255.1736],[124.3193,-9.3836,240.5479],[124.3203,-9.3761,268.3932],[124.3188,-9.3722,291.6077],[124.309,-9.3734,201.3745],[124.2975,-9.3629,354.7667],[124.2865,-9.3566,605.9143],[124.2848,-9.3477,537.2842],[124.2889,-9.3413,395.3113],[124.2892,-9.3298,365.2144],[124.2797,-9.3186,415.2465],[124.2746,-9.317,537.7639],[124.2703,-9.318,667.7761],[124.2675,-9.3222,656.2736],[124.2633,-9.3371,707.6099],[124.2609,-9.3369,692.7324],[124.2569,-9.3286,558.249],[124.2491,-9.321,382.0365],[124.2458,-9.3283,485.5364],[124.2405,-9.3316,533.6852],[124.2365,-9.3309,614.9932],[124.2338,-9.3332,643.8815],[124.2186,-9.3315,905.451],[124.2247,-9.3153,608.0012],[124.2425,-9.3065,298.217],[124.2392,-9.3032,283.1416],[124.2413,-9.2988,250.2648],[124.2411,-9.2904,151.8671],[124.2367,-9.2833,120.1371],[124.2366,-9.2792,79.4378],[124.2305,-9.2725,57.0318],[124.2274,-9.266,33.3417],[124.2286,-9.2609,21.0708],[124.2261,-9.2569,39.4351],[124.228,-9.2514,13.9144],[124.2273,-9.2488,12.7884],[124.2198,-9.2405,2.7596],[124.214,-9.2448,4.2388],[124.2038,-9.244,0.0],[124.2005,-9.2463,23.0904],[124.1903,-9.2477,0.0],[124.1851,-9.25,1.1793],[124.173,-9.2782,0.0],[124.1676,-9.2836,2.8752],[124.1641,-9.2904,1.8941],[124.1567,-9.2956,0.0],[124.137,-9.2973,0.4613],[124.1306,-9.305,8.88],[124.1231,-9.3094,1.6052],[124.1106,-9.3104,6.004],[124.0998,-9.3195,1.8516],[124.0965,-9.3241,2.2867],[124.0843,-9.3276,0.0],[124.08,-9.3251,0.0],[124.0737,-9.3246,7.0925],[124.0621,-9.333,11.9368],[124.0556,-9.3342,0.6376],[124.0531,-9.3319,0.0],[124.0511,-9.3342,0.0],[124.045,-9.3359,0.0],[124.045,-9.3436,9.1684],[124.0491,-9.3501,17.8957],[124.0537,-9.3519,17.2921],[124.0617,-9.3605,23.3807],[124.0643,-9.3674,26.1333],[124.0702,-9.3697,28.0711],[124.0752,-9.3799,38.1261],[124.0883,-9.3949,55.6921],[124.0968,-9.4081,74.487],[124.1105,-9.4101,99.4219],[124.1131,-9.4067,93.1888],[124.1164,-9.41,131.9772],[124.1182,-9.4071,117.811],[124.1201,-9.4068,125.1684],[124.1249,-9.4109,138.5244],[124.1263,-9.416,134.631],[124.1284,-9.4167,128.0363],[124.1344,-9.4266,121.7779],[124.1438,-9.4242,130.5345],[124.15,-9.4273,127.9115],[124.1501,-9.4219,136.3106],[124.1547,-9.4225,143.5702],[124.1616,-9.4197,154.209],[124.1627,-9.4177,147.5537],[124.1612,-9.4125,154.3942],[124.1719,-9.4003,174.8831],[124.1681,-9.3967,172.2195],[124.1682,-9.3945,193.5526],[124.1722,-9.3932,226.8842],[124.1737,-9.3905,195.5331],[124.1857,-9.3873,212.5679],[124.1901,-9.3839,219.6152],[124.1925,-9.3778,241.3585],[124.197,-9.3789,235.3148],[124.2031,-9.3778,240.9741],[124.205,-9.3706,252.3884],[124.2109,-9.3701,273.7168],[124.2121,-9.3678,264.6532],[124.2166,-9.3656,286.6322],[124.2306,-9.3759,284.4232],[124.235,-9.3744,302.7682],[124.239,-9.3817,329.0116],[124.2446,-9.384,300.5303],[124.2521,-9.3923,312.6957],[124.2614,-9.3963,324.3569],[124.2628,-9.4037,337.1591],[124.2667,-9.407,346.1893],[124.2678,-9.4124,363.0437],[124.2698,-9.4112,361.9463],[124.2716,-9.4124,359.1027],[124.2711,-9.4146,382.0165],[124.274,-9.4204,379.3514],[124.2733,-9.424,389.0894],[124.2756,-9.4248,392.292],[124.2765,-9.4291,414.0624],[124.2764,-9.4315,429.2476],[124.274,-9.4334,427.6252],[124.2761,-9.436,430.348]]]]}}