{"type": "Feature","bbox": [125.6636,-8.5881,125.8605,-8.4858],"geometry": {"type": "MultiPolygon","coordinates": [[[[125.6849,-8.5881,788.0206],[125.6873,-8.5858,871.1497],[125.688,-8.5821,750.3977],[125.6856,-8.5771,456.4588],[125.6857,-8.5715,314.1398],[125.6877,-8.5689,296.6885],[125.6908,-8.5682,223.1531],[125.6945,-8.5598,111.6334],[125.6966,-8.5603,106.5228],[125.6975,-8.5588,92.3385],[125.706,-8.5613,287.5815],[125.7128,-8.5655,505.4938],[125.7218,-8.5636,683.9032],[125.7315,-8.5654,687.1067],[125.7347,-8.5639,679.1757],[125.7408,-8.5671,700.5107],[125.7454,-8.5644,656.0525],[125.7536,-8.5639,758.4409],[125.7567,-8.5678,789.859],[125.7607,-8.5663,819.7643],[125.7676,-8.5712,883.9468],[125.7753,-8.5666,754.4128],[125.7775,-8.5589,521.3949],[125.7807,-8.5551,331.203],[125.7814,-8.5455,172.0389],[125.7843,-8.5421,141.6148],[125.793,-8.5433,180.7283],[125.7943,-8.5462,195.6488],[125.8001,-8.5471,429.2947],[125.8057,-8.544,464.1138],[125.8087,-8.5402,316.425],[125.8157,-8.5407,539.8231],[125.823,-8.5391,512.2306],[125.8291,-8.5349,547.1663],[125.8339,-8.5392,411.8568],[125.8361,-8.539,408.0578],[125.8414,-8.5324,610.5966],[125.8449,-8.5305,615.1095],[125.8471,-8.5326,572.2614],[125.856,-8.5232,714.3118],[125.8585,-8.5226,649.1732],[125.8568,-8.5185,622.3353],[125.8571,-8.5146,657.8289],[125.8605,-8.5097,780.9072],[125.8523,-8.5044,385.6249],[125.8445,-8.4928,82.0573],[125.8348,-8.4858,2.3534],[125.8285,-8.4909,0.7777],[125.8229,-8.4898,1.9295],[125.8195,-8.4909,0.0],[125.8164,-8.4964,6.2486],[125.8064,-8.5033,6.7022],[125.7897,-8.5019,2.4745],[125.786,-8.5046,11.25],[125.7797,-8.5053,0.0],[125.7784,-8.5087,11.6092],[125.7733,-8.5069,4.3313],[125.7611,-8.5108,0.0],[125.7552,-8.5143,0.0],[125.7514,-8.521,0.0],[125.7411,-8.5228,0.7546],[125.7319,-8.5208,0.0],[125.725,-8.5269,7.891],[125.7192,-8.5197,0.0],[125.715,-8.5203,3.697],[125.7058,-8.5297,8.4047],[125.6983,-8.5339,2.3878],[125.6936,-8.5333,1.7367],[125.6961,-8.5423,145.1598],[125.6995,-8.546,171.9697],[125.6995,-8.5503,241.7725],[125.6924,-8.5488,117.1597],[125.6909,-8.5599,283.9206],[125.6857,-8.5656,368.7036],[125.6827,-8.5718,463.5764],[125.6636,-8.5686,74.0068],[125.6637,-8.5769,137.9596],[125.6661,-8.5805,191.2763],[125.6758,-8.5873,601.8301],[125.6849,-8.5881,788.0206]]]]}
,"properties": {"GID_2": "TLS.7.4_1","GID_0": "TLS","country": "Timor-Leste","GID_1": "TLS.7_1","province": "Dili","NL_NAME_1": "NA","county": "Metinaro","VARNAME_2": "NA","NL_NAME_2": "NA","TYPE_2": "Subdistrito","ENGTYPE_2": "Subdistrict","CC_2": "NA","HASC_2": "NA","name": "Metinaro.county","area_km2": 90.4118,"hist_schema_id": "Elevation0-9000","hist_area_km2": {"0": 12.5601,"25": 9.64536,"50": 4.65488,"75": 4.19353,"100": 3.73224,"125": 3.56447,"150": 3.4177,"175": 3.39671,"200": 3.54349,"225": 2.95639,"250": 3.12411,"275": 2.53704,"300": 2.59991,"325": 2.6628,"350": 1.92897,"375": 2.0338,"400": 1.9499,"425": 1.80315,"450": 1.67735,"475": 1.78217,"500": 2.15961,"525": 3.58543,"550": 1.99188,"575": 1.19511,"600": 1.11124,"625": 1.32089,"650": 1.04834,"675": 1.11124,"700": 1.2161,"725": 0.67094,"750": 0.35641,"775": 0.39835,"800": 0.08386,"825": 0.25158,"850": 0.06289,"875": 0.06289,"900": 0.02097}}}