{"type":"Feature","properties":{"GID_3":"TLS.8.1.12_1","GID_0":"TLS","country":"Timor-Leste","GID_1":"TLS.8_1","province":"Ermera","NL_NAME_1":"NA","GID_2":"TLS.8.1_1","county":"Atsabe","NL_NAME_2":"NA","city":"Paramin","VARNAME_3":"Tirlelo","NL_NAME_3":"NA","TYPE_3":"Suco","ENGTYPE_3":"Community","CC_3":"NA","HASC_3":"NA","name":"Paramin.city"},
"geometry":{"type": "MultiPolygon","coordinates": [[[[125.3735,-8.9389,770.0535],[125.3761,-8.9307,758.0039],[125.3857,-8.9198,1074.8177],[125.3823,-8.9103,795.087],[125.3784,-8.9075,698.1326],[125.3777,-8.9048,673.1187],[125.3691,-8.9104,564.5492],[125.3675,-8.9092,589.585],[125.3606,-8.9097,455.7269],[125.3569,-8.9072,388.8995],[125.3519,-8.9075,346.1816],[125.3451,-8.9127,286.8632],[125.341,-8.9126,271.7969],[125.3454,-8.9151,289.1857],[125.3462,-8.9174,311.9686],[125.3518,-8.9182,320.3026],[125.3512,-8.9216,360.8168],[125.354,-8.9266,400.44],[125.3564,-8.9262,444.1039],[125.3584,-8.9284,457.2445],[125.3646,-8.9296,509.0209],[125.3688,-8.9375,698.3402],[125.3735,-8.9389,770.0535]]]]}}