{"type":"Feature","properties":{"GID_3":"TLS.3.3.4_1","GID_0":"TLS","country":"Timor-Leste","GID_1":"TLS.3_1","province":"Ambeno","NL_NAME_1":"NA","GID_2":"TLS.3.3_1","county":"PanteMacassar","NL_NAME_2":"NA","city":"Kuetete","VARNAME_3":"Costa","NL_NAME_3":"NA","TYPE_3":"Suco","ENGTYPE_3":"Community","CC_3":"NA","HASC_3":"NA","name":"Kuetete.city"},
"geometry":{"type": "MultiPolygon","coordinates": [[[[124.4261,-9.2647,348.5976],[124.4335,-9.265,417.8034],[124.4412,-9.2628,548.6317],[124.442,-9.2499,825.1093],[124.4448,-9.2445,1098.501],[124.4364,-9.236,1078.7539],[124.4297,-9.2341,961.4139],[124.4281,-9.2283,847.7723],[124.4182,-9.2108,446.4413],[124.4177,-9.2044,334.9168],[124.4142,-9.1999,224.9212],[124.4138,-9.1962,83.3224],[124.4041,-9.1817,10.3291],[124.4006,-9.1841,0.0],[124.3988,-9.1877,1.5361],[124.39,-9.1879,0.0],[124.4011,-9.2093,482.863],[124.4146,-9.2288,469.454],[124.4218,-9.2451,633.7954],[124.4261,-9.2647,348.5976]]]]}}