{"type":"Feature","properties":{"GID_3":"TLS.6.5.8_1","GID_0":"TLS","country":"Timor-Leste","GID_1":"TLS.6_1","province":"Covalima","NL_NAME_1":"NA","GID_2":"TLS.6.5_1","county":"SuaiKota","NL_NAME_2":"NA","city":"Kuluwan","VARNAME_3":"Beco","NL_NAME_3":"NA","TYPE_3":"Suco","ENGTYPE_3":"Community","CC_3":"NA","HASC_3":"NA","name":"Kuluwan.city"},
"geometry":{"type": "MultiPolygon","coordinates": [[[[125.332,-9.1281,286.2188],[125.329,-9.13,359.59],[125.3262,-9.137,527.6892],[125.318,-9.1427,720.0526],[125.3162,-9.1514,709.041],[125.3169,-9.156,527.384],[125.3211,-9.1571,524.7508],[125.3243,-9.1607,425.5543],[125.3311,-9.1639,412.2688],[125.3406,-9.1655,265.9309],[125.3527,-9.1725,201.1658],[125.3452,-9.1812,443.7347],[125.3459,-9.1875,301.1827],[125.339,-9.1953,391.1125],[125.3357,-9.1978,355.1557],[125.327,-9.1948,213.0567],[125.3238,-9.1956,192.1747],[125.3215,-9.1983,161.2226],[125.3237,-9.2042,170.3477],[125.3297,-9.205,152.3361],[125.3386,-9.2193,109.6596],[125.3375,-9.2285,108.3165],[125.3408,-9.2345,117.6605],[125.3394,-9.2391,80.3392],[125.34,-9.2464,69.9212],[125.3431,-9.2536,53.863],[125.3475,-9.2573,48.8047],[125.3533,-9.2579,47.9163],[125.3603,-9.2638,24.1848],[125.3631,-9.2642,26.237],[125.3706,-9.2744,5.639],[125.3925,-9.2639,1.9998],[125.4111,-9.2617,0.0],[125.4156,-9.2581,0.0],[125.4172,-9.2586,0.2252],[125.4167,-9.2606,0.0],[125.4283,-9.2608,3.1211],[125.4344,-9.2511,8.484],[125.434,-9.2456,6.0751],[125.4282,-9.2374,16.1432],[125.4289,-9.2331,8.6529],[125.4256,-9.2289,12.2657],[125.4263,-9.2259,13.2254],[125.4203,-9.2158,25.0242],[125.4133,-9.2136,41.1403],[125.4041,-9.1992,44.8151],[125.3906,-9.2055,62.5095],[125.3836,-9.2026,96.7154],[125.3784,-9.1905,158.632],[125.3832,-9.1808,119.7504],[125.3937,-9.1752,92.6129],[125.3951,-9.1682,90.1219],[125.3925,-9.1594,104.2277],[125.3855,-9.1535,114.8665],[125.3779,-9.1565,128.4883],[125.3679,-9.143,156.3423],[125.3604,-9.1385,197.5966],[125.3605,-9.1304,177.1335],[125.3572,-9.1279,193.4508],[125.3421,-9.1253,241.5098],[125.3385,-9.1284,283.9519],[125.332,-9.1281,286.2188]]]]}}