{"type":"Feature","properties":{"GID_3":"TLS.1.4.2_1","GID_0":"TLS","country":"Timor-Leste","GID_1":"TLS.1_1","province":"Aileu","NL_NAME_1":"NA","GID_2":"TLS.1.4_1","county":"Remexio","NL_NAME_2":"NA","city":"Aicurus","VARNAME_3":"Faturasa","NL_NAME_3":"NA","TYPE_3":"Suco","ENGTYPE_3":"Community","CC_3":"NA","HASC_3":"NA","name":"Aicurus.city"},
"geometry":{"type": "MultiPolygon","coordinates": [[[[125.813,-8.683,273.3089],[125.8085,-8.6767,295.4579],[125.8046,-8.6774,350.1853],[125.7939,-8.6732,641.6484],[125.7916,-8.6652,927.3088],[125.7884,-8.664,867.3587],[125.7866,-8.6577,610.7234],[125.7886,-8.6491,472.5776],[125.7857,-8.6501,474.8073],[125.7817,-8.6489,492.1129],[125.7794,-8.6446,507.8082],[125.7747,-8.6471,558.0549],[125.7698,-8.6472,613.6487],[125.7627,-8.6515,648.4031],[125.7577,-8.6516,658.8464],[125.7507,-8.6885,557.4943],[125.751,-8.6928,475.5641],[125.7536,-8.6938,487.1239],[125.7568,-8.701,413.584],[125.7612,-8.7003,405.8124],[125.7708,-8.6953,386.2033],[125.7706,-8.6936,433.3499],[125.7719,-8.6962,386.2033],[125.7749,-8.696,396.3821],[125.7777,-8.6937,398.7049],[125.787,-8.6942,326.658],[125.7997,-8.6879,306.669],[125.8009,-8.6852,291.7298],[125.805,-8.6861,291.3778],[125.8076,-8.6837,279.73],[125.813,-8.683,273.3089]]]]}}