{"type": "Feature","bbox": [125.0483,-9.3914,125.1068,-9.2955],"geometry": {"type": "MultiPolygon","coordinates": [[[[125.0502,-9.359,171.691],[125.0534,-9.3641,159.5248],[125.0587,-9.3669,150.9976],[125.0588,-9.3707,141.5478],[125.061,-9.3726,140.8049],[125.0665,-9.3733,129.0383],[125.0681,-9.3797,152.6969],[125.071,-9.3828,117.004],[125.0751,-9.3838,116.3285],[125.0798,-9.3914,85.0343],[125.0809,-9.3908,88.8163],[125.0841,-9.3856,104.1464],[125.0839,-9.3816,123.7611],[125.0878,-9.3804,152.4251],[125.0881,-9.3778,166.3533],[125.0911,-9.3753,178.5528],[125.094,-9.3757,180.2104],[125.0931,-9.3606,269.1134],[125.1004,-9.3424,558.8986],[125.101,-9.3388,557.4328],[125.0993,-9.3326,439.6941],[125.1042,-9.3174,239.9675],[125.1043,-9.3111,184.0426],[125.1068,-9.31,175.0147],[125.0972,-9.3095,195.4616],[125.0886,-9.3043,211.6698],[125.0841,-9.299,243.5959],[125.0796,-9.2976,268.6219],[125.073,-9.2979,290.0654],[125.0667,-9.2955,312.0388],[125.0642,-9.2972,310.8396],[125.061,-9.297,315.9914],[125.0624,-9.3089,552.6039],[125.0614,-9.3119,614.7773],[125.0566,-9.3181,567.5489],[125.0517,-9.3208,454.2422],[125.0483,-9.3248,367.3832],[125.0523,-9.3312,370.5907],[125.05029999999999,-9.3343,324.7159],[125.0512,-9.3448,253.2246],[125.0488,-9.3535,208.0504],[125.0495,-9.3551,211.3546],[125.0515,-9.3551,201.4776],[125.0502,-9.359,171.691]]]]}
,"properties": {"GID_3": "TLS.6.6.6_1","GID_0": "TLS","country": "Timor-Leste","GID_1": "TLS.6_1","province": "Covalima","NL_NAME_1": "NA","GID_2": "TLS.6.6_1","county": "Tilomar","NL_NAME_2": "NA","city": "Raihun","VARNAME_3": "Foholulik","NL_NAME_3": "NA","TYPE_3": "Suco","ENGTYPE_3": "Community","CC_3": "NA","HASC_3": "NA","name": "Raihun.city","area_km2": 42.61641,"hist_schema_id": "Elevation0-9000","hist_area_km2": {"75": 0.04184,"100": 0.41837,"125": 0.50205,"150": 0.77401,"175": 1.10873,"200": 1.77826,"225": 1.9247,"250": 2.55236,"275": 3.09629,"300": 2.61513,"325": 2.94987,"350": 3.15911,"375": 2.92897,"400": 2.90806,"425": 2.82439,"450": 2.46873,"475": 2.02938,"500": 1.86202,"525": 1.71558,"550": 1.339,"575": 1.08794,"600": 1.10888,"625": 0.62768,"650": 0.54399,"675": 0.18831,"700": 0.02092,"725": 0.04185}}}