{"type": "Feature","bbox": [125.4543,-8.7236,125.4879,-8.6559],"geometry": {"type": "MultiPolygon","coordinates": [[[[125.4879,-8.7029,1070.1333],[125.4826,-8.6926,813.8949],[125.485,-8.6847,1005.8933],[125.4835,-8.6774,982.0918],[125.4863,-8.6702,795.3397],[125.4786,-8.6587,540.1502],[125.4724,-8.6584,523.7393],[125.4717,-8.6569,522.8514],[125.4654,-8.6559,527.5027],[125.467,-8.6625,623.4687],[125.4647,-8.6693,725.2084],[125.4547,-8.6799,609.1007],[125.4624,-8.6865,667.1754],[125.4616,-8.7005,977.0626],[125.4581,-8.706,840.0087],[125.4543,-8.7232,725.7216],[125.4644,-8.7204,763.8552],[125.4712,-8.7223,782.7382],[125.4757,-8.7212,821.8537],[125.4781,-8.7235,842.6809],[125.4816,-8.7225,894.2035],[125.4835,-8.7236,879.0272],[125.4879,-8.7029,1070.1333]]]]}
,"properties": {"GID_3": "TLS.8.5.5_1","GID_0": "TLS","country": "Timor-Leste","GID_1": "TLS.8_1","province": "Ermera","NL_NAME_1": "NA","GID_2": "TLS.8.5_1","county": "Railaco","NL_NAME_2": "NA","city": "Railako-Kraik","VARNAME_3": "RailacoCraic","NL_NAME_3": "NA","TYPE_3": "Suco","ENGTYPE_3": "Community","CC_3": "NA","HASC_3": "NA","name": "Railako-Kraik.city","area_km2": 18.98854,"hist_schema_id": "Elevation0-9000","hist_area_km2": {"475": 0.04192,"500": 0.04192,"525": 0.12576,"550": 0.16768,"575": 0.25153,"600": 0.23056,"625": 0.3144,"650": 0.37728,"675": 0.60783,"700": 0.58687,"725": 0.79645,"750": 1.17367,"775": 1.42517,"800": 1.44613,"825": 1.42517,"850": 1.3623,"875": 1.29942,"900": 1.23654,"925": 1.38325,"950": 0.94313,"975": 1.15272,"1000": 1.02696,"1025": 0.69163,"1050": 0.56587,"1075": 0.23054,"1100": 0.08383}}}