{"type":"Feature","properties":{"GID_3":"TLS.2.1.7_1","GID_0":"TLS","country":"Timor-Leste","GID_1":"TLS.2_1","province":"Ainaro","NL_NAME_1":"NA","GID_2":"TLS.2.1_1","county":"Ainaro","NL_NAME_2":"NA","city":"SuroCraik","VARNAME_3":"SoroCraic","NL_NAME_3":"NA","TYPE_3":"Suco","ENGTYPE_3":"Community","CC_3":"NA","HASC_3":"NA","name":"Suro_Craik.city"},
"geometry":{"type": "MultiPolygon","coordinates": [[[[125.5503,-9.1252,118.9399],[125.5521,-9.1236,121.2317],[125.557,-9.1026,150.4291],[125.5639,-9.0984,169.2535],[125.5633,-9.0855,177.9392],[125.5693,-9.0796,200.0778],[125.5663,-9.0768,225.958],[125.5643,-9.0693,208.8448],[125.5609,-9.0645,222.0295],[125.561,-9.0558,236.2149],[125.558,-9.0525,253.5491],[125.5533,-9.0423,290.3806],[125.5536,-9.0368,272.1498],[125.5563,-9.0323,317.7632],[125.553,-9.0289,293.6973],[125.5552,-9.0239,316.8362],[125.5508,-9.0256,381.2061],[125.5379,-9.0257,683.7049],[125.5304,-9.0405,406.4586],[125.5313,-9.0485,388.2226],[125.5339,-9.0512,370.6182],[125.5349,-9.0576,303.6456],[125.5363,-9.0584,297.9227],[125.5347,-9.0638,266.7104],[125.5382,-9.067,274.8746],[125.5374,-9.0701,250.743],[125.5391,-9.0744,244.0389],[125.5372,-9.0758,239.128],[125.5317,-9.1024,177.9161],[125.5339,-9.1063,164.6543],[125.5412,-9.1125,150.7516],[125.548,-9.1238,124.7687],[125.5503,-9.1252,118.9399]]]]}}