{"type":"Feature","properties":{"GID_2":"TLS.11.4_1","GID_0":"TLS","country":"Timor-Leste","GID_1":"TLS.11_1","province":"Manatuto","NL_NAME_1":"NA","county":"Laleia","VARNAME_2":"NA","NL_NAME_2":"NA","TYPE_2":"Subdistrito","ENGTYPE_2":"Subdistrict","CC_2":"NA","HASC_2":"NA","name":"Laleia.county"},
"geometry":{"type": "MultiPolygon","coordinates": [[[[126.1935,-8.5749,265.5948],[126.1871,-8.5688,245.1701],[126.1849,-8.5617,218.1743],[126.1825,-8.531,38.9201],[126.185,-8.5283,27.9263],[126.1848,-8.5263,25.7451],[126.1681,-8.5122,9.7539],[126.164,-8.5062,7.7492],[126.161,-8.496,0.0],[126.1571,-8.5005,1.0417],[126.1433,-8.5014,7.0674],[126.1358,-8.5078,0.0],[126.1278,-8.5033,1.7752],[126.1217,-8.5039,0.0],[126.1125,-8.5101,3.5013],[126.1063,-8.5095,0.0],[126.1002,-8.5126,0.9427],[126.093,-8.5194,0.0],[126.0854,-8.5188,0.2506],[126.0867,-8.5264,29.1993],[126.0854,-8.5283,27.1262],[126.0867,-8.531,29.1066],[126.0857,-8.5322,34.132],[126.0872,-8.5337,67.0423],[126.0855,-8.541,57.0538],[126.0819,-8.5459,76.0899],[126.0748,-8.5492,134.2079],[126.067,-8.565,173.1875],[126.0635,-8.5664,195.889],[126.0596,-8.5743,256.9055],[126.062,-8.5861,510.9629],[126.0666,-8.5934,680.8596],[126.0642,-8.6003,618.647],[126.0664,-8.6074,468.7333],[126.0734,-8.615,238.1807],[126.0737,-8.6185,188.8106],[126.078,-8.6169,194.3536],[126.0826,-8.6178,171.3654],[126.0843,-8.6164,166.8529],[126.087,-8.6194,169.3184],[126.0842,-8.6241,179.0517],[126.0804,-8.6255,190.4363],[126.0819,-8.6265,196.804],[126.0811,-8.629,199.592],[126.0787,-8.6262,209.4588],[126.0747,-8.6271,220.3187],[126.0724,-8.634,218.5514],[126.0738,-8.6372,218.2612],[126.0715,-8.6556,286.947],[126.0736,-8.6597,309.9214],[126.0727,-8.661,320.035],[126.0757,-8.6641,333.1398],[126.0746,-8.6854,699.5615],[126.0802,-8.6874,604.6309],[126.0844,-8.6935,441.7041],[126.0847,-8.6968,407.225],[126.095,-8.6969,309.6191],[126.0956,-8.6939,258.8352],[126.0985,-8.6922,260.3531],[126.0974,-8.6897,257.5604],[126.0984,-8.6871,246.9034],[126.1045,-8.6821,233.554],[126.1088,-8.6731,203.5576],[126.1122,-8.6723,209.152],[126.1121,-8.6687,204.1064],[126.1177,-8.6706,186.1835],[126.125,-8.6669,169.9585],[126.1295,-8.6678,188.2308],[126.1319,-8.67,161.5885],[126.1425,-8.6672,138.5478],[126.1495,-8.6729,163.4218],[126.152,-8.667,263.4637],[126.1654,-8.6569,378.1833],[126.1661,-8.6548,399.1763],[126.1799,-8.649,472.3406],[126.1811,-8.6434,519.39],[126.1835,-8.643,509.4332],[126.1853,-8.6395,469.0344],[126.1881,-8.638,437.0987],[126.1952,-8.6249,343.1776],[126.1936,-8.6172,262.5476],[126.1905,-8.6116,282.6849],[126.1964,-8.6056,265.7798],[126.192,-8.599,304.8521],[126.197,-8.5798,340.1601],[126.1935,-8.5749,265.5948]]]]}}