{"type": "Feature","bbox": [125.5427,-8.8713,125.6138,-8.8197],"geometry": {"type": "MultiPolygon","coordinates": [[[[125.5462,-8.8365,2015.7548],[125.5474,-8.8413,2046.5253],[125.5452,-8.8453,2066.3696],[125.5461,-8.8582,2211.1187],[125.5427,-8.8713,2315.563],[125.5481,-8.8643,2041.1805],[125.5589,-8.8621,1799.5786],[125.5657,-8.8656,1683.5446],[125.5683,-8.8633,1654.978],[125.5729,-8.8642,1548.936],[125.5771,-8.8629,1514.6991],[125.5841,-8.8596,1445.4707],[125.5855,-8.8571,1408.7144],[125.5908,-8.8578,1377.5464],[125.5969,-8.8556,1330.9415],[125.6058,-8.847,1306.9061],[125.6036,-8.8382,1419.8322],[125.6066,-8.8351,1347.2949],[125.6074,-8.8299,1545.1652],[125.6109,-8.8295,1413.1962],[125.6138,-8.8216,1576.979],[125.6093,-8.8197,1545.8588],[125.5975,-8.8244,1638.1697],[125.5937,-8.8232,1733.6865],[125.5861,-8.824,1888.5181],[125.5827,-8.8255,1826.4698],[125.5771,-8.8314,1763.3232],[125.5693,-8.8331,1923.9983],[125.565,-8.836,1835.3826],[125.5659,-8.8385,1816.4077],[125.5623,-8.8405,1931.4158],[125.5572,-8.8408,1943.9623],[125.5511,-8.8366,2021.728],[125.5462,-8.8365,2015.7548]]]]}
,"properties": {"GID_3": "TLS.2.4.8_1","GID_0": "TLS","country": "Timor-Leste","GID_1": "TLS.2_1","province": "Ainaro","NL_NAME_1": "NA","GID_2": "TLS.2.4_1","county": "Maubisse","NL_NAME_2": "NA","city": "Maubisse","VARNAME_3": "NA","NL_NAME_3": "NA","TYPE_3": "Suco","ENGTYPE_3": "Community","CC_3": "NA","HASC_3": "NA","name": "Maubisse.city","area_km2": 22.33281,"hist_schema_id": "Elevation0-9000","hist_area_km2": {"1300": 0.06285,"1325": 0.60755,"1350": 0.8799,"1375": 0.7961,"1400": 0.77516,"1425": 0.77516,"1450": 0.58661,"1475": 0.98466,"1500": 0.56566,"1525": 0.79611,"1550": 1.08943,"1575": 0.98467,"1600": 0.85897,"1625": 0.50281,"1650": 0.6704,"1675": 0.62851,"1700": 0.75421,"1725": 0.43995,"1750": 0.69136,"1775": 0.54471,"1800": 0.6285,"1825": 0.7961,"1850": 0.77514,"1875": 0.85895,"1900": 0.64945,"1925": 0.8799,"1950": 0.77515,"1975": 0.52375,"2000": 0.4609,"2025": 0.52375,"2050": 0.31425,"2075": 0.29329,"2100": 0.25139,"2125": 0.23044,"2150": 0.16759,"2175": 0.0838,"2200": 0.0419,"2250": 0.06285,"2275": 0.02095}}}