{"type": "Feature","bbox": [125.3872,-8.7752,125.4307,-8.7427],"geometry": {"type": "MultiPolygon","coordinates": [[[[125.4307,-8.7427,732.8627],[125.4266,-8.7464,766.4104],[125.4222,-8.7476,818.4026],[125.4195,-8.752,851.3368],[125.4174,-8.7519,869.5383],[125.4147,-8.7491,933.7632],[125.4051,-8.7511,1032.333],[125.3969,-8.7636,1326.7939],[125.3888,-8.7648,1381.7163],[125.3872,-8.7716,1438.7122],[125.3879,-8.7752,1337.2424],[125.4015,-8.7729,1359.7042],[125.4041,-8.7707,1324.3738],[125.4117,-8.7717,1226.448],[125.4176,-8.7676,1136.833],[125.4179,-8.765,1137.2833],[125.4241,-8.7582,912.4968],[125.4307,-8.7427,732.8627]]]]}
,"properties": {"GID_3": "TLS.8.2.4_1","GID_0": "TLS","country": "Timor-Leste","GID_1": "TLS.8_1","province": "Ermera","NL_NAME_1": "NA","GID_2": "TLS.8.2_1","county": "Ermera","NL_NAME_2": "NA","city": "Mirtutu","VARNAME_3": "NA","NL_NAME_3": "NA","TYPE_3": "Suco","ENGTYPE_3": "Community","CC_3": "NA","HASC_3": "NA","name": "Mirtutu.city","area_km2": 7.103675,"hist_schema_id": "Elevation0-9000","hist_area_km2": {"750": 0.083823,"775": 0.104778,"800": 0.083822,"825": 0.146688,"850": 0.167642,"875": 0.041911,"900": 0.083821,"925": 0.251463,"950": 0.188597,"975": 0.146687,"1000": 0.251462,"1025": 0.272417,"1050": 0.146686,"1075": 0.167641,"1100": 0.146685,"1125": 0.335278,"1150": 0.188595,"1175": 0.188594,"1200": 0.251458,"1225": 0.272411,"1250": 0.293366,"1275": 0.31432,"1300": 0.31432,"1325": 0.50291,"1350": 0.440042,"1375": 0.481951,"1400": 0.37718,"1425": 0.377179,"1450": 0.251452,"1475": 0.14668,"1500": 0.083817}}}