{"type":"Feature","properties":{"GID_3":"TLS.8.4.4_1","GID_0":"TLS","country":"Timor-Leste","GID_1":"TLS.8_1","province":"Ermera","NL_NAME_1":"NA","GID_2":"TLS.8.4_1","county":"Letefoho","NL_NAME_2":"NA","city":"Hatugau","VARNAME_3":"HatuGau","NL_NAME_3":"NA","TYPE_3":"Suco","ENGTYPE_3":"Community","CC_3":"NA","HASC_3":"NA","name":"Hatugau.city"},
"geometry":{"type": "MultiPolygon","coordinates": [[[[125.3846,-8.8302,996.4305],[125.3821,-8.8347,859.4296],[125.3834,-8.837,848.4114],[125.3809,-8.8425,807.4023],[125.3883,-8.8508,1132.5441],[125.3851,-8.8604,918.653],[125.3867,-8.8655,687.9739],[125.3887,-8.8642,732.4449],[125.3991,-8.864,746.9972],[125.4023,-8.8593,802.7224],[125.4064,-8.8594,833.0704],[125.4084,-8.8534,973.5566],[125.4066,-8.8441,1254.4768],[125.408,-8.8407,1355.1359],[125.4027,-8.823,1097.2545],[125.3942,-8.8308,1064.2771],[125.3846,-8.8302,996.4305]]]]}}