{"type": "Feature","bbox": [127.1039,-8.5581,127.3425,-8.3339],"geometry": {"type": "MultiPolygon","coordinates": [[[[127.1119,-8.393,474.6276],[127.1084,-8.3967,535.6437],[127.1058,-8.4028,502.9366],[127.1039,-8.4158,395.3183],[127.1076,-8.4325,345.4581],[127.1171,-8.4371,335.0],[127.1126,-8.4436,335.0],[127.1125,-8.4659,335.0],[127.1152,-8.4704,335.0],[127.1191,-8.4729,335.0],[127.1181,-8.4778,335.0],[127.1256,-8.4895,367.7508],[127.14,-8.5007,458.2298],[127.1383,-8.5286,199.8299],[127.1422,-8.5331,117.8479],[127.1409,-8.5353,110.6484],[127.1356,-8.5379,87.2884],[127.1332,-8.5433,57.7],[127.1312,-8.5443,42.5829],[127.1327,-8.5492,155.8473],[127.135,-8.5509,158.424],[127.1354,-8.5581,0.0],[127.1403,-8.5567,0.0],[127.145,-8.5508,7.4479],[127.1553,-8.5464,0.0],[127.1575,-8.5431,0.0],[127.16,-8.5436,0.0],[127.1661,-8.5403,0.0],[127.174,-8.5327,1.3433],[127.1834,-8.5294,0.0],[127.1939,-8.5214,0.0],[127.2064,-8.5108,15.7619],[127.2121,-8.4974,9.3068],[127.2267,-8.4869,7.9251],[127.2306,-8.4792,5.1585],[127.248,-8.4731,0.0],[127.2581,-8.4661,2.1179],[127.2606,-8.4617,2.8997],[127.2636,-8.4611,6.2615],[127.2678,-8.4558,19.5818],[127.2694,-8.4478,58.7851],[127.2761,-8.4405,38.7065],[127.2828,-8.4375,5.7163],[127.2931,-8.4369,0.0],[127.3011,-8.4311,15.5917],[127.3019,-8.4178,0.0],[127.2992,-8.4086,0.0],[127.2986,-8.3958,0.0],[127.2947,-8.3903,28.9958],[127.2897,-8.3881,18.1539],[127.2861,-8.3886,27.418],[127.2822,-8.3861,0.0],[127.2756,-8.3881,52.633],[127.265,-8.3842,0.0],[127.2561,-8.385,37.6878],[127.2422,-8.3786,13.0936],[127.2331,-8.3783,63.5553],[127.2197,-8.3667,5.0752],[127.2133,-8.3572,0.0],[127.2044,-8.3489,49.0122],[127.2019,-8.3408,0.0],[127.1944,-8.3353,6.9462],[127.1853,-8.3361,0.0],[127.18,-8.3339,0.0],[127.1725,-8.3403,13.1322],[127.1689,-8.3408,0.0],[127.1517,-8.3581,26.6807],[127.1453,-8.3619,9.2349],[127.1339,-8.3656,7.6713],[127.1186,-8.3664,15.626],[127.1146,-8.368,8.462],[127.11279999999999,-8.3728,90.4734],[127.1143,-8.3872,345.1322],[127.1119,-8.393,474.6276]]],
[[[127.3242,-8.4114,0.0],[127.3169,-8.4114,12.3281],[127.3092,-8.4169,0.0],[127.3078,-8.4222,10.5587],[127.3086,-8.4356,0.0],[127.3197,-8.4461,1.6688],[127.3289,-8.4483,0.0],[127.3325,-8.4442,5.6351],[127.3386,-8.4431,0.0],[127.3408,-8.4411,0.0],[127.3425,-8.4375,0.0],[127.3422,-8.4331,2.9687],[127.3369,-8.4203,0.0],[127.3314,-8.4147,6.2767],[127.3242,-8.4114,0.0]]]]}
,"properties": {"GID_2": "TLS.9.5_1","GID_0": "TLS","country": "Timor-Leste","GID_1": "TLS.9_1","province": "Lautém","NL_NAME_1": "NA","county": "Tutuala","VARNAME_2": "NA","NL_NAME_2": "NA","TYPE_2": "Subdistrito","ENGTYPE_2": "Subdistrict","CC_2": "NA","HASC_2": "NA","name": "Tutuala.county","area_km2": 309.0992,"hist_schema_id": "Elevation0-9000","hist_area_km2": {"0": 4.9284,"25": 10.8848,"50": 16.0443,"75": 9.4796,"100": 9.4376,"125": 10.2343,"150": 10.4229,"175": 10.0243,"200": 7.3193,"225": 7.5084,"250": 9.1654,"275": 8.6202,"300": 7.6764,"325": 48.7407,"350": 30.2228,"375": 16.4225,"400": 17.9537,"425": 15.332,"450": 13.1079,"475": 12.8143,"500": 9.1442,"525": 5.4531,"550": 4.2787,"575": 3.2719,"600": 3.4816,"625": 1.8455,"650": 1.1324,"675": 0.9227,"700": 0.9017,"725": 0.692,"750": 0.4823,"775": 0.4823,"800": 0.3355,"825": 0.1468,"850": 0.1048,"875": 0.0629,"900": 0.021}}}