{"type":"Feature","properties":{"GID_3":"TLS.1.4.1_1","GID_0":"TLS","country":"Timor-Leste","GID_1":"TLS.1_1","province":"Aileu","NL_NAME_1":"NA","GID_2":"TLS.1.4_1","county":"Remexio","NL_NAME_2":"NA","city":"Acumanu","VARNAME_3":"AcuMau","NL_NAME_3":"NA","TYPE_3":"Suco","ENGTYPE_3":"Community","CC_3":"NA","HASC_3":"NA","name":"Acumanu.city"},
"geometry":{"type": "MultiPolygon","coordinates": [[[[125.6303,-8.6373,1148.4929],[125.6393,-8.6384,1110.293],[125.644,-8.6409,1055.8945],[125.6464,-8.6394,1036.729],[125.6486,-8.6403,997.5666],[125.6571,-8.6389,987.257],[125.66,-8.6405,917.8671],[125.6651,-8.6393,955.7739],[125.6689,-8.6416,901.3762],[125.6709,-8.6397,875.8583],[125.6745,-8.6401,885.2373],[125.6762,-8.6374,869.1335],[125.6773,-8.6383,869.3092],[125.6789,-8.6348,851.4269],[125.6827,-8.6349,833.1241],[125.6873,-8.638,845.6748],[125.6893,-8.6369,817.3813],[125.6893,-8.6395,822.2247],[125.6995,-8.6415,775.8859],[125.6981,-8.6438,809.5917],[125.6991,-8.6446,809.9975],[125.7049,-8.636,976.3124],[125.7158,-8.633,1138.2753],[125.7071,-8.6207,944.6611],[125.6988,-8.6196,943.0845],[125.6975,-8.6053,621.7432],[125.6904,-8.6037,625.1237],[125.6848,-8.6005,634.9175],[125.6855,-8.5881,788.0206],[125.6758,-8.5873,601.8301],[125.6681,-8.5822,227.0059],[125.6638,-8.5773,137.9596],[125.6634,-8.5697,78.8365],[125.659,-8.5711,137.9773],[125.6595,-8.5741,111.8878],[125.656,-8.5773,149.5617],[125.6578,-8.5812,186.8228],[125.656,-8.5864,227.5476],[125.6573,-8.5874,265.2041],[125.6571,-8.5904,286.4373],[125.6524,-8.6013,369.0139],[125.65,-8.6041,392.2944],[125.6362,-8.6113,974.4685],[125.6314,-8.6175,1019.9489],[125.6286,-8.6283,1224.2964],[125.632,-8.6328,1146.4623],[125.6303,-8.6373,1148.4929]]]]}}