{"type": "Feature","bbox": [125.5828,-8.5558,125.5912,-8.5475],"geometry": {"type": "MultiPolygon","coordinates": [[[[125.5833,-8.5558,5.6865],[125.5912,-8.5547,9.4124],[125.5891,-8.5475,0.4282],[125.5836,-8.5497,2.6451],[125.5856,-8.5532,5.753],[125.5828,-8.554,5.2207],[125.5833,-8.5558,5.6865]]]]}
,"properties": {"GID_3": "TLS.7.3.4_1","GID_0": "TLS","country": "Timor-Leste","GID_1": "TLS.7_1","province": "Dili","NL_NAME_1": "NA","GID_2": "TLS.7.3_1","county": "DiliTimur","NL_NAME_2": "NA","city": "B.Formosa","VARNAME_3": "TaleraHun|Central|Dosgrilhos","NL_NAME_3": "NA","TYPE_3": "Suco","ENGTYPE_3": "Community","CC_3": "NA","HASC_3": "NA","name": "B.Formosa.city","area_km2": 0.5031949,"hist_schema_id": "Elevation0-9000","hist_area_km2": {"0": 0.5031949}}}