{"type":"Feature","properties":{"GID_3":"TLS.1.1.2_1","GID_0":"TLS","country":"Timor-Leste","GID_1":"TLS.1_1","province":"Aileu","NL_NAME_1":"NA","GID_2":"TLS.1.1_1","county":"Aileu","NL_NAME_2":"NA","city":"Ban-Dudato","VARNAME_3":"Band|Bandato","NL_NAME_3":"NA","TYPE_3":"Suco","ENGTYPE_3":"Community","CC_3":"NA","HASC_3":"NA","name":"Ban-Dudato.city"},
"geometry":{"type": "MultiPolygon","coordinates": [[[[125.5552,-8.7864,1133.2059],[125.5592,-8.7805,1192.4258],[125.573,-8.7839,1127.1285],[125.5828,-8.7832,1209.9323],[125.5975,-8.7907,990.7897],[125.6025,-8.787,958.9027],[125.612,-8.7888,937.4572],[125.62,-8.7856,923.3719],[125.6247,-8.7858,923.778],[125.6277,-8.7791,990.6133],[125.6283,-8.7664,1162.5581],[125.6254,-8.7595,1229.5742],[125.6196,-8.7539,1019.002],[125.6156,-8.745,856.9471],[125.6103,-8.7415,862.283],[125.6037,-8.7453,884.6766],[125.5998,-8.749,868.2479],[125.5998,-8.7507,870.0992],[125.5964,-8.7512,871.7671],[125.5917,-8.7551,886.9927],[125.5808,-8.7564,882.2747],[125.5755,-8.76,899.5255],[125.5766,-8.7542,892.5577],[125.5697,-8.751,893.6925],[125.5577,-8.7554,910.0723],[125.5547,-8.761,927.889],[125.5519,-8.7611,940.6752],[125.5544,-8.768,1004.5444],[125.5538,-8.7716,1010.5026],[125.5503,-8.7743,1084.4585],[125.5487,-8.7806,1184.1553],[125.5375,-8.7829,1382.646],[125.5409,-8.786,1393.0521],[125.5511,-8.7848,1235.9871],[125.5552,-8.7864,1133.2059]]]]}}