{"type":"Feature","properties":{"GID_3":"TLS.7.2.1_1","GID_0":"TLS","country":"Timor-Leste","GID_1":"TLS.7_1","province":"Dili","NL_NAME_1":"NA","GID_2":"TLS.7.2_1","county":"DiliBarat","NL_NAME_2":"NA","city":"12Novembro","VARNAME_3":"Dare","NL_NAME_3":"NA","TYPE_3":"Suco","ENGTYPE_3":"Community","CC_3":"NA","HASC_3":"NA","name":"12_Novembro.city"},
"geometry":{"type": "MultiPolygon","coordinates": [[[[125.5279,-8.6128,100.8694],[125.526,-8.6025,82.8989],[125.5273,-8.5996,80.4366],[125.5176,-8.6018,324.8443],[125.518,-8.607,340.4909],[125.5164,-8.6099,435.5302],[125.5176,-8.612,388.2061],[125.5279,-8.6128,100.8694]]]]}}