{"type": "Feature","bbox": [125.6036,-8.8839,125.6583,-8.8265],"geometry": {"type": "MultiPolygon","coordinates": [[[[125.6491,-8.8839,758.1974],[125.6583,-8.8714,1045.7961],[125.6583,-8.8638,1258.6719],[125.6561,-8.8565,1550.1759],[125.6391,-8.8439,1773.1199],[125.639,-8.8383,1705.6914],[125.6423,-8.8364,1605.6737],[125.6433,-8.834,1489.0146],[125.6408,-8.833,1596.2466],[125.6432,-8.8304,1529.7542],[125.6412,-8.8308,1555.8566],[125.6384,-8.8273,1578.0309],[125.6339,-8.829,1637.7233],[125.633,-8.8273,1595.0984],[125.6296,-8.8299,1574.0222],[125.6261,-8.83,1585.5771],[125.6246,-8.8274,1642.582],[125.6203,-8.8287,1610.5156],[125.6199,-8.8265,1534.3069],[125.6131,-8.8314,1368.3835],[125.6102,-8.8296,1401.3018],[125.6074,-8.8299,1545.1652],[125.6066,-8.8351,1347.2949],[125.6036,-8.8382,1419.8322],[125.6058,-8.847,1306.9061],[125.609,-8.8463,1309.2299],[125.6109,-8.8506,1287.5657],[125.6172,-8.8519,1263.1371],[125.623,-8.857,1276.2832],[125.6257,-8.8617,1260.6675],[125.6331,-8.8628,1238.9373],[125.6362,-8.8678,1142.0176],[125.6363,-8.8719,1031.187],[125.6428,-8.8768,951.1505],[125.6436,-8.8793,872.749],[125.6451,-8.8787,869.9484],[125.6453,-8.8829,834.2145],[125.6491,-8.8839,758.1974]]]]}
,"properties": {"GID_3": "TLS.2.4.2_1","GID_0": "TLS","country": "Timor-Leste","GID_1": "TLS.2_1","province": "Ainaro","NL_NAME_1": "NA","GID_2": "TLS.2.4_1","county": "Maubisse","NL_NAME_2": "NA","city": "Edi","VARNAME_3": "NA","NL_NAME_3": "NA","TYPE_3": "Suco","ENGTYPE_3": "Community","CC_3": "NA","HASC_3": "NA","name": "Edi.city","area_km2": 18.43574,"hist_schema_id": "Elevation0-9000","hist_area_km2": {"750": 0.02095,"775": 0.06284,"800": 0.02095,"825": 0.06284,"850": 0.14664,"875": 0.08379,"900": 0.12569,"925": 0.10474,"950": 0.23043,"975": 0.18854,"1000": 0.23043,"1025": 0.16759,"1050": 0.29328,"1075": 0.16759,"1100": 0.14664,"1125": 0.16759,"1150": 0.23044,"1175": 0.23044,"1200": 0.25139,"1225": 0.35613,"1250": 0.46088,"1275": 0.67038,"1300": 1.46649,"1325": 1.50839,"1350": 1.23605,"1375": 1.19414,"1400": 1.11035,"1425": 0.71229,"1450": 0.85895,"1475": 0.9218,"1500": 0.4609,"1525": 0.75419,"1550": 0.83801,"1575": 0.56565,"1600": 0.75422,"1625": 0.48186,"1650": 0.31426,"1675": 0.27235,"1700": 0.2095,"1725": 0.14665,"1750": 0.0419,"1775": 0.06285,"1800": 0.0838,"1825": 0.02095}}}