{"type":"Feature","properties":{"GID_2":"TLS.6.4_1","GID_0":"TLS","country":"Timor-Leste","GID_1":"TLS.6_1","province":"Covalima","NL_NAME_1":"NA","county":"Mape","VARNAME_2":"Zumalai","NL_NAME_2":"NA","TYPE_2":"Subdistrito","ENGTYPE_2":"Subdistrict","CC_2":"NA","HASC_2":"NA","name":"Mape.county"},
"geometry":{"type": "MultiPolygon","coordinates": [[[[125.3617,-9.1284,180.7966],[125.36,-9.1328,174.7139],[125.3604,-9.1385,197.5966],[125.3679,-9.143,156.3423],[125.3779,-9.1565,128.4883],[125.3855,-9.1535,114.8665],[125.3925,-9.1594,104.2277],[125.3952,-9.1688,90.1219],[125.3935,-9.1767,118.5776],[125.3965,-9.1855,64.188],[125.4133,-9.2136,41.1403],[125.4205,-9.2162,20.5769],[125.4263,-9.2259,13.2254],[125.4256,-9.2289,12.2657],[125.4289,-9.2331,8.6529],[125.4282,-9.2374,16.1432],[125.4339,-9.2447,6.0751],[125.4346,-9.2506,8.484],[125.4306,-9.2585,1.8328],[125.4317,-9.2597,2.2991],[125.4528,-9.2539,1.921],[125.4549,-9.2509,7.1241],[125.4564,-9.2519,0.0],[125.4694,-9.245,0.0],[125.4877,-9.2325,3.768],[125.5028,-9.2264,0.0],[125.5027,-9.2246,3.6111],[125.5079,-9.2213,9.8587],[125.5049,-9.2197,12.347],[125.506,-9.2162,7.1892],[125.5141,-9.207,11.7477],[125.5171,-9.1994,15.4646],[125.5218,-9.1951,20.8607],[125.5277,-9.1942,25.7298],[125.5321,-9.186,34.3643],[125.54,-9.163,64.5238],[125.5298,-9.1593,148.5718],[125.5251,-9.1519,282.2457],[125.525,-9.1468,257.8378],[125.5209,-9.1421,285.2321],[125.4966,-9.1437,114.5369],[125.4946,-9.1428,110.3303],[125.4941,-9.1385,129.6277],[125.488,-9.1359,174.5208],[125.4857,-9.1321,191.9633],[125.4812,-9.132,319.5366],[125.4739,-9.1274,154.2733],[125.4736,-9.1242,160.4326],[125.4775,-9.1172,174.0669],[125.4811,-9.1055,198.7406],[125.4797,-9.0965,226.2541],[125.4744,-9.0873,239.0104],[125.4765,-9.0822,253.6238],[125.4757,-9.0774,268.9968],[125.468,-9.072,281.6527],[125.4668,-9.0682,291.287],[125.4637,-9.0655,306.4365],[125.4442,-9.0618,399.6809],[125.4451,-9.0554,443.5606],[125.4488,-9.0506,450.0687],[125.4471,-9.0483,537.5688],[125.4489,-9.042,543.6838],[125.4454,-9.0385,631.5219],[125.4501,-9.029,783.5391],[125.45,-9.0262,847.1017],[125.4477,-9.0218,855.7516],[125.4434,-9.0184,938.5143],[125.4433,-9.0143,1073.2301],[125.4411,-9.0108,1205.6194],[125.4325,-9.0068,1664.1191],[125.4296,-9.0071,1745.7853],[125.4325,-9.0115,1562.8575],[125.4343,-9.0237,1182.4115],[125.4216,-9.04,815.6636],[125.4139,-9.0326,1058.9637],[125.4116,-9.023,1363.21],[125.4079,-9.0192,1514.0801],[125.4005,-9.0312,1455.7554],[125.3958,-9.0333,1419.3364],[125.3951,-9.0403,1172.2413],[125.3872,-9.0483,903.1385],[125.3788,-9.0505,704.4074],[125.3712,-9.062,461.9891],[125.3684,-9.0634,412.1074],[125.3677,-9.066,398.2926],[125.3708,-9.0728,338.5311],[125.3728,-9.074,329.0291],[125.3725,-9.0782,310.2449],[125.3703,-9.0821,305.2852],[125.368,-9.082,290.3834],[125.3658,-9.088,268.6561],[125.368,-9.0905,259.2625],[125.3693,-9.0966,237.0426],[125.3724,-9.0979,235.294],[125.374,-9.1029,224.9427],[125.3714,-9.1087,213.7586],[125.3715,-9.1126,225.7286],[125.3657,-9.1192,198.3763],[125.364,-9.1264,198.9309],[125.3617,-9.1284,180.7966]]]]}}