{"type":"Feature","properties":{"GID_3":"TLS.4.5.4_1","GID_0":"TLS","country":"Timor-Leste","GID_1":"TLS.4_1","province":"Baucau","NL_NAME_1":"NA","GID_2":"TLS.4.5_1","county":"Vemasse","NL_NAME_2":"NA","city":"Ostico","VARNAME_3":"NA","NL_NAME_3":"NA","TYPE_3":"Suco","ENGTYPE_3":"Community","CC_3":"NA","HASC_3":"NA","name":"Ostico.city"},
"geometry":{"type": "MultiPolygon","coordinates": [[[[126.3216,-8.5006,300.6044],[126.2921,-8.5178,131.1098],[126.2856,-8.5166,104.0112],[126.2827,-8.5195,100.0317],[126.2806,-8.5195,96.3046],[126.2809,-8.5222,72.9695],[126.2834,-8.5244,107.9946],[126.2837,-8.5376,87.5083],[126.2884,-8.5511,129.4871],[126.2951,-8.5501,268.6782],[126.2977,-8.5528,300.8569],[126.3027,-8.5536,356.7642],[126.3217,-8.5486,651.3409],[126.3432,-8.5507,721.9756],[126.3445,-8.5469,711.9778],[126.3432,-8.5444,708.3422],[126.3447,-8.543,706.1596],[126.3441,-8.5376,694.8073],[126.3381,-8.5186,554.017],[126.335,-8.515,531.2111],[126.3327,-8.5084,471.5453],[126.328,-8.5063,406.752],[126.3216,-8.5006,300.6044]]]]}}