{"type": "Feature","bbox": [125.2128,-8.9705,125.2763,-8.9126],"geometry": {"type": "MultiPolygon","coordinates": [[[[125.2697,-8.9427,1311.5515],[125.2702,-8.9403,1312.8552],[125.2654,-8.9331,1071.5146],[125.2595,-8.9425,973.0452],[125.2548,-8.9436,863.9127],[125.2203,-8.9366,146.2897],[125.2203,-8.9281,127.5183],[125.2183,-8.9218,130.4254],[125.22,-8.9178,113.0241],[125.2139,-8.9126,108.2526],[125.215,-8.9179,125.173],[125.2128,-8.9217,135.2209],[125.2132,-8.9285,138.4053],[125.2178,-8.9337,165.8793],[125.217,-8.9376,167.434],[125.2198,-8.948,154.384],[125.2196,-8.959,170.5774],[125.2211,-8.967,182.0188],[125.2228,-8.9685,186.6903],[125.2338,-8.9705,338.5159],[125.2395,-8.9675,461.1181],[125.244,-8.9677,515.2209],[125.2491,-8.9629,658.5854],[125.2564,-8.9602,934.6548],[125.2621,-8.9614,1214.0388],[125.27,-8.9672,1277.9458],[125.2763,-8.9679,1706.5601],[125.2741,-8.9547,1719.7233],[125.2701,-8.9495,1456.4167],[125.2697,-8.9427,1311.5515]]]]}
,"properties": {"GID_3": "TLS.5.4.5_1","GID_0": "TLS","country": "Timor-Leste","GID_1": "TLS.5_1","province": "Bobonaro","NL_NAME_1": "NA","GID_2": "TLS.5.4_1","county": "Cailaco","NL_NAME_2": "NA","city": "Manapa","VARNAME_3": "NA","NL_NAME_3": "NA","TYPE_3": "Suco","ENGTYPE_3": "Community","CC_3": "NA","HASC_3": "NA","name": "Manapa.city","area_km2": 18.61922,"hist_schema_id": "Elevation0-9000","hist_area_km2": {"100": 0.04189,"125": 0.85877,"150": 1.27762,"175": 1.34042,"200": 0.71209,"225": 0.5236,"250": 0.56548,"275": 0.54454,"300": 0.6702,"325": 0.29322,"350": 0.54454,"375": 0.52359,"400": 0.48171,"425": 0.41887,"450": 0.39793,"475": 0.46076,"500": 0.41887,"525": 0.43982,"550": 0.31416,"575": 0.29321,"600": 0.25133,"625": 0.14661,"650": 0.39793,"675": 0.10472,"700": 0.18849,"725": 0.14661,"750": 0.29321,"775": 0.20944,"800": 0.16755,"825": 0.08377,"850": 0.04189,"875": 0.3351,"900": 0.20944,"925": 0.14661,"950": 0.16755,"975": 0.04189,"1000": 0.06283,"1025": 0.25133,"1050": 0.14661,"1075": 0.12566,"1100": 0.31416,"1125": 0.10472,"1150": 0.04189,"1175": 0.16755,"1200": 0.25133,"1225": 0.33511,"1250": 0.35605,"1275": 0.25133,"1300": 0.20944,"1325": 0.27227,"1350": 0.14661,"1375": 0.43982,"1400": 0.08378,"1425": 0.06283,"1450": 0.08377,"1475": 0.04189,"1500": 0.16755,"1525": 0.04189,"1550": 0.08377,"1575": 0.10472,"1600": 0.04189,"1625": 0.04189,"1650": 0.04189,"1675": 0.06283,"1700": 0.08377,"1725": 0.06283,"1750": 0.06283,"1800": 0.02094}}}