{"type": "Feature","bbox": [126.3117,-8.6382,126.3726,-8.5653],"geometry": {"type": "MultiPolygon","coordinates": [[[[126.3414,-8.5653,750.2339],[126.3362,-8.5704,764.4899],[126.3358,-8.5746,763.5153],[126.332,-8.5761,680.218],[126.3433,-8.586,752.77],[126.3439,-8.5899,687.1034],[126.3321,-8.6026,532.7172],[126.324,-8.6039,444.2617],[126.3202,-8.6096,462.4658],[126.3141,-8.6118,399.544],[126.3117,-8.615,311.1585],[126.3169,-8.6213,334.7925],[126.314,-8.6266,331.7356],[126.3188,-8.627,335.653],[126.3202,-8.6257,348.2194],[126.3255,-8.6291,345.5291],[126.327,-8.628,348.3281],[126.328,-8.6323,383.6077],[126.3308,-8.6337,400.9376],[126.3338,-8.6382,435.2959],[126.3468,-8.6227,490.5475],[126.3526,-8.6195,534.0115],[126.3622,-8.6174,650.2495],[126.3652,-8.6126,704.1097],[126.3726,-8.6069,797.3578],[126.3575,-8.5831,753.3239],[126.3472,-8.5765,746.0316],[126.347,-8.5746,736.5461],[126.3431,-8.5716,739.5376],[126.3414,-8.5653,750.2339]]]]}
,"properties": {"GID_3": "TLS.4.5.2_1","GID_0": "TLS","country": "Timor-Leste","GID_1": "TLS.4_1","province": "Baucau","NL_NAME_1": "NA","GID_2": "TLS.4.5_1","county": "Vemasse","NL_NAME_2": "NA","city": "Loilubo","VARNAME_3": "LoiLobo","NL_NAME_3": "NA","TYPE_3": "Suco","ENGTYPE_3": "Community","CC_3": "NA","HASC_3": "NA","name": "Loilubo.city","area_km2": 22.13744,"hist_schema_id": "Elevation0-9000","hist_area_km2": {"300": 0.06289,"325": 0.35637,"350": 0.77562,"375": 1.00621,"400": 1.15295,"425": 1.53029,"450": 1.40451,"475": 1.67704,"500": 1.27875,"525": 1.23683,"550": 1.34165,"575": 1.06913,"600": 0.90144,"625": 0.67083,"650": 0.77566,"675": 0.94337,"700": 0.81759,"725": 0.8805,"750": 2.97699,"775": 1.06918,"800": 0.20964}}}