{"type":"Feature","properties":{"GID_3":"TLS.5.6.7_1","GID_0":"TLS","country":"Timor-Leste","GID_1":"TLS.5_1","province":"Bobonaro","NL_NAME_1":"NA","GID_2":"TLS.5.6_1","county":"Maliana","NL_NAME_2":"NA","city":"Tapo","VARNAME_3":"TapoMemo","NL_NAME_3":"NA","TYPE_3":"Suco","ENGTYPE_3":"Community","CC_3":"NA","HASC_3":"NA","name":"Tapo.city"},
"geometry":{"type": "MultiPolygon","coordinates": [[[[125.1849,-9.0317,229.6604],[125.1843,-9.0374,256.2974],[125.1893,-9.0465,280.9742],[125.1885,-9.0512,289.3617],[125.1964,-9.0515,374.3123],[125.2027,-9.054,539.5548],[125.2057,-9.053,600.9573],[125.2124,-9.059,761.4015],[125.2242,-9.0492,805.2848],[125.2285,-9.0475,849.7639],[125.2309,-9.0434,869.2321],[125.2365,-9.0417,923.0963],[125.241,-9.0321,968.5267],[125.2429,-9.0235,853.4852],[125.2389,-9.018,712.0249],[125.2363,-9.0171,673.4603],[125.217,-9.0181,512.3852],[125.2121,-9.0154,445.7923],[125.2076,-9.0062,255.4665],[125.1976,-8.999,202.7493],[125.1968,-8.9944,195.5594],[125.1933,-8.9915,190.3271],[125.1948,-8.9885,194.9508],[125.1929,-8.9859,189.9422],[125.1828,-8.982,173.8163],[125.1816,-8.978,168.994],[125.1766,-8.9748,165.32],[125.1781,-8.9734,166.0909],[125.1739,-8.9719,162.672],[125.1731,-8.9661,158.1229],[125.1707,-8.9658,159.0536],[125.1728,-8.9625,153.3734],[125.1697,-8.9619,150.8945],[125.1685,-8.9601,155.4777],[125.1696,-8.9572,154.8263],[125.1681,-8.9559,145.2957],[125.1679,-8.9521,157.8952],[125.1652,-8.9531,160.4886],[125.1644,-8.9494,150.4704],[125.1609,-8.9475,146.583],[125.1615,-8.9459,149.3565],[125.1542,-8.9413,124.3118],[125.15,-8.942,120.3235],[125.147,-8.9384,113.9277],[125.1432,-8.9404,103.2448],[125.1402,-8.9395,99.3706],[125.1405,-8.9362,100.0162],[125.1388,-8.9357,100.0162],[125.1397,-8.9345,99.6019],[125.1384,-8.9329,87.8803],[125.1402,-8.9277,91.9104],[125.1354,-8.9339,94.5318],[125.1314,-8.936,89.4112],[125.131,-8.9379,93.5173],[125.1209,-8.9398,94.866],[125.1151,-8.9471,108.7767],[125.1138,-8.9563,102.062],[125.1106,-8.9627,109.39],[125.1115,-8.9668,111.31],[125.1096,-8.9686,110.2016],[125.112,-8.9675,105.9571],[125.1175,-8.9702,110.7284],[125.1214,-8.9746,115.1269],[125.1218,-8.9782,117.804],[125.1269,-8.9808,120.4494],[125.13,-8.9867,127.6809],[125.1334,-8.9882,129.4392],[125.1359,-8.9955,134.6946],[125.1483,-8.9965,151.33],[125.1592,-9.0047,163.2246],[125.1629,-9.0106,169.9167],[125.1717,-9.0182,186.4266],[125.1847,-9.0259,209.1287],[125.1868,-9.0291,219.5079],[125.1854,-9.0301,221.4639],[125.1849,-9.0317,229.6604]]]]}}