{"type":"Feature","properties":{"GID_2":"TLS.2.2_1","GID_0":"TLS","country":"Timor-Leste","GID_1":"TLS.2_1","province":"Ainaro","NL_NAME_1":"NA","county":"HatoBuilico","VARNAME_2":"NA","NL_NAME_2":"NA","TYPE_2":"Subdistrito","ENGTYPE_2":"Subdistrict","CC_2":"NA","HASC_2":"NA","name":"Hato_Builico.county"},
"geometry":{"type": "MultiPolygon","coordinates": [[[[125.5323,-8.9781,666.0089],[125.55,-8.9855,611.1531],[125.5492,-8.9883,613.3304],[125.5519,-8.9901,563.7881],[125.5535,-8.995,541.3245],[125.5514,-8.9997,499.9713],[125.5569,-9.0077,410.6217],[125.5594,-9.0065,409.7036],[125.5581,-9.0092,497.8412],[125.5599,-9.0143,425.189],[125.5646,-9.0158,396.4406],[125.571,-9.0125,431.0987],[125.5736,-9.0145,441.3894],[125.5787,-9.0103,533.7051],[125.586,-9.0103,564.7725],[125.5894,-9.0056,694.5847],[125.5921,-8.9846,1023.5433],[125.5943,-8.9808,1146.2628],[125.5943,-8.9761,1250.4304],[125.5921,-8.9718,1364.6075],[125.5943,-8.9677,1488.0079],[125.5937,-8.9619,1741.0156],[125.5973,-8.9534,2417.3943],[125.6079,-8.9467,1954.3179],[125.6062,-8.9439,1744.522],[125.607,-8.9409,1481.3053],[125.6109,-8.9389,1374.3396],[125.6052,-8.9348,1427.2996],[125.6061,-8.928,1443.9296],[125.6038,-8.9233,1351.8081],[125.5975,-8.9206,1142.3098],[125.6052,-8.9111,1194.4846],[125.6032,-8.9005,1300.6619],[125.5986,-8.8979,1373.1101],[125.596,-8.8993,1383.2267],[125.5903,-8.8989,1485.5621],[125.5864,-8.8904,1703.1558],[125.5755,-8.8815,1819.0437],[125.5711,-8.8827,1901.1975],[125.5662,-8.8797,2170.9465],[125.5633,-8.8821,2250.7139],[125.5571,-8.8777,2173.3872],[125.5507,-8.8782,2143.8179],[125.5376,-8.8734,2440.8767],[125.524,-8.8718,2328.5469],[125.5176,-8.8779,2259.4138],[125.5041,-8.8832,2295.8198],[125.4996,-8.8926,2493.0586],[125.4921,-8.8967,2569.2542],[125.4944,-8.9118,2764.0642],[125.4912,-8.9159,2725.5732],[125.482,-8.9214,2598.2002],[125.489,-8.9244,2389.6226],[125.4916,-8.9317,2207.7273],[125.4977,-8.9358,1863.5315],[125.4999,-8.9356,1715.9421],[125.5011,-8.9407,1514.2107],[125.5153,-8.9485,1014.5784],[125.5235,-8.9624,819.6422],[125.5273,-8.9628,830.678],[125.5287,-8.9652,763.3732],[125.5338,-8.9672,755.0311],[125.5341,-8.9704,723.9639],[125.531,-8.9753,680.9496],[125.5323,-8.9781,666.0089]]]]}}