{"type":"Feature","properties":{"GID_3":"TLS.6.5.5_1","GID_0":"TLS","country":"Timor-Leste","GID_1":"TLS.6_1","province":"Covalima","NL_NAME_1":"NA","GID_2":"TLS.6.5_1","county":"SuaiKota","NL_NAME_2":"NA","city":"Holbelis","VARNAME_3":"Labarai","NL_NAME_3":"NA","TYPE_3":"Suco","ENGTYPE_3":"Community","CC_3":"NA","HASC_3":"NA","name":"Holbelis.city"},
"geometry":{"type": "MultiPolygon","coordinates": [[[[125.3197,-9.1951,164.5583],[125.3113,-9.1992,250.9337],[125.3034,-9.2053,415.8124],[125.2995,-9.2029,477.8062],[125.2865,-9.2007,543.4258],[125.2806,-9.2049,418.5775],[125.2785,-9.2107,288.6146],[125.2672,-9.2039,597.736],[125.2588,-9.2077,391.1043],[125.2546,-9.2122,298.2256],[125.2511,-9.2135,253.1559],[125.2585,-9.2228,217.6073],[125.2659,-9.2248,188.8648],[125.2702,-9.2293,168.1789],[125.2806,-9.2352,153.7127],[125.2825,-9.2402,131.3778],[125.2877,-9.2438,126.4791],[125.2895,-9.2501,104.9634],[125.2925,-9.2542,98.1582],[125.3037,-9.2587,77.77],[125.3278,-9.2419,178.3134],[125.3382,-9.2299,97.6419],[125.339,-9.2207,107.4205],[125.3376,-9.2174,113.7986],[125.3297,-9.205,152.3361],[125.3237,-9.2042,170.3477],[125.3197,-9.1951,164.5583]]]]}}