{"type":"Feature","properties":{"GID_3":"TLS.7.3.12_1","GID_0":"TLS","country":"Timor-Leste","GID_1":"TLS.7_1","province":"Dili","NL_NAME_1":"NA","GID_2":"TLS.7.3_1","county":"DiliTimur","NL_NAME_2":"NA","city":"Fatuahi","VARNAME_3":"Camea","NL_NAME_3":"NA","TYPE_3":"Suco","ENGTYPE_3":"Community","CC_3":"NA","HASC_3":"NA","name":"Fatuahi.city"},
"geometry":{"type": "MultiPolygon","coordinates": [[[[125.6166,-8.5645,56.2505],[125.6163,-8.5694,62.7875],[125.6187,-8.5708,85.1344],[125.6208,-8.5684,122.25],[125.6302,-8.5706,298.0621],[125.6362,-8.5686,178.9583],[125.632,-8.5675,269.4178],[125.6311,-8.5606,356.0315],[125.6278,-8.5569,396.3692],[125.622,-8.5581,223.8473],[125.6166,-8.5645,56.2505]]]]}}