{"type":"Feature","properties":{"GID_3":"TLS.6.1.3_1","GID_0":"TLS","country":"Timor-Leste","GID_1":"TLS.6_1","province":"Covalima","NL_NAME_1":"NA","GID_2":"TLS.6.1_1","county":"FatuFulic","NL_NAME_2":"NA","city":"Taroman","VARNAME_3":"NA","NL_NAME_3":"NA","TYPE_3":"Suco","ENGTYPE_3":"Community","CC_3":"NA","HASC_3":"NA","name":"Taroman.city"},
"geometry":{"type": "MultiPolygon","coordinates": [[[[125.1716,-9.1724,601.4739],[125.1692,-9.1731,604.9784],[125.1695,-9.1764,663.5762],[125.166,-9.1805,735.4938],[125.1653,-9.2162,1038.0604],[125.1705,-9.2276,699.742],[125.1854,-9.2391,289.0237],[125.1906,-9.234,304.586],[125.1929,-9.2287,315.9381],[125.1911,-9.2245,341.9379],[125.1916,-9.2176,433.6064],[125.1966,-9.2097,485.8376],[125.1965,-9.2058,428.9996],[125.1988,-9.2027,431.7074],[125.1969,-9.1998,454.0082],[125.1986,-9.1956,469.6683],[125.1894,-9.1875,518.8896],[125.1871,-9.1821,523.0453],[125.1834,-9.1814,589.6035],[125.1826,-9.1793,549.1498],[125.1716,-9.1724,601.4739]]]]}}