{"type":"Feature","properties":{"GID_3":"TLS.1.2.5_1","GID_0":"TLS","country":"Timor-Leste","GID_1":"TLS.1_1","province":"Aileu","NL_NAME_1":"NA","GID_2":"TLS.1.2_1","county":"LauLara","NL_NAME_2":"NA","city":"MadaBeno","VARNAME_3":"Madabeno","NL_NAME_3":"NA","TYPE_3":"Suco","ENGTYPE_3":"Community","CC_3":"NA","HASC_3":"NA","name":"Mada_Beno.city"},
"geometry":{"type": "MultiPolygon","coordinates": [[[[125.5992,-8.6391,1275.3893],[125.5914,-8.6337,909.9169],[125.589,-8.6292,750.4925],[125.5803,-8.632,1010.3312],[125.5785,-8.6244,628.252],[125.5754,-8.6216,493.0996],[125.5697,-8.6241,453.0386],[125.5654,-8.6234,370.7755],[125.5655,-8.6264,329.2093],[125.5603,-8.6261,246.3593],[125.5594,-8.6357,625.6547],[125.5569,-8.639,748.0447],[125.5893,-8.6445,1287.6589],[125.5992,-8.6391,1275.3893]]]]}}