{"type": "Feature","bbox": [125.4023,-8.7521,125.4281,-8.7261],"geometry": {"type": "MultiPolygon","coordinates": [[[[125.4281,-8.7441,789.8289],[125.4255,-8.7385,850.4601],[125.4274,-8.733,745.1483],[125.4214,-8.7261,733.8863],[125.4196,-8.7304,771.2271],[125.414,-8.7323,839.9517],[125.4085,-8.7378,931.758],[125.4067,-8.7377,918.5559],[125.4067,-8.7407,1021.2336],[125.4038,-8.7417,1058.53],[125.4023,-8.7447,1164.245],[125.4069,-8.749,1020.0728],[125.4147,-8.7491,933.7632],[125.4188,-8.7521,851.3368],[125.4218,-8.7499,806.8716],[125.4222,-8.7476,818.4026],[125.4266,-8.7464,766.4104],[125.4281,-8.7441,789.8289]]]]}
,"properties": {"GID_3": "TLS.8.2.9_1","GID_0": "TLS","country": "Timor-Leste","GID_1": "TLS.8_1","province": "Ermera","NL_NAME_1": "NA","GID_2": "TLS.8.2_1","county": "Ermera","NL_NAME_2": "NA","city": "Talimoro","VARNAME_3": "NA","NL_NAME_3": "NA","TYPE_3": "Suco","ENGTYPE_3": "Community","CC_3": "NA","HASC_3": "NA","name": "Talimoro.city","area_km2": 4.463622,"hist_schema_id": "Elevation0-9000","hist_area_km2": {"750": 0.083825,"775": 0.251477,"800": 0.377211,"825": 0.314342,"850": 0.272429,"875": 0.335296,"900": 0.419121,"925": 0.293383,"950": 0.251471,"975": 0.25147,"1000": 0.272426,"1025": 0.209558,"1050": 0.230514,"1075": 0.167646,"1100": 0.272425,"1125": 0.125734,"1150": 0.188602,"1175": 0.125735,"1200": 0.020956}}}