{"type": "Feature","bbox": [125.3572,-8.7435,125.3929,-8.7004],"geometry": {"type": "MultiPolygon","coordinates": [[[[125.3908,-8.7139,666.6143],[125.3842,-8.7097,703.8768],[125.3758,-8.7088,611.5005],[125.3709,-8.7006,543.6531],[125.3676,-8.701,536.7759],[125.3652,-8.7045,484.1604],[125.3636,-8.7012,506.0922],[125.3572,-8.7004,450.5115],[125.3585,-8.7024,491.9383],[125.3582,-8.7088,546.2427],[125.3634,-8.7113,548.0412],[125.3692,-8.7196,697.8121],[125.371,-8.7263,759.1149],[125.3691,-8.73,826.1101],[125.3821,-8.7435,1265.7242],[125.3854,-8.7324,1108.9565],[125.3893,-8.729,914.518],[125.3883,-8.726,854.4034],[125.3927,-8.7198,765.8644],[125.3929,-8.717,745.1135],[125.3908,-8.7139,666.6143]]]]}
,"properties": {"GID_3": "TLS.8.2.6_1","GID_0": "TLS","country": "Timor-Leste","GID_1": "TLS.8_1","province": "Ermera","NL_NAME_1": "NA","GID_2": "TLS.8.2_1","county": "Ermera","NL_NAME_2": "NA","city": "Ponilala","VARNAME_3": "NA","NL_NAME_3": "NA","TYPE_3": "Suco","ENGTYPE_3": "Community","CC_3": "NA","HASC_3": "NA","name": "Ponilala.city","area_km2": 8.529568,"hist_schema_id": "Elevation0-9000","hist_area_km2": {"450": 0.020958,"475": 0.062874,"500": 0.10479,"525": 0.10479,"550": 0.188621,"575": 0.209579,"600": 0.18862,"625": 0.293409,"650": 0.314365,"675": 0.356277,"700": 0.27245,"725": 0.293407,"750": 0.251489,"775": 0.209573,"800": 0.628721,"825": 0.293405,"850": 0.37723,"875": 0.419142,"900": 0.35627,"925": 0.272442,"950": 0.523924,"975": 0.335309,"1000": 0.146698,"1025": 0.209568,"1050": 0.272437,"1075": 0.272439,"1100": 0.419134,"1125": 0.230523,"1150": 0.502955,"1175": 0.167651,"1200": 0.125737,"1225": 0.083824,"1275": 0.020956}}}