{"type":"Feature","properties":{"GID_3":"TLS.2.1.4_1","GID_0":"TLS","country":"Timor-Leste","GID_1":"TLS.2_1","province":"Ainaro","NL_NAME_1":"NA","GID_2":"TLS.2.1_1","county":"Ainaro","NL_NAME_2":"NA","city":"Mau-Lo","VARNAME_3":"MauUlo","NL_NAME_3":"NA","TYPE_3":"Suco","ENGTYPE_3":"Community","CC_3":"NA","HASC_3":"NA","name":"Mau-Lo.city"},
"geometry":{"type": "MultiPolygon","coordinates": [[[[125.4564,-8.9649,2291.6401],[125.4508,-8.9702,2173.356],[125.451,-8.974,2204.6824],[125.4488,-8.9759,2323.4954],[125.428,-8.9867,2385.5181],[125.4243,-8.9947,2235.5115],[125.4262,-9.0039,1941.5173],[125.4296,-9.0071,1745.7853],[125.4344,-9.0074,1562.2524],[125.4411,-9.0108,1205.6194],[125.4476,-9.0033,1425.3213],[125.4607,-9.002,1028.9052],[125.4617,-9.0067,960.4185],[125.4647,-9.0099,948.9083],[125.487,-9.0127,649.4361],[125.4908,-9.016,582.517],[125.4922,-9.0131,609.0455],[125.4913,-9.0059,665.9554],[125.4923,-9.0032,692.7247],[125.4953,-9.0018,714.3073],[125.4979,-8.9971,775.9987],[125.4947,-8.9862,900.4629],[125.4904,-8.9828,980.7907],[125.4885,-8.9778,994.4393],[125.4719,-8.9733,1454.8102],[125.4644,-8.9655,1843.4819],[125.4564,-8.9649,2291.6401]]]]}}