{"type": "Feature","bbox": [125.5801,-8.5812,125.587,-8.5677],"geometry": {"type": "MultiPolygon","coordinates": [[[[125.5807,-8.5742,77.8151],[125.5801,-8.5808,155.557],[125.586,-8.5812,260.4165],[125.587,-8.5792,214.8379],[125.5844,-8.5765,162.5512],[125.586,-8.5759,144.1703],[125.5852,-8.573,98.0354],[125.5866,-8.5722,78.9672],[125.5831,-8.5677,29.8169],[125.5807,-8.5742,77.8151]]]]}
,"properties": {"GID_3": "TLS.7.2.3_1","GID_0": "TLS","country": "Timor-Leste","GID_1": "TLS.7_1","province": "Dili","NL_NAME_1": "NA","GID_2": "TLS.7.2_1","county": "DiliBarat","NL_NAME_2": "NA","city": "AltoHospital","VARNAME_3": "LahaneBarat","NL_NAME_3": "NA","TYPE_3": "Suco","ENGTYPE_3": "Community","CC_3": "NA","HASC_3": "NA","name": "Alto_Hospital.city","area_km2": 0.6918501,"hist_schema_id": "Elevation0-9000","hist_area_km2": {"25": 0.041931,"50": 0.1257923,"75": 0.1257914,"100": 0.0838607,"125": 0.020965,"150": 0.062895,"175": 0.0838601,"200": 0.020965,"225": 0.0628949,"250": 0.0419298,"275": 0.0209649}}}