{"type": "Feature","bbox": [125.3117,-9.0388,125.3443,-9.0032],"geometry": {"type": "MultiPolygon","coordinates": [[[[125.318,-9.0043,617.8257],[125.3143,-9.0078,740.0961],[125.3117,-9.0144,734.0042],[125.3139,-9.0177,746.359],[125.3126,-9.0206,765.7932],[125.3185,-9.0259,929.6628],[125.3189,-9.0304,970.7467],[125.3324,-9.0343,647.9767],[125.3415,-9.0388,453.36],[125.3443,-9.034,466.0587],[125.3409,-9.0321,490.9535],[125.3394,-9.027,557.8015],[125.3398,-9.0214,661.0163],[125.3379,-9.0138,778.0251],[125.339,-9.008,771.1888],[125.3372,-9.0032,680.7317],[125.3335,-9.0043,707.5388],[125.3288,-9.0097,852.173],[125.3217,-9.0049,663.9339],[125.318,-9.0043,617.8257]]]]}
,"properties": {"GID_3": "TLS.5.3.11_1","GID_0": "TLS","country": "Timor-Leste","GID_1": "TLS.5_1","province": "Bobonaro","NL_NAME_1": "NA","GID_2": "TLS.5.3_1","county": "Bobonaro","NL_NAME_2": "NA","city": "Malilait","VARNAME_3": "NA","NL_NAME_3": "NA","TYPE_3": "Suco","ENGTYPE_3": "Community","CC_3": "NA","HASC_3": "NA","name": "Malilait.city","area_km2": 8.334131,"hist_schema_id": "Elevation0-9000","hist_area_km2": {"450": 0.062817,"475": 0.083757,"500": 0.041878,"525": 0.062818,"550": 0.083758,"575": 0.251273,"600": 0.125636,"625": 0.418793,"650": 0.397859,"675": 0.481618,"700": 0.565383,"725": 0.753851,"750": 0.963248,"775": 0.98419,"800": 0.900424,"825": 0.732908,"850": 0.691025,"875": 0.43974,"900": 0.188457,"925": 0.062819,"950": 0.041879}}}