{"type": "Feature","bbox": [125.1586,-9.3574,125.2688,-9.2994],"geometry": {"type": "MultiPolygon","coordinates": [[[[125.2688,-9.3098,35.2331],[125.2625,-9.3046,40.1223],[125.2546,-9.3029,53.6192],[125.2508,-9.2994,61.4387],[125.2476,-9.2996,68.3549],[125.2406,-9.3064,88.0142],[125.2274,-9.3152,100.0439],[125.2013,-9.3244,136.8203],[125.1804,-9.3274,214.0648],[125.1586,-9.3358,79.9486],[125.1704,-9.3371,75.5231],[125.174,-9.3394,83.2129],[125.1823,-9.3409,57.6684],[125.1854,-9.3508,49.9278],[125.1901,-9.3548,43.6052],[125.215,-9.3574,24.2561],[125.2257,-9.3518,19.5983],[125.2471,-9.3341,9.8751],[125.2511,-9.3332,10.0185],[125.253,-9.3296,13.6467],[125.2654,-9.3259,19.5249],[125.2666,-9.3143,34.9691],[125.2688,-9.3098,35.2331]]]]}
,"properties": {"GID_3": "TLS.6.5.4_1","GID_0": "TLS","country": "Timor-Leste","GID_1": "TLS.6_1","province": "Covalima","NL_NAME_1": "NA","GID_2": "TLS.6.5_1","county": "SuaiKota","NL_NAME_2": "NA","city": "Debos","VARNAME_3": "NA","NL_NAME_3": "NA","TYPE_3": "Suco","ENGTYPE_3": "Community","CC_3": "NA","HASC_3": "NA","name": "Debos.city","area_km2": 33.97679,"hist_schema_id": "Elevation0-9000","hist_area_km2": {"0": 1.00423,"25": 13.45243,"50": 7.63647,"75": 6.4231,"100": 2.32233,"125": 1.42267,"150": 0.83686,"175": 0.66949,"200": 0.1883,"225": 0.02092}}}