{"type":"Feature","properties":{"GID_3":"TLS.5.3.2_1","GID_0":"TLS","country":"Timor-Leste","GID_1":"TLS.5_1","province":"Bobonaro","NL_NAME_1":"NA","GID_2":"TLS.5.3_1","county":"Bobonaro","NL_NAME_2":"NA","city":"Atuaben","VARNAME_3":"NA","NL_NAME_3":"NA","TYPE_3":"Suco","ENGTYPE_3":"Community","CC_3":"NA","HASC_3":"NA","name":"Atuaben.city"},
"geometry":{"type": "MultiPolygon","coordinates": [[[[125.3155,-8.9923,484.6167],[125.3157,-8.9961,623.5049],[125.3186,-8.9981,590.0969],[125.318,-9.0043,617.8257],[125.3217,-9.0049,663.9339],[125.3288,-9.0097,852.173],[125.3335,-9.0043,707.5388],[125.3372,-9.0032,680.7317],[125.34,-9.0,612.9341],[125.3388,-8.994,552.2387],[125.3332,-8.9932,654.745],[125.3322,-8.9918,675.6991],[125.3322,-8.9872,783.8809],[125.328,-8.9865,978.8578],[125.3271,-8.9916,801.6959],[125.3229,-8.9934,709.5319],[125.3155,-8.9923,484.6167]]]]}}