{"type": "Feature","bbox": [126.3803,-8.6006,126.4395,-8.575],"geometry": {"type": "MultiPolygon","coordinates": [[[[126.4,-8.5763,493.282],[126.3848,-8.5793,625.4634],[126.3803,-8.5819,683.7121],[126.3836,-8.5891,661.9734],[126.3814,-8.5986,739.9044],[126.3876,-8.6006,647.9999],[126.4,-8.5991,510.0282],[126.4038,-8.5913,464.9282],[126.4289,-8.5916,209.4612],[126.4279,-8.586,270.5745],[126.433,-8.5852,168.0714],[126.4395,-8.5792,134.5448],[126.4314,-8.575,157.9554],[126.4283,-8.575,188.9667],[126.4229,-8.578,232.5883],[126.4139,-8.5762,333.3289],[126.4093,-8.5774,376.5185],[126.4,-8.5763,493.282]]]]}
,"properties": {"GID_3": "TLS.4.6.8_1","GID_0": "TLS","country": "Timor-Leste","GID_1": "TLS.4_1","province": "Baucau","NL_NAME_1": "NA","GID_2": "TLS.4.6_1","county": "Venilale","NL_NAME_2": "NA","city": "UmaAnaUlu","VARNAME_3": "UmaAnaUlo","NL_NAME_3": "NA","TYPE_3": "Suco","ENGTYPE_3": "Community","CC_3": "NA","HASC_3": "NA","name": "Uma_Ana_Ulu.city","area_km2": 10.880624,"hist_schema_id": "Elevation0-9000","hist_area_km2": {"100": 0.020965,"125": 0.04193,"150": 0.25158,"175": 0.272545,"200": 0.188684,"225": 0.272543,"250": 0.314471,"275": 0.293505,"300": 0.44026,"325": 0.587012,"350": 0.314471,"375": 0.377365,"400": 0.58701,"425": 0.566045,"450": 0.649903,"475": 0.6499,"500": 0.524113,"525": 0.75472,"550": 0.566038,"575": 0.691829,"600": 0.587005,"625": 0.859543,"650": 0.649897,"675": 0.356395,"700": 0.041928,"725": 0.020964}}}