{"type": "Feature","bbox": [125.202,-9.4119,125.2473,-9.357],"geometry": {"type": "MultiPolygon","coordinates": [[[[125.21,-9.357,28.8232],[125.2069,-9.3876,15.5333],[125.202,-9.4103,0.0],[125.2078,-9.4119,0.0],[125.2433,-9.3781,2.7438],[125.2473,-9.3724,4.5088],[125.225,-9.3677,14.5376],[125.2197,-9.3642,18.1706],[125.2163,-9.3583,24.7823],[125.21,-9.357,28.8232]]]]}
,"properties": {"GID_3": "TLS.6.6.1_1","GID_0": "TLS","country": "Timor-Leste","GID_1": "TLS.6_1","province": "Covalima","NL_NAME_1": "NA","GID_2": "TLS.6.6_1","county": "Tilomar","NL_NAME_2": "NA","city": "Casabauk","VARNAME_3": "Mau-Demu","NL_NAME_3": "NA","TYPE_3": "Suco","ENGTYPE_3": "Community","CC_3": "NA","HASC_3": "NA","name": "Casabauk.city","area_km2": 13.72255,"hist_schema_id": "Elevation0-9000","hist_area_km2": {"0": 5.18771,"25": 8.53485}}}