{"type":"Feature","properties":{"GID_3":"TLS.4.2.5_1","GID_0":"TLS","country":"Timor-Leste","GID_1":"TLS.4_1","province":"Baucau","NL_NAME_1":"NA","GID_2":"TLS.4.2_1","county":"Baucau","NL_NAME_2":"NA","city":"CaibadaMacasae","VARNAME_3":"Caibada","NL_NAME_3":"NA","TYPE_3":"Suco","ENGTYPE_3":"Community","CC_3":"NA","HASC_3":"NA","name":"Caibada_Macasae.city"},
"geometry":{"type": "MultiPolygon","coordinates": [[[[126.4542,-8.4358,0.8082],[126.4402,-8.4241,0.6457],[126.4261,-8.42,18.2807],[126.4167,-8.4144,0.0],[126.4106,-8.4172,9.4656],[126.4053,-8.4174,0.0],[126.4108,-8.4563,504.1041],[126.4446,-8.456,298.6904],[126.4542,-8.4358,0.8082]]]]}}