{"type": "Feature","bbox": [125.3155,-9.3011,125.345,-9.2752],"geometry": {"type": "MultiPolygon","coordinates": [[[[125.3353,-9.3011,4.1808],[125.3378,-9.3008,1.343],[125.345,-9.2947,0.0],[125.3364,-9.2833,14.9003],[125.328,-9.2777,27.8529],[125.3192,-9.2752,39.5213],[125.3181,-9.2825,39.3609],[125.3155,-9.286,37.163],[125.3266,-9.2918,21.0666],[125.3353,-9.3011,4.1808]]]]}
,"properties": {"GID_3": "TLS.6.5.14_1","GID_0": "TLS","country": "Timor-Leste","GID_1": "TLS.6_1","province": "Covalima","NL_NAME_1": "NA","GID_2": "TLS.6.5_1","county": "SuaiKota","NL_NAME_2": "NA","city": "Sanfuk","VARNAME_3": "Kamenasa","NL_NAME_3": "NA","TYPE_3": "Suco","ENGTYPE_3": "Community","CC_3": "NA","HASC_3": "NA","name": "Sanfuk.city","area_km2": 4.477787,"hist_schema_id": "Elevation0-9000","hist_area_km2": {"0": 1.25543,"25": 3.096808,"50": 0.125548}}}