{"type": "Feature","bbox": [124.9317,-9.2135,125.4344,-8.736],"geometry": {"type": "MultiPolygon","coordinates": [[[[125.4256,-9.0017,2056.2769],[125.4243,-8.9947,2235.5115],[125.4268,-8.9886,2387.4277],[125.43,-8.9852,2386.887],[125.4257,-8.9844,2277.27],[125.4144,-8.9782,1968.4115],[125.4001,-8.9827,1392.9688],[125.3971,-8.9818,1323.5353],[125.3844,-8.9857,893.957],[125.3733,-8.9861,750.2885],[125.3658,-8.9924,659.3056],[125.3588,-8.994,621.6292],[125.3566,-8.9962,592.4473],[125.3441,-8.9934,522.3239],[125.3424,-8.9903,503.8529],[125.3443,-8.9876,495.6113],[125.3436,-8.9829,475.9868],[125.3394,-8.9723,404.4916],[125.3274,-8.9626,341.6631],[125.3277,-8.9574,332.3881],[125.3258,-8.9546,347.1368],[125.323,-8.956,312.9101],[125.3204,-8.9555,320.3825],[125.3201,-8.9541,319.5104],[125.3221,-8.9538,309.1527],[125.3231,-8.9509,298.1551],[125.3211,-8.9503,335.5852],[125.3219,-8.9489,293.4963],[125.3203,-8.9461,294.4826],[125.3153,-8.9467,352.6725],[125.3221,-8.932,257.4769],[125.3247,-8.9299,252.8743],[125.3275,-8.9299,253.77],[125.3288,-8.9263,248.6927],[125.3192,-8.9127,228.1841],[125.3143,-8.911,216.2866],[125.3138,-8.8998,205.1661],[125.3118,-8.8977,223.1937],[125.3002,-8.8942,189.0349],[125.2966,-8.8907,183.1362],[125.2934,-8.8798,176.3417],[125.2953,-8.8651,163.736],[125.2827,-8.8508,141.6517],[125.2814,-8.8322,123.4874],[125.2792,-8.8236,117.9999],[125.258,-8.7902,81.2892],[125.2498,-8.7809,72.7822],[125.2457,-8.779,70.1351],[125.2407,-8.7722,62.4154],[125.2326,-8.767,56.0244],[125.2106,-8.7655,43.4713],[125.202,-8.7681,40.2104],[125.1964,-8.7635,35.1107],[125.1899,-8.7536,31.2335],[125.1854,-8.7524,30.1908],[125.1835,-8.7493,28.3762],[125.1803,-8.7479,28.1424],[125.1704,-8.753,43.8141],[125.1603,-8.7504,21.6611],[125.1564,-8.7514,21.2147],[125.1517,-8.7499,19.2889],[125.1461,-8.7513,48.3892],[125.1366,-8.7445,14.3438],[125.1249,-8.7421,12.1435],[125.1202,-8.7374,9.5985],[125.1031,-8.7383,3.626],[125.0925,-8.736,1.6673],[125.0923,-8.7377,1.3461],[125.0912,-8.7375,0.5128],[125.0933,-8.7491,3.8269],[125.0942,-8.7683,0.0],[125.0977,-8.7867,6.2137],[125.0956,-8.7981,48.3694],[125.0792,-8.8161,2.7378999999999998],[125.0758,-8.8172,0.0],[125.0692,-8.8244,2.2328],[125.0553,-8.8292,0.0],[125.0411,-8.8283,8.1304],[125.0364,-8.8314,29.8168],[125.034,-8.8365,11.7697],[125.0314,-8.8386,4.858],[125.0283,-8.8381,7.0715],[125.0053,-8.8642,0.0],[125.0036,-8.8728,0.0],[125.0044,-8.8781,0.0],[125.0006,-8.8883,0.0],[125.0008,-8.8925,9.2737],[124.9972,-8.8994,0.0],[124.9925,-8.9044,1.4921],[124.9889,-8.9197,2.1897],[124.9858,-8.9254,0.0],[124.9801,-8.9293,0.0],[124.9785,-8.9371,3.029],[124.9755,-8.9423,1.2593],[124.97,-8.9463,7.5188],[124.9653,-8.9457,0.0],[124.9564,-8.9492,0.0],[124.9543,-8.9543,0.0],[124.95,-8.9582,4.773],[124.9517,-8.9609,6.3678],[124.9503,-8.9688,17.1702],[124.946,-8.9732,23.687],[124.9455,-8.9763,28.4692],[124.9413,-8.9786,31.255],[124.941,-8.9841,37.4645],[124.9339,-8.9958,54.3252],[124.9344,-8.9996,62.5544],[124.938,-9.003,92.0855],[124.9366,-9.0068,124.0469],[124.9374,-9.0138,290.2494],[124.9367,-9.0168,369.7921],[124.9319,-9.0182,398.2753],[124.9317,-9.0279,428.9803],[124.9374,-9.0348,307.6509],[124.9419,-9.0371,295.68],[124.9403,-9.0472,270.3062],[124.9426,-9.0474,269.7402],[124.9428,-9.0491,271.455],[124.9467,-9.0492,273.998],[124.9487,-9.0526,267.5938],[124.9503,-9.052,272.3952],[124.9505,-9.0488,270.5471],[124.9528,-9.0487,265.7403],[124.9541,-9.0564,268.0971],[124.9559,-9.0581,258.4855],[124.9613,-9.0589,254.5734],[124.9692,-9.0566,247.1004],[124.9746,-9.0631,252.7814],[124.9839,-9.0662,261.5044],[124.9887,-9.0601,264.0684],[124.9918,-9.0642,239.2863],[125.0021,-9.0641,226.5136],[125.0071,-9.0602,223.627],[125.0103,-9.0502,213.5016],[125.0211,-9.0497,207.6527],[125.0204,-9.0436,208.6441],[125.0221,-9.0423,209.821],[125.0251,-9.0439,206.8559],[125.0295,-9.0437,202.294],[125.0317,-9.0416,206.7421],[125.0315,-9.0382,196.425],[125.0364,-9.0363,222.1609],[125.0384,-9.0334,186.7605],[125.0403,-9.0344,183.1009],[125.0427,-9.0319,185.9932],[125.0524,-9.0317,195.4107],[125.058,-9.0269,181.9278],[125.062,-9.0285,160.3216],[125.0671,-9.0281,170.1591],[125.0732,-9.0226,161.7702],[125.0766,-9.0219,153.8605],[125.0821,-9.0143,183.7846],[125.0875,-9.0125,141.0467],[125.0993,-8.9994,122.8686],[125.0988,-8.9928,120.2996],[125.1021,-8.9884,118.1247],[125.1038,-8.9736,112.518],[125.1082,-8.9688,110.2016],[125.112,-8.9675,105.9571],[125.1175,-8.9702,110.7284],[125.1214,-8.9746,115.1269],[125.1218,-8.9782,117.804],[125.1269,-8.9808,120.4494],[125.13,-8.9867,127.6809],[125.1334,-8.9882,129.4392],[125.1359,-8.9955,134.6946],[125.1483,-8.9965,151.33],[125.1592,-9.0047,163.2246],[125.1648,-9.0126,171.7794],[125.1847,-9.0259,209.1287],[125.1868,-9.029,219.5079],[125.1852,-9.0308,221.4639],[125.1843,-9.0371,256.2974],[125.1893,-9.0465,280.9742],[125.1879,-9.0492,302.4968],[125.1886,-9.0571,304.084],[125.1848,-9.0594,312.3198],[125.1839,-9.0628,336.519],[125.1876,-9.0733,383.2477],[125.1849,-9.0745,401.0699],[125.1849,-9.08,420.1346],[125.1802,-9.0839,432.1736],[125.1774,-9.0955,465.5101],[125.1782,-9.0998,465.3086],[125.1761,-9.1044,480.2332],[125.1732,-9.1061,502.2542],[125.1781,-9.1125,495.8739],[125.1795,-9.1184,516.5543],[125.1732,-9.1182,529.8972],[125.1706,-9.1228,538.2077],[125.1726,-9.1272,561.6881],[125.1731,-9.1341,597.8092],[125.1757,-9.1368,639.871],[125.1763,-9.144,661.3889],[125.1793,-9.1468,694.623],[125.1789,-9.1536,773.9359],[125.1765,-9.1578,837.0382],[125.1792,-9.1662,852.9246],[125.1841,-9.1628,996.767],[125.1948,-9.1684,757.8975],[125.2115,-9.1706,554.5018],[125.2251,-9.1758,476.4617],[125.2296,-9.1796,438.1801],[125.2318,-9.1861,415.207],[125.2278,-9.1913,379.4257],[125.2281,-9.1942,374.1442],[125.2254,-9.2,340.2641],[125.2263,-9.2049,392.7602],[125.2347,-9.2088,310.1113],[125.2382,-9.2083,330.9554],[125.2414,-9.2118,355.2131],[125.242,-9.2088,314.3369],[125.246,-9.2075,264.4244],[125.2511,-9.2135,253.1559],[125.2546,-9.2122,298.2256],[125.2588,-9.2077,391.1043],[125.2672,-9.2039,597.736],[125.2785,-9.2107,288.6146],[125.2806,-9.2049,418.5775],[125.2859,-9.2008,543.4258],[125.2969,-9.2022,619.4009],[125.3034,-9.2053,415.8124],[125.3113,-9.1992,250.9337],[125.3197,-9.1951,164.5583],[125.3215,-9.1983,161.2226],[125.3238,-9.1956,192.1747],[125.327,-9.1948,213.0567],[125.3357,-9.1978,355.1557],[125.3459,-9.1875,301.1827],[125.3452,-9.1812,443.7347],[125.3527,-9.1725,201.1658],[125.3406,-9.1655,265.9309],[125.3292,-9.1632,470.1073],[125.3211,-9.1571,524.7508],[125.3169,-9.156,527.384],[125.3174,-9.1438,826.8546],[125.3262,-9.137,527.6892],[125.329,-9.13,359.59],[125.3314,-9.1283,317.0641],[125.3385,-9.1284,283.9519],[125.3413,-9.1255,241.5098],[125.3457,-9.1253,230.7355],[125.3543,-9.1284,214.614],[125.3572,-9.1279,193.4508],[125.3605,-9.1304,177.1335],[125.3635,-9.1272,198.9309],[125.3655,-9.1195,198.3763],[125.3715,-9.1126,225.7286],[125.3714,-9.1087,213.7586],[125.374,-9.1029,224.9427],[125.3724,-9.0979,235.294],[125.3693,-9.0966,237.0426],[125.368,-9.0905,259.2625],[125.3658,-9.088,268.6561],[125.368,-9.082,290.3834],[125.3703,-9.0821,305.2852],[125.3725,-9.0782,310.2449],[125.3728,-9.074,329.0291],[125.3708,-9.0728,338.5311],[125.3677,-9.066,398.2926],[125.3684,-9.0634,412.1074],[125.3712,-9.062,461.9891],[125.3788,-9.0505,704.4074],[125.3872,-9.0483,903.1385],[125.3951,-9.0403,1172.2413],[125.3958,-9.0333,1419.3364],[125.4005,-9.0312,1455.7554],[125.4079,-9.0192,1514.0801],[125.4116,-9.023,1363.21],[125.4139,-9.0326,1058.9637],[125.4203,-9.04,690.9972],[125.4236,-9.0381,883.3262],[125.4272,-9.0319,1036.9541],[125.4336,-9.0256,1176.2246],[125.4344,-9.0221,1203.5959],[125.4325,-9.0115,1562.8575],[125.4256,-9.0017,2056.2769]]]]}
,"properties": {"GID_1": "TLS.5_1","GID_0": "TLS","country": "Timor-Leste","province": "Bobonaro","VARNAME_1": "NA","NL_NAME_1": "NA","TYPE_1": "Distrito","ENGTYPE_1": "District","CC_1": "NA","HASC_1": "TP.BB","ISO_1": "TL-BO","name": "Bobonaro.province","area_km2": 1382.635,"hist_schema_id": "Elevation0-9000","hist_area_km2": {"0": 27.822,"25": 27.695,"50": 43.011,"75": 56.101,"100": 47.992,"125": 51.572,"150": 70.085,"175": 72.724,"200": 53.161,"225": 46.039,"250": 43.336,"275": 42.875,"300": 46.517,"325": 42.39,"350": 40.693,"375": 35.037,"400": 32.209,"425": 32.418,"450": 30.951,"475": 29.024,"500": 27.411,"525": 26.301,"550": 26.091,"575": 24.834,"600": 23.243,"625": 21.714,"650": 20.562,"675": 20.353,"700": 18.133,"725": 16.981,"750": 16.918,"775": 17.002,"800": 15.222,"825": 13.484,"850": 13.693,"875": 12.563,"900": 12.123,"925": 13.002,"950": 12.018,"975": 11.452,"1000": 11.641,"1025": 11.662,"1050": 10.196,"1075": 8.752,"1100": 8.249,"1125": 7.893,"1150": 7.307,"1175": 6.511,"1200": 5.821,"1225": 5.13,"1250": 3.978,"1275": 3.769,"1300": 3.643,"1325": 3.308,"1350": 3.434,"1375": 3.413,"1400": 2.785,"1425": 2.743,"1450": 2.596,"1475": 2.659,"1500": 2.785,"1525": 2.596,"1550": 2.471,"1575": 2.575,"1600": 2.554,"1625": 2.219,"1650": 2.366,"1675": 1.57,"1700": 1.633,"1725": 1.277,"1750": 1.298,"1775": 0.942,"1800": 0.838,"1825": 0.9,"1850": 0.733,"1875": 0.586,"1900": 0.44,"1925": 0.544,"1950": 0.419,"1975": 0.356,"2000": 0.251,"2025": 0.356,"2050": 0.293,"2075": 0.461,"2100": 0.44,"2125": 0.335,"2150": 0.147,"2175": 0.084,"2200": 0.272,"2225": 0.105,"2250": 0.126,"2275": 0.084,"2300": 0.063,"2325": 0.021,"2350": 0.042,"2375": 0.126,"2400": 0.084}}}