{"type":"Feature","properties":{"ISO3166-1-Alpha-3":"TLS","country":"East Timor","fill":"#F0F","id":"547","name":"Bobonaro"},
"geometry":{"type": "Polygon","coordinates": [[[125.14237,-8.75621,38.5115],[125.12252,-8.74773,124.8293],[125.10314,-8.74034,4.0316],[125.10294,-8.74027,4.0316],[125.10035,-8.77825,8.541],[125.09645,-8.79583,3.0395],[125.08172,-8.80836,0.0],[125.03688,-8.8248,0.0],[125.0276,-8.83367,0.0],[125.0232,-8.84905,63.0085],[124.97478,-8.92213,0.0],[124.95379,-8.94264,0.0],[124.91953,-8.96201,0.0],[124.91951,-8.96202,0.0],[124.92248,-8.98632,65.0331],[124.90915,-9.02033,243.4916],[124.90791,-9.03748,386.5306],[124.91297,-9.05278,296.2688],[124.92129,-9.06549,295.1356],[124.93302,-9.07448,312.1503],[124.94786,-9.07851,309.9955],[124.96589,-9.07727,377.9209],[124.97891,-9.072,276.3343],[125.00444,-9.05557,277.7633],[125.05183,-9.035,242.3596],[125.06532,-9.02322,337.841],[125.06857,-9.01588,439.823],[125.07302,-8.99645,395.4258],[125.07648,-8.99077,491.2833],[125.08681,-8.98622,357.3353],[125.09152,-8.9886,256.376],[125.09529,-8.9948,153.4373],[125.10252,-9.00131,124.9018],[125.12133,-9.01185,185.9746],[125.13942,-9.02477,208.4034],[125.15399,-9.04079,249.3096],[125.16236,-9.06063,428.7452],[125.162,-9.08234,812.3626],[125.145,-9.14518,747.6832],[125.14697,-9.15448,902.9237],[125.1512,-9.16502,794.8593],[125.15265,-9.17082,668.1813],[125.15808,-9.17231,649.9747],[125.19198,-9.18264,606.5098],[125.20645,-9.1905,831.8083],[125.21347,-9.20083,621.5027],[125.21802,-9.21406,596.2555],[125.25481,-9.21737,222.9754],[125.31125,-9.20952,388.7998],[125.31931,-9.17934,415.5295],[125.29202,-9.14544,1231.7466],[125.30939,-9.1413,858.7721],[125.34204,-9.14275,462.6352],[125.35238,-9.12311,222.6835],[125.35589,-9.08611,399.7639],[125.36065,-9.06027,492.817],[125.38442,-9.04022,868.7629],[125.41062,-9.03413,1139.2031],[125.41232,-9.00922,1973.4189],[125.4131,-8.98219,1906.821],[125.38876,-8.98917,1094.5576],[125.32634,-8.99144,801.6959],[125.316,-8.96767,369.5327],[125.31311,-8.9379,447.3592],[125.30773,-8.91806,295.7068],[125.27962,-8.86142,240.6555],[125.25151,-8.80727,152.5952],[125.23931,-8.78701,65.0714],[125.2234,-8.77915,53.7175],[125.1864,-8.77192,187.4918],[125.17921,-8.75445,51.8358],[125.17213,-8.756,94.1527],[125.14237,-8.75621,38.5115]]]}}