{"type": "Feature","bbox": [125.5229,-8.8192,125.5793,-8.7939],"geometry": {"type": "MultiPolygon","coordinates": [[[[125.5229,-8.81,1673.0781],[125.5428,-8.8192,1455.7057],[125.5793,-8.8187,1779.8094],[125.5741,-8.8113,1532.7495],[125.5736,-8.8081,1419.0436],[125.5687,-8.8034,1312.8689],[125.5675,-8.7991,1204.2924],[125.5629,-8.7939,1090.7072],[125.5526,-8.7961,1165.2493],[125.5456,-8.8011,1192.4241],[125.5271,-8.8034,1470.9568],[125.5229,-8.81,1673.0781]]]]}
,"properties": {"GID_3": "TLS.1.1.5_1","GID_0": "TLS","country": "Timor-Leste","GID_1": "TLS.1_1","province": "Aileu","NL_NAME_1": "NA","GID_2": "TLS.1.1_1","county": "Aileu","NL_NAME_2": "NA","city": "FatuBessi","VARNAME_3": "Fatubosa","NL_NAME_3": "NA","TYPE_3": "Suco","ENGTYPE_3": "Community","CC_3": "NA","HASC_3": "NA","name": "Fatu_Bessi.city","area_km2": 10.601776,"hist_schema_id": "Elevation0-9000","hist_area_km2": {"1100": 0.125717,"1125": 0.356197,"1150": 0.440006,"1175": 0.335242,"1200": 0.440003,"1225": 0.544762,"1250": 0.607616,"1275": 0.398093,"1300": 0.628565,"1325": 0.586659,"1350": 0.628563,"1375": 0.565704,"1400": 0.817128,"1425": 0.817126,"1450": 0.691414,"1475": 0.691412,"1500": 0.565701,"1525": 0.272374,"1550": 0.33523,"1575": 0.209518,"1600": 0.167615,"1625": 0.125711,"1650": 0.062855,"1675": 0.083807,"1700": 0.020952,"1725": 0.041903,"1750": 0.041903}}}