{"type": "Feature","bbox": [125.3597,-9.0654,125.4048,-9.0156],"geometry": {"type": "MultiPolygon","coordinates": [[[[125.3597,-9.0534,577.4973],[125.3624,-9.061,453.2951],[125.3677,-9.0654,398.2926],[125.3782,-9.051,704.4074],[125.3872,-9.0483,903.1385],[125.3951,-9.0403,1172.2413],[125.3958,-9.0333,1419.3364],[125.4005,-9.0312,1455.7554],[125.4048,-9.0238,1633.6962],[125.3963,-9.0218,1234.5669],[125.394,-9.0196,1163.5906],[125.3875,-9.0195,964.6548],[125.3867,-9.0179,995.8158],[125.3796,-9.0156,863.7942],[125.3743,-9.0167,773.1027],[125.3679,-9.0156,723.8422],[125.3679,-9.0233,745.6404],[125.3635,-9.0294,590.1218],[125.3608,-9.0303,552.646],[125.3637,-9.0327,559.984],[125.3604,-9.0398,742.2855],[125.3618,-9.0487,675.2148],[125.3597,-9.0534,577.4973]]]]}
,"properties": {"GID_3": "TLS.5.3.4_1","GID_0": "TLS","country": "Timor-Leste","GID_1": "TLS.5_1","province": "Bobonaro","NL_NAME_1": "NA","GID_2": "TLS.5.3_1","county": "Bobonaro","NL_NAME_2": "NA","city": "Carabau","VARNAME_3": "NA","NL_NAME_3": "NA","TYPE_3": "Suco","ENGTYPE_3": "Community","CC_3": "NA","HASC_3": "NA","name": "Carabau.city","area_km2": 15.15988,"hist_schema_id": "Elevation0-9000","hist_area_km2": {"400": 0.02094,"425": 0.06281,"450": 0.14656,"475": 0.12563,"500": 0.1675,"525": 0.1675,"550": 0.20938,"575": 0.37689,"600": 0.43971,"625": 0.67004,"650": 0.54441,"675": 0.67004,"700": 0.98413,"725": 0.96319,"750": 1.19352,"775": 1.00508,"800": 0.87945,"825": 0.56536,"850": 0.60724,"875": 0.60725,"900": 0.43973,"925": 0.25127,"950": 0.35597,"975": 0.18845,"1000": 0.20939,"1025": 0.18845,"1050": 0.23033,"1075": 0.25127,"1100": 0.29315,"1125": 0.16751,"1150": 0.18846,"1175": 0.25127,"1200": 0.18845,"1225": 0.20939,"1250": 0.06282,"1275": 0.14658,"1300": 0.08376,"1325": 0.20939,"1350": 0.18846,"1375": 0.1047,"1400": 0.1047,"1425": 0.16752,"1450": 0.04188,"1475": 0.14658,"1550": 0.02094,"1575": 0.02094,"1625": 0.02094,"1650": 0.02094}}}