{"type":"Feature","properties":{"GID_3":"TLS.1.3.5_1","GID_0":"TLS","country":"Timor-Leste","GID_1":"TLS.1_1","province":"Aileu","NL_NAME_1":"NA","GID_2":"TLS.1.3_1","county":"Lequidoe","NL_NAME_2":"NA","city":"Hautrilau","VARNAME_3":"HauTrilau","NL_NAME_3":"NA","TYPE_3":"Suco","ENGTYPE_3":"Community","CC_3":"NA","HASC_3":"NA","name":"Hautrilau.city"},
"geometry":{"type": "MultiPolygon","coordinates": [[[[125.7178,-8.7699,665.1866],[125.7189,-8.7727,661.6854],[125.7217,-8.7727,664.2482],[125.7252,-8.777,636.5897],[125.7228,-8.7816,607.6296],[125.7242,-8.783,579.7149],[125.7302,-8.7834,558.9305],[125.7369,-8.7864,545.0809],[125.7415,-8.7805,531.8256],[125.7453,-8.7801,522.7759],[125.7487,-8.7741,527.4476],[125.7531,-8.7723,532.7261],[125.7541,-8.7618,487.5883],[125.756,-8.7614,495.7655],[125.7577,-8.7632,502.1461],[125.7597,-8.7591,485.0247],[125.7638,-8.7594,472.5664],[125.7637,-8.7568,455.7457],[125.7681,-8.7547,451.4518],[125.7714,-8.7466,464.5075],[125.7697,-8.7393,458.5987],[125.7785,-8.7392,464.5456],[125.7856,-8.744,501.8123],[125.7885,-8.7425,561.4862],[125.7927,-8.7454,607.2002],[125.7935,-8.7481,659.7144],[125.797,-8.7492,704.0585],[125.8007,-8.7487,807.1594],[125.8054,-8.745,1110.9348],[125.8073,-8.7373,993.7484],[125.8179,-8.7288,484.2072],[125.8101,-8.7135,338.9473],[125.8125,-8.7081,315.8904],[125.812,-8.695,304.1796],[125.8141,-8.6852,275.0384],[125.813,-8.683,273.3089],[125.8076,-8.6837,279.73],[125.805,-8.6861,291.3778],[125.8009,-8.6852,291.7298],[125.7997,-8.6879,306.669],[125.787,-8.6942,326.658],[125.7777,-8.6937,398.7049],[125.7749,-8.696,396.3821],[125.7719,-8.6962,386.2033],[125.7706,-8.6936,433.3499],[125.7708,-8.6953,386.2033],[125.7585,-8.7011,411.439],[125.7554,-8.6995,422.1389],[125.7523,-8.6927,466.95],[125.7434,-8.695,464.1823],[125.7357,-8.6935,489.3104],[125.7345,-8.6959,503.061],[125.7334,-8.6922,493.0947],[125.7296,-8.6908,517.2414],[125.7286,-8.6885,512.4426],[125.7238,-8.6883,515.2639],[125.7144,-8.6916,555.5482],[125.7102,-8.6952,583.5573],[125.7047,-8.7014,700.8208],[125.7063,-8.7138,1023.6375],[125.7124,-8.7174,879.4439],[125.713,-8.7243,753.2248],[125.7188,-8.7274,689.0338],[125.7187,-8.7346,740.0265],[125.7223,-8.7387,741.3514],[125.7273,-8.7401,904.076],[125.7334,-8.7506,661.2646],[125.7325,-8.7532,729.2028],[125.7284,-8.7558,809.1744],[125.7256,-8.7617,893.42],[125.7262,-8.7649,837.6395],[125.7178,-8.7699,665.1866]]]]}}