{"type": "Feature","bbox": [125.5944,-8.638,125.6575,-8.5788],"geometry": {"type": "MultiPolygon","coordinates": [[[[125.6286,-8.6283,1224.2964],[125.6311,-8.6181,1093.964],[125.6342,-8.613,951.8758],[125.65,-8.6041,392.2944],[125.6541,-8.5984,316.0731],[125.6537,-8.5966,289.6981],[125.6571,-8.5904,286.4373],[125.6573,-8.5874,265.2041],[125.656,-8.5864,227.5476],[125.6575,-8.5788,193.3652],[125.6547,-8.5798,173.6709],[125.6534,-8.5843,186.0141],[125.6489,-8.5901,315.2988],[125.6429,-8.5933,367.9188],[125.6355,-8.5913,610.6781],[125.6252,-8.5844,314.5495],[125.623,-8.5852,357.9199],[125.6179,-8.5828,239.8268],[125.6028,-8.5895,480.1605],[125.6086,-8.5992,597.1504],[125.5994,-8.6064,708.4001],[125.5986,-8.6149,662.1199],[125.5944,-8.6177,652.5871],[125.5967,-8.6255,864.7994],[125.6015,-8.6262,809.2653],[125.6029,-8.6323,999.5713],[125.6076,-8.638,1275.7852],[125.6141,-8.6373,1206.6841],[125.6184,-8.6312,1252.4236],[125.6286,-8.6283,1224.2964]]]]}
,"properties": {"GID_3": "TLS.1.2.8_1","GID_0": "TLS","country": "Timor-Leste","GID_1": "TLS.1_1","province": "Aileu","NL_NAME_1": "NA","GID_2": "TLS.1.2_1","county": "LauLara","NL_NAME_2": "NA","city": "Talitu","VARNAME_3": "NA","NL_NAME_3": "NA","TYPE_3": "Suco","ENGTYPE_3": "Community","CC_3": "NA","HASC_3": "NA","name": "Talitu.city","area_km2": 22.61951,"hist_schema_id": "Elevation0-9000","hist_area_km2": {"150": 0.02096,"175": 0.18868,"200": 0.12579,"225": 0.14675,"250": 0.14675,"275": 0.41929,"300": 0.31446,"325": 0.41929,"350": 0.587,"375": 0.37735,"400": 0.50314,"425": 0.50314,"450": 0.83856,"475": 0.50314,"500": 0.48217,"525": 0.73374,"550": 0.5241,"575": 0.62892,"600": 0.60795,"625": 0.33542,"650": 0.52409,"675": 0.75469,"700": 0.8595,"725": 1.21588,"750": 0.94334,"775": 1.09008,"800": 0.81756,"825": 0.71274,"850": 0.9643,"875": 1.06911,"900": 0.75466,"925": 0.71274,"950": 0.7337,"975": 0.50311,"1000": 0.48214,"1025": 0.35636,"1050": 0.35636,"1075": 0.23058,"1100": 0.18866,"1125": 0.18866,"1150": 0.18866,"1175": 0.20962,"1200": 0.20962,"1225": 0.10481,"1250": 0.02096,"1275": 0.02096}}}