{"type": "Feature","bbox": [124.3005,-9.3982,124.3595,-9.319],"geometry": {"type": "MultiPolygon","coordinates": [[[[124.3234,-9.389,257.4722],[124.3261,-9.3901,269.1934],[124.3283,-9.3948,321.3015],[124.3332,-9.3982,386.1296],[124.3403,-9.3941,426.7312],[124.3447,-9.3875,603.8199],[124.3444,-9.3826,499.0619],[124.3468,-9.3764,540.0596],[124.3548,-9.3659,208.6099],[124.3536,-9.3624,184.1048],[124.3463,-9.3588,167.8083],[124.3484,-9.3492,244.4439],[124.3513,-9.3483,256.9791],[124.3595,-9.333,265.653],[124.3561,-9.3309,204.4838],[124.3535,-9.3226,187.3003],[124.341,-9.319,205.1346],[124.3286,-9.3219,95.4218],[124.3253,-9.3209,109.1294],[124.3165,-9.3223,106.9349],[124.3137,-9.3253,161.9018],[124.3094,-9.3199,119.9466],[124.3028,-9.3219,158.2151],[124.3005,-9.3317,142.2185],[124.3036,-9.3346,145.3548],[124.3043,-9.341,160.5672],[124.3119,-9.3458,160.5926],[124.3126,-9.3552,172.9301],[124.3111,-9.3577,194.5519],[124.3116,-9.3605,183.8837],[124.3084,-9.3653,196.5904],[124.3092,-9.3712,187.314],[124.3082,-9.3726,188.8043],[124.3097,-9.3737,200.9108],[124.3188,-9.3722,291.6077],[124.3203,-9.3761,268.3932],[124.3193,-9.3836,240.5479],[124.3234,-9.389,257.4722]]]]}
,"properties": {"GID_3": "TLS.3.2.4_1","GID_0": "TLS","country": "Timor-Leste","GID_1": "TLS.3_1","province": "Ambeno","NL_NAME_1": "NA","GID_2": "TLS.3.2_1","county": "OeSilo","NL_NAME_2": "NA","city": "Ussitasae","VARNAME_3": "UsiTasae","NL_NAME_3": "NA","TYPE_3": "Suco","ENGTYPE_3": "Community","CC_3": "NA","HASC_3": "NA","name": "Ussitasae.city","area_km2": 34.9789,"hist_schema_id": "Elevation0-9000","hist_area_km2": {"100": 1.31808,"125": 1.92477,"150": 2.44776,"175": 2.42682,"200": 2.80338,"225": 2.44772,"250": 3.05441,"275": 2.86613,"300": 2.84521,"325": 3.64013,"350": 2.7405,"375": 2.28024,"400": 1.1924,"425": 0.8995,"450": 0.62756,"475": 0.39745,"500": 0.27194,"525": 0.20919,"550": 0.08367,"575": 0.12551,"600": 0.18826,"625": 0.08367,"650": 0.10459}}}