{"type": "Feature","bbox": [125.5728,-8.604,125.6995,-8.5189],"geometry": {"type": "MultiPolygon","coordinates": [[[[125.5998,-8.6014,721.9276],[125.6086,-8.5992,597.1504],[125.6028,-8.5895,480.1605],[125.6179,-8.5828,239.8268],[125.623,-8.5852,357.9199],[125.6252,-8.5844,314.5495],[125.6355,-8.5913,610.6781],[125.6429,-8.5933,367.9188],[125.6472,-8.5916,324.9089],[125.6534,-8.5843,186.0141],[125.6566,-8.5761,197.5962],[125.6595,-8.5741,111.8878],[125.6594,-8.5708,96.8324],[125.6639,-8.5699,78.8365],[125.6639,-8.5684,74.0068],[125.6827,-8.5718,463.5764],[125.6857,-8.5656,368.7036],[125.6909,-8.5599,283.9206],[125.6924,-8.5488,117.1597],[125.6995,-8.5503,241.7725],[125.6995,-8.546,171.9697],[125.6961,-8.5423,145.1598],[125.6933,-8.5345,1.7367],[125.6883,-8.5367,1.9362],[125.6833,-8.5362,0.6157],[125.6667,-8.525,3.2744],[125.6592,-8.5264,4.8098],[125.6461,-8.5244,0.0],[125.6444,-8.5264,2.4374],[125.6338,-8.5271,0.0],[125.6286,-8.5253,5.5955],[125.625,-8.5267,5.1946],[125.6219,-8.5248,63.8871],[125.6211,-8.5189,0.0],[125.6153,-8.5219,2.6122],[125.6081,-8.5192,0.0],[125.6069,-8.521,6.3795],[125.6093,-8.5232,0.0],[125.6097,-8.5297,0.0],[125.6147,-8.5314,5.8299],[125.6117,-8.5417,0.0],[125.6069,-8.5458,0.8111],[125.6041,-8.5449,9.2883],[125.5978,-8.5472,2.5417],[125.5881,-8.5475,0.4282],[125.5836,-8.5497,2.6451],[125.5856,-8.5532,5.753],[125.5828,-8.554,5.2207],[125.5833,-8.5558,5.6865],[125.5798,-8.5564,5.2731],[125.5797,-8.5597,8.0937],[125.5844,-8.5708,40.4537],[125.5864,-8.5714,78.9672],[125.586,-8.5759,144.1703],[125.5844,-8.5765,162.5512],[125.587,-8.5792,214.8379],[125.586,-8.5812,260.4165],[125.5801,-8.5808,155.557],[125.5807,-8.5742,77.8151],[125.5737,-8.5753,275.4099],[125.5728,-8.584,299.8242],[125.5775,-8.5857,257.6602],[125.5773,-8.5909,324.5038],[125.5743,-8.5941,442.7633],[125.5754,-8.5974,569.4949],[125.5834,-8.6017,723.4495],[125.5892,-8.6014,743.3087],[125.5896,-8.604,785.5457],[125.5939,-8.6016,703.943],[125.5998,-8.6014,721.9276]]]]}
,"properties": {"GID_2": "TLS.7.3_1","GID_0": "TLS","country": "Timor-Leste","GID_1": "TLS.7_1","province": "Dili","NL_NAME_1": "NA","county": "DiliTimur","VARNAME_2": "NA","NL_NAME_2": "NA","TYPE_2": "Subdistrito","ENGTYPE_2": "Subdistrict","CC_2": "NA","HASC_2": "NA","name": "Dili_Timur.county","area_km2": 72.41674,"hist_schema_id": "Elevation0-9000","hist_area_km2": {"0": 6.01757,"25": 10.48334,"50": 6.93987,"75": 4.88516,"100": 4.17231,"125": 4.00456,"150": 3.39651,"175": 3.50133,"200": 3.33357,"225": 2.87233,"250": 3.10292,"275": 2.95615,"300": 2.39008,"325": 2.09657,"350": 1.84497,"375": 1.76108,"400": 1.34178,"425": 1.27888,"450": 1.09018,"475": 0.90148,"500": 0.60797,"525": 0.52411,"550": 0.54507,"575": 0.41929,"600": 0.2935,"625": 0.35639,"650": 0.33543,"675": 0.39832,"700": 0.37735,"725": 0.12578,"750": 0.02096,"775": 0.02096,"800": 0.02096}}}