{"type":"Feature","properties":{"GID_3":"TLS.4.3.2_1","GID_0":"TLS","country":"Timor-Leste","GID_1":"TLS.4_1","province":"Baucau","NL_NAME_1":"NA","GID_2":"TLS.4.3_1","county":"Laga","NL_NAME_2":"NA","city":"Libagua","VARNAME_3":"LibaGua","NL_NAME_3":"NA","TYPE_3":"Suco","ENGTYPE_3":"Community","CC_3":"NA","HASC_3":"NA","name":"Libagua.city"},
"geometry":{"type": "MultiPolygon","coordinates": [[[[126.6481,-8.4934,311.5341],[126.6451,-8.4959,283.9269],[126.6412,-8.4954,218.5317],[126.6434,-8.5015,274.2965],[126.646,-8.5031,275.1961],[126.6465,-8.5062,261.9044],[126.6496,-8.5099,378.2455],[126.6583,-8.5154,547.9932],[126.6685,-8.528,891.3964],[126.6698,-8.5278,845.4065],[126.6737,-8.5228,748.9083],[126.6743,-8.517,694.8342],[126.6786,-8.5056,494.2465],[126.6748,-8.5021,468.3068],[126.6587,-8.4955,334.6687],[126.6604,-8.4894,484.2184],[126.6579,-8.4839,477.7735],[126.656,-8.4841,471.4289],[126.6515,-8.4916,349.8204],[126.6481,-8.4934,311.5341]]]]}}