{"type":"Feature","properties":{"GID_2":"TLS.4.2_1","GID_0":"TLS","country":"Timor-Leste","GID_1":"TLS.4_1","province":"Baucau","NL_NAME_1":"NA","county":"Baucau","VARNAME_2":"NA","NL_NAME_2":"NA","TYPE_2":"Subdistrito","ENGTYPE_2":"Subdistrict","CC_2":"NA","HASC_2":"NA","name":"Baucau.county"},
"geometry":{"type": "MultiPolygon","coordinates": [[[[126.5228,-8.5557,196.4055],[126.5234,-8.554,166.3361],[126.535,-8.5486,187.7527],[126.5387,-8.5433,139.2509],[126.5391,-8.5357,146.3629],[126.5421,-8.5311,114.9893],[126.54,-8.5279,102.0613],[126.5399,-8.5229,97.357],[126.5482,-8.5044,61.7383],[126.56,-8.4961,31.0329],[126.5609,-8.4809,0.2935],[126.554,-8.4815,4.0303],[126.5317,-8.4656,0.0],[126.5278,-8.4683,0.25],[126.5286,-8.4647,0.0],[126.5228,-8.4643,2.2047],[126.5183,-8.4583,0.0],[126.5136,-8.4567,3.9142],[126.5044,-8.45,0.0],[126.4831,-8.4442,0.0],[126.47,-8.4425,0.0],[126.4606,-8.4372,0.9392],[126.455,-8.4364,9.9521],[126.4402,-8.4241,0.6457],[126.4261,-8.42,18.2807],[126.4167,-8.4144,0.0],[126.385,-8.4244,0.0],[126.3806,-8.4281,25.013],[126.377,-8.427,5.9301],[126.3728,-8.4225,0.0],[126.3681,-8.4256,10.7564],[126.3614,-8.4256,0.0],[126.3458,-8.4397,0.0],[126.3406,-8.4494,6.4658],[126.3097,-8.455,4.5813],[126.2997,-8.4611,0.3707],[126.2931,-8.4692,3.3991],[126.3011,-8.4729,36.2386],[126.3102,-8.4741,68.0942],[126.3153,-8.4874,174.3923],[126.3155,-8.4951,213.3731],[126.3341,-8.5103,466.662],[126.335,-8.515,531.2111],[126.3367,-8.5159,548.4178],[126.3404,-8.5242,636.8281],[126.3421,-8.5345,685.9496],[126.3441,-8.5376,694.8073],[126.3447,-8.543,706.1596],[126.3432,-8.5444,708.3422],[126.3445,-8.5469,711.9778],[126.3429,-8.5538,730.2942],[126.3453,-8.5593,737.5741],[126.3414,-8.5653,750.2339],[126.3426,-8.5663,748.6306],[126.3426,-8.5706,746.0244],[126.347,-8.5746,736.5461],[126.3472,-8.5765,746.0316],[126.3575,-8.5831,753.3239],[126.3631,-8.577,720.0942],[126.3744,-8.5794,707.1575],[126.3852,-8.5782,625.4634],[126.3856,-8.5749,584.1412],[126.3894,-8.5729,576.5649],[126.3925,-8.5749,535.8914],[126.396,-8.5737,518.2663],[126.4,-8.5763,493.282],[126.4093,-8.5774,376.5185],[126.4139,-8.5762,333.3289],[126.4229,-8.578,232.5883],[126.4283,-8.575,188.9667],[126.4314,-8.575,157.9554],[126.4395,-8.5792,134.5448],[126.4505,-8.5795,80.6283],[126.4548,-8.5813,84.9619],[126.4558,-8.5835,118.5512],[126.4542,-8.5872,82.5833],[126.4558,-8.5916,97.1308],[126.4544,-8.5939,88.6909],[126.4511,-8.5947,95.2994],[126.4542,-8.601,95.1034],[126.4637,-8.5922,104.9038],[126.4736,-8.5936,125.1207],[126.4772,-8.5903,138.0324],[126.4863,-8.5862,169.7644],[126.4877,-8.5821,231.4854],[126.5004,-8.5751,295.9071],[126.503,-8.572,291.2604],[126.514,-8.566,346.3839],[126.5157,-8.5666,364.5837],[126.5169,-8.5607,294.566],[126.5228,-8.5557,196.4055]]]]}}