{"type":"Feature","properties":{"GID_3":"TLS.4.2.11_1","GID_0":"TLS","country":"Timor-Leste","GID_1":"TLS.4_1","province":"Baucau","NL_NAME_1":"NA","GID_2":"TLS.4.2_1","county":"Baucau","NL_NAME_2":"NA","city":"Tirilolo","VARNAME_3":"TiriLolo","NL_NAME_3":"NA","TYPE_3":"Suco","ENGTYPE_3":"Community","CC_3":"NA","HASC_3":"NA","name":"Tirilolo.city"},
"geometry":{"type": "MultiPolygon","coordinates": [[[[126.4108,-8.4563,504.1041],[126.4053,-8.4174,0.0],[126.385,-8.4244,0.0],[126.3792,-8.4281,13.1379],[126.3793,-8.4471,378.9849],[126.3816,-8.4556,420.261],[126.3811,-8.4617,446.67],[126.3903,-8.5027,556.5568],[126.3885,-8.51,570.0026],[126.3833,-8.5156,596.182],[126.3887,-8.5218,596.6744],[126.3932,-8.5234,586.3837],[126.401,-8.5226,571.2667],[126.405,-8.5251,551.6246],[126.4079,-8.5241,552.6936],[126.4114,-8.5194,538.4413],[126.4097,-8.513,534.6111],[126.4189,-8.5112,530.0671],[126.4108,-8.4563,504.1041]]]]}}