{"type":"Feature","properties":{"GID_3":"TLS.7.3.2_1","GID_0":"TLS","country":"Timor-Leste","GID_1":"TLS.7_1","province":"Dili","NL_NAME_1":"NA","GID_2":"TLS.7.3_1","county":"DiliTimur","NL_NAME_2":"NA","city":"Ailok","VARNAME_3":"Becora","NL_NAME_3":"NA","TYPE_3":"Suco","ENGTYPE_3":"Community","CC_3":"NA","HASC_3":"NA","name":"Ailok.city"},
"geometry":{"type": "MultiPolygon","coordinates": [[[[125.6063,-8.6006,634.71],[125.6086,-8.5981,597.1504],[125.6028,-8.5895,480.1605],[125.6146,-8.5845,310.5884],[125.6141,-8.5786,155.4208],[125.6161,-8.5752,86.528],[125.6136,-8.5723,177.1303],[125.609,-8.571,146.3267],[125.6085,-8.569,105.2946],[125.5973,-8.5662,35.3731],[125.6003,-8.5718,167.5333],[125.5994,-8.5737,214.1664],[125.6043,-8.5759,292.7791],[125.6057,-8.5799,358.3391],[125.6015,-8.5879,457.3896],[125.6042,-8.5979,705.5505],[125.6026,-8.6011,707.3542],[125.6063,-8.6006,634.71]]]]}}