{"type": "Feature","bbox": [125.3829,-8.7911,125.4285,-8.7612],"geometry": {"type": "MultiPolygon","coordinates": [[[[125.4285,-8.7798,1605.2422],[125.428,-8.772,1371.7485],[125.4265,-8.7687,1303.4802],[125.4237,-8.7671,1231.199],[125.4223,-8.7612,1003.954],[125.4179,-8.765,1137.2833],[125.4176,-8.7676,1136.833],[125.4117,-8.7717,1226.448],[125.4041,-8.7707,1324.3738],[125.4015,-8.7729,1359.7042],[125.3984,-8.7725,1363.0922],[125.3974,-8.7739,1353.6571],[125.3837,-8.7764,1328.5469],[125.3829,-8.7787,1311.3478],[125.3856,-8.7834,1337.3325],[125.393,-8.7873,1368.8572],[125.3994,-8.7893,1381.9741],[125.4065,-8.7875,1439.7743],[125.4096,-8.7911,1508.0913],[125.4127,-8.7908,1559.8657],[125.4142,-8.7885,1571.1191],[125.4177,-8.7884,1574.8126],[125.4205,-8.7842,1597.5391],[125.424,-8.7838,1611.6311],[125.4285,-8.7798,1605.2422]]]]}
,"properties": {"GID_3": "TLS.8.2.3_1","GID_0": "TLS","country": "Timor-Leste","GID_1": "TLS.8_1","province": "Ermera","NL_NAME_1": "NA","GID_2": "TLS.8.2_1","county": "Ermera","NL_NAME_2": "NA","city": "Legimea","VARNAME_3": "Leguimea","NL_NAME_3": "NA","TYPE_3": "Suco","ENGTYPE_3": "Community","CC_3": "NA","HASC_3": "NA","name": "Legimea.city","area_km2": 8.528206,"hist_schema_id": "Elevation0-9000","hist_area_km2": {"1000": 0.020955,"1075": 0.041909,"1125": 0.041909,"1150": 0.041909,"1175": 0.062863,"1200": 0.104772,"1225": 0.14668,"1250": 0.230497,"1275": 0.209542,"1300": 0.272404,"1325": 0.670529,"1350": 1.047697,"1375": 1.152458,"1400": 1.466759,"1425": 0.984824,"1450": 0.419075,"1475": 0.398118,"1500": 0.35621,"1525": 0.377163,"1550": 0.251441,"1575": 0.167628,"1600": 0.020953,"1625": 0.041907}}}