{"type": "Feature","bbox": [125.5482,-8.5666,125.5645,-8.554],"geometry": {"type": "MultiPolygon","coordinates": [[[[125.5582,-8.554,7.6995],[125.5491,-8.5546,14.1416],[125.5482,-8.5666,52.7932],[125.5534,-8.5653,21.0909],[125.5573,-8.5601,10.9906],[125.5573,-8.565,14.287],[125.5645,-8.5594,7.5656],[125.5641,-8.554,5.1108],[125.5582,-8.554,7.6995]]]]}
,"properties": {"GID_3": "TLS.7.2.19_1","GID_0": "TLS","country": "Timor-Leste","GID_1": "TLS.7_1","province": "Dili","NL_NAME_1": "NA","GID_2": "TLS.7.2_1","county": "DiliBarat","NL_NAME_2": "NA","city": "Nazare","VARNAME_3": "BairoPite","NL_NAME_3": "NA","TYPE_3": "Suco","ENGTYPE_3": "Community","CC_3": "NA","HASC_3": "NA","name": "Nazare.city","area_km2": 1.97081,"hist_schema_id": "Elevation0-9000","hist_area_km2": {"0": 1.111205,"25": 0.859605}}}