{"type":"Feature","properties":{"GID_3":"TLS.7.3.16_1","GID_0":"TLS","country":"Timor-Leste","GID_1":"TLS.7_1","province":"Dili","NL_NAME_1":"NA","GID_2":"TLS.7.3_1","county":"DiliTimur","NL_NAME_2":"NA","city":"LahaneOriental","VARNAME_3":"LahaneTimur","NL_NAME_3":"NA","TYPE_3":"Suco","ENGTYPE_3":"Community","CC_3":"NA","HASC_3":"NA","name":"Lahane_Oriental.city"},
"geometry":{"type": "MultiPolygon","coordinates": [[[[125.585,-8.5818,269.9266],[125.5914,-8.5818,148.2026],[125.5919,-8.5712,55.8016],[125.5867,-8.5711,56.5743],[125.5854,-8.5727,78.9672],[125.586,-8.5759,144.1703],[125.5845,-8.5768,162.5512],[125.587,-8.5793,214.8379],[125.585,-8.5818,269.9266]]]]}}