{"type": "Feature","bbox": [125.5754,-8.6391,125.6063,-8.6006],"geometry": {"type": "MultiPolygon","coordinates": [[[[125.6061,-8.6376,1227.199],[125.6026,-8.6316,999.5713],[125.6015,-8.6262,809.2653],[125.5967,-8.6255,864.7994],[125.5944,-8.6177,652.5871],[125.5986,-8.6149,662.1199],[125.5994,-8.6064,708.4001],[125.6063,-8.6006,634.71],[125.6003,-8.6009,702.5294],[125.5987,-8.6023,734.4335],[125.5939,-8.6016,703.943],[125.5899,-8.6037,785.5457],[125.5885,-8.6059,816.6915],[125.5891,-8.6089,842.2518],[125.5796,-8.6189,538.5276],[125.5754,-8.6196,499.7685],[125.5757,-8.6222,493.0996],[125.5785,-8.6244,628.252],[125.5803,-8.632,1010.3312],[125.589,-8.6292,750.4925],[125.5914,-8.6337,909.9169],[125.5967,-8.6379,1175.4559],[125.5992,-8.6391,1275.3893],[125.6061,-8.6376,1227.199]]]]}
,"properties": {"GID_3": "TLS.1.2.4_1","GID_0": "TLS","country": "Timor-Leste","GID_1": "TLS.1_1","province": "Aileu","NL_NAME_1": "NA","GID_2": "TLS.1.2_1","county": "LauLara","NL_NAME_2": "NA","city": "Kotolau","VARNAME_3": "KotoLau","NL_NAME_3": "NA","TYPE_3": "Suco","ENGTYPE_3": "Community","CC_3": "NA","HASC_3": "NA","name": "Kotolau.city","area_km2": 6.729018,"hist_schema_id": "Elevation0-9000","hist_area_km2": {"500": 0.083851,"525": 0.041925,"550": 0.125776,"575": 0.125777,"600": 0.188664,"625": 0.293478,"650": 0.314441,"675": 0.230592,"700": 0.67082,"725": 0.838526,"750": 0.440223,"775": 0.482143,"800": 0.419256,"825": 0.398294,"850": 0.230588,"875": 0.251549,"900": 0.272509,"925": 0.146735,"950": 0.125773,"975": 0.167697,"1000": 0.10481,"1025": 0.10481,"1050": 0.083848,"1075": 0.041924,"1100": 0.083848,"1125": 0.104809,"1150": 0.062885,"1175": 0.041924,"1200": 0.083847,"1225": 0.062885,"1250": 0.062885,"1275": 0.020962,"1300": 0.020962}}}