{"type":"Feature","properties":{"GID_3":"TLS.5.5.7_1","GID_0":"TLS","country":"Timor-Leste","GID_1":"TLS.5_1","province":"Bobonaro","NL_NAME_1":"NA","GID_2":"TLS.5.5_1","county":"Lolotoi","NL_NAME_2":"NA","city":"O.P.A.","VARNAME_3":"Opa","NL_NAME_3":"NA","TYPE_3":"Suco","ENGTYPE_3":"Community","CC_3":"NA","HASC_3":"NA","name":"O.P.A..city"},
"geometry":{"type": "MultiPolygon","coordinates": [[[[125.2347,-9.2088,310.1113],[125.2382,-9.2083,330.9554],[125.2414,-9.2118,355.2131],[125.242,-9.2088,314.3369],[125.246,-9.2075,264.4244],[125.2511,-9.2135,253.1559],[125.2546,-9.2122,298.2256],[125.2588,-9.2077,391.1043],[125.2672,-9.2039,597.736],[125.2785,-9.2107,288.6146],[125.2806,-9.2049,418.5775],[125.2859,-9.2008,543.4258],[125.2969,-9.2022,619.4009],[125.3034,-9.2053,415.8124],[125.3113,-9.1992,250.9337],[125.3197,-9.1951,164.5583],[125.3099,-9.187,214.4996],[125.3066,-9.1857,236.7877],[125.3052,-9.187,293.0503],[125.2996,-9.1821,244.9871],[125.2969,-9.1828,319.1783],[125.2935,-9.176,324.1221],[125.2958,-9.173,337.2243],[125.294,-9.1681,410.9269],[125.2912,-9.1677,427.0907],[125.2869,-9.1633,498.6258],[125.284,-9.1647,563.1702],[125.2723,-9.1607,858.2761],[125.2706,-9.1613,804.3594],[125.2671,-9.1717,718.7344],[125.2579,-9.1822,489.5853],[125.249,-9.185,670.0167],[125.2456,-9.1928,485.8075],[125.2372,-9.1982,497.5709],[125.2347,-9.2088,310.1113]]]]}}