{"type":"Feature","properties":{"GID_3":"TLS.4.1.1_1","GID_0":"TLS","country":"Timor-Leste","GID_1":"TLS.4_1","province":"Baucau","NL_NAME_1":"NA","GID_2":"TLS.4.1_1","county":"Baguia","NL_NAME_2":"NA","city":"Afaloicai","VARNAME_3":"Afaloikai","NL_NAME_3":"NA","TYPE_3":"Suco","ENGTYPE_3":"Community","CC_3":"NA","HASC_3":"NA","name":"Afaloicai.city"},
"geometry":{"type": "MultiPolygon","coordinates": [[[[126.5912,-8.6442,2137.0391],[126.5894,-8.6534,2062.5208],[126.5872,-8.6568,1976.6537],[126.5876,-8.66,1621.6178],[126.6133,-8.6881,999.7985],[126.6131,-8.6855,958.0375],[126.618,-8.6829,855.9373],[126.6188,-8.6782,881.0409],[126.6226,-8.6754,811.545],[126.6214,-8.6601,808.9826],[126.6091,-8.6555,1025.1469],[126.6084,-8.6484,1483.8328],[126.6055,-8.6473,1650.3342],[126.6024,-8.6483,1738.4099],[126.5912,-8.6442,2137.0391]]]]}}