{"type": "Feature","bbox": [125.3118,-8.9962,125.4976,-8.7640999999999991],"geometry": {"type": "MultiPolygon","coordinates": [[[[125.3721,-8.988,746.2357],[125.3735,-8.9861,750.2885],[125.3844,-8.9857,893.957],[125.3971,-8.9818,1323.5353],[125.4001,-8.9827,1392.9688],[125.4138,-8.9782,1938.7855],[125.43,-8.9852,2386.887],[125.4488,-8.9759,2323.4954],[125.451,-8.974,2204.6824],[125.4508,-8.9702,2173.356],[125.4564,-8.9649,2291.6401],[125.4519,-8.9545,2507.6489],[125.4575,-8.9467,2464.6599],[125.4653,-8.9397,2377.676],[125.4728,-8.9383,2494.2434],[125.4727,-8.9362,2618.5002],[125.4806,-8.9299,2680.2458],[125.4796,-8.9249,2659.6851],[125.4817,-8.9216,2598.2002],[125.4939,-8.9127,2764.0642],[125.4947,-8.9106,2782.1562],[125.4921,-8.8967,2569.2542],[125.4976,-8.8941,2512.2595],[125.4975,-8.8927,2424.5813],[125.4895,-8.8854,1938.4194],[125.4772,-8.8824,1830.7703],[125.4721,-8.8844,1793.9443],[125.4682,-8.8917,1763.5199],[125.4641,-8.8918,1715.3459],[125.4582,-8.897,1670.5607],[125.4519,-8.8996,1701.946],[125.4439,-8.9004,1456.5232],[125.4414,-8.9053,1403.2534],[125.4288,-8.905,1810.4312],[125.42,-8.8947,1345.444],[125.4089,-8.8985,1300.1113],[125.4025,-8.8983,1258.1963],[125.4047,-8.8885,1407.1038],[125.3954,-8.8849,1367.3573],[125.3882,-8.8762,919.8695],[125.387,-8.8711,810.3422],[125.3823,-8.8673,649.5696],[125.3793,-8.8673,625.1197],[125.3773,-8.8687,619.0814],[125.3737,-8.8675,614.1968],[125.3724,-8.8697,550.7924],[125.3649,-8.8678,525.8387],[125.3628,-8.8696,441.5772],[125.3648,-8.8749,575.623],[125.3631,-8.8768,602.6589],[125.3585,-8.8772,610.8947],[125.3569,-8.8887,694.6482],[125.3479,-8.8943,440.0671],[125.3404,-8.9032,254.6562],[125.3362,-8.905,240.0104],[125.3338,-8.908,238.7676],[125.3192,-8.9055,231.2747],[125.3118,-8.8977,223.1937],[125.314,-8.9006,205.1661],[125.3143,-8.911,216.2866],[125.3192,-8.9127,228.1841],[125.329,-8.9275,248.6927],[125.3275,-8.9299,253.77],[125.3223,-8.9317,257.4769],[125.3153,-8.9467,352.6725],[125.3203,-8.9461,294.4826],[125.3219,-8.9489,293.4963],[125.3211,-8.9503,335.5852],[125.3231,-8.9509,298.1551],[125.3221,-8.9538,309.1527],[125.3201,-8.9541,319.5104],[125.3204,-8.9555,320.3825],[125.323,-8.956,312.9101],[125.3258,-8.9546,347.1368],[125.3277,-8.9574,332.3881],[125.3274,-8.9626,341.6631],[125.3394,-8.9723,404.4916],[125.3436,-8.9829,475.9868],[125.3443,-8.9876,495.6113],[125.3424,-8.9903,503.8529],[125.3441,-8.9934,522.3239],[125.3566,-8.9962,592.4473],[125.3588,-8.994,621.6292],[125.3658,-8.9924,659.3056],[125.3721,-8.988,746.2357]]],
[[[125.4308,-8.7795,1513.0291],[125.4272,-8.78,1605.2422],[125.424,-8.7838,1611.6311],[125.4205,-8.7842,1597.5391],[125.4177,-8.7884,1574.8126],[125.4142,-8.7885,1571.1191],[125.4127,-8.7908,1559.8657],[125.4096,-8.7911,1508.0913],[125.4065,-8.7875,1439.7743],[125.3994,-8.7893,1381.9741],[125.393,-8.7873,1368.8572],[125.3856,-8.7834,1337.3325],[125.3849,-8.7811,1339.6963],[125.3811,-8.7916,1354.1877],[125.3851,-8.8034,1645.1248],[125.3891,-8.8027,1686.2555],[125.3981,-8.8052,1520.7922],[125.4141,-8.7994,1394.9636],[125.4202,-8.8009,1258.4636],[125.4213,-8.8044,1195.6041],[125.4189,-8.8101,1133.3264],[125.4249,-8.8085,1164.3173],[125.4277,-8.8009,1157.7205],[125.4337,-8.7972,1154.4307],[125.4347,-8.7874,1207.6477],[125.4384,-8.7854,1183.2856],[125.4432,-8.7729,1243.8135],[125.4483,-8.7705,1214.0452],[125.447,-8.7675,1261.7018],[125.4496,-8.7652,1244.1554],[125.4465,-8.7640999999999991,1188.5325],[125.4356,-8.7713,1393.0334],[125.4323,-8.7746,1503.1475],[125.4308,-8.7795,1513.0291]]]]}
,"properties": {"GID_2": "TLS.8.1_1","GID_0": "TLS","country": "Timor-Leste","GID_1": "TLS.8_1","province": "Ermera","NL_NAME_1": "NA","county": "Atsabe","VARNAME_2": "NA","NL_NAME_2": "NA","TYPE_2": "Subdistrito","ENGTYPE_2": "Subdistrict","CC_2": "NA","HASC_2": "NA","name": "Atsabe.county","area_km2": 180.237,"hist_schema_id": "Elevation0-9000","hist_area_km2": {"200": 0.2304,"225": 0.796,"250": 1.6757,"275": 1.927,"300": 2.0946,"325": 2.1993,"350": 2.283,"375": 2.0526,"400": 2.4296,"425": 1.9898,"450": 1.9269,"475": 2.0945,"500": 2.3877,"525": 2.1364,"550": 1.885,"575": 1.906,"600": 1.6546,"625": 2.0317,"650": 1.885,"675": 2.1154,"700": 2.3877,"725": 2.1364,"750": 2.4087,"775": 1.8641,"800": 2.3668,"825": 2.3668,"850": 2.4087,"875": 2.5762,"900": 2.7228,"925": 2.5343,"950": 2.7019,"975": 2.4506,"1000": 2.2621,"1025": 2.7438,"1050": 2.9323,"1075": 2.4715,"1100": 2.6391,"1125": 2.9324,"1150": 2.9115,"1175": 2.6812,"1200": 3.142,"1225": 2.5974,"1250": 3.2677,"1275": 2.765,"1300": 2.4089,"1325": 2.2832,"1350": 2.4298,"1375": 2.4928,"1400": 2.3463,"1425": 1.9901,"1450": 1.9272,"1475": 2.2414,"1500": 1.8434,"1525": 1.6339,"1550": 1.5501,"1575": 1.9062,"1600": 1.4453,"1625": 1.5082,"1650": 1.6547,"1675": 1.6966,"1700": 1.6966,"1725": 1.6546,"1750": 1.55,"1775": 1.9269,"1800": 1.6756,"1825": 1.6756,"1850": 1.885,"1875": 1.6128,"1900": 1.5499,"1925": 1.9269,"1950": 1.508,"1975": 1.7175,"2000": 1.5709,"2025": 1.6756,"2050": 1.4033,"2075": 1.4871,"2100": 1.1729,"2125": 1.6127,"2150": 1.131,"2175": 1.3405,"2200": 1.4033,"2225": 1.4033,"2250": 1.2357,"2275": 1.4242,"2300": 1.4661,"2325": 1.131,"2350": 0.8587,"2375": 0.9844,"2400": 0.8797,"2425": 0.754,"2450": 0.6912,"2475": 0.5655,"2500": 0.4399,"2525": 0.5027,"2550": 0.5027,"2575": 0.4399,"2600": 0.398,"2625": 0.3561,"2650": 0.2304,"2675": 0.3142,"2700": 0.1676,"2725": 0.2723,"2750": 0.1257,"2775": 0.1885,"2800": 0.1466,"2825": 0.0628,"2850": 0.0628,"2875": 0.0628,"2900": 0.0419,"2950": 0.0209}}}