{"type": "Feature","bbox": [126.4017,-8.601,126.514,-8.5112],"geometry": {"type": "MultiPolygon","coordinates": [[[[126.4189,-8.5112,530.0671],[126.4097,-8.513,534.6111],[126.4114,-8.5169,540.0279],[126.4107,-8.5217,538.6479],[126.405,-8.5251,551.6246],[126.4115,-8.5293,522.6379],[126.4259,-8.5346,455.258],[126.4267,-8.5462,450.1067],[126.423,-8.5503,447.5014],[126.4224,-8.5545,453.1487],[126.4172,-8.5625,479.1305],[126.4124,-8.5645,481.8862],[126.4107,-8.5625,494.9708],[126.4085,-8.5632,515.6549],[126.4017,-8.5718,561.8373],[126.4044,-8.5723,494.6116],[126.4042,-8.5761,446.0571],[126.4055,-8.5771,451.5517],[126.4139,-8.5762,333.3289],[126.4229,-8.578,232.5883],[126.4283,-8.575,188.9667],[126.4314,-8.575,157.9554],[126.4395,-8.5792,134.5448],[126.4524,-8.5799,79.6032],[126.4558,-8.5835,118.5512],[126.4542,-8.5868,82.5833],[126.4556,-8.5922,97.1308],[126.4511,-8.5947,95.2994],[126.4542,-8.601,95.1034],[126.4637,-8.5922,104.9038],[126.4752,-8.593,125.4205],[126.4772,-8.5903,138.0324],[126.4863,-8.5862,169.7644],[126.4877,-8.5821,231.4854],[126.514,-8.566,346.3839],[126.5074,-8.56,220.586],[126.5056,-8.556,148.7623],[126.4989,-8.5557,140.9551],[126.4964,-8.5528,101.6135],[126.4961,-8.5487,80.6717],[126.4884,-8.5449,91.0414],[126.4831,-8.5385,142.8563],[126.4803,-8.538,100.4898],[126.4712,-8.5313,41.6025],[126.4717,-8.527,38.2792],[126.4656,-8.522,99.3833],[126.4592,-8.5192,202.8876],[126.4582,-8.5217,184.6653],[126.4592,-8.5237,163.9457],[126.4581,-8.5241,163.9457],[126.4467,-8.518,335.7386],[126.44,-8.5118,439.7998],[126.4189,-8.5112,530.0671]]]]}
,"properties": {"GID_3": "TLS.4.2.13_1","GID_0": "TLS","country": "Timor-Leste","GID_1": "TLS.4_1","province": "Baucau","NL_NAME_1": "NA","GID_2": "TLS.4.2_1","county": "Baucau","NL_NAME_2": "NA","city": "Uailili","VARNAME_3": "Wailili","NL_NAME_3": "NA","TYPE_3": "Suco","ENGTYPE_3": "Community","CC_3": "NA","HASC_3": "NA","name": "Uailili.city","area_km2": 62.35395,"hist_schema_id": "Elevation0-9000","hist_area_km2": {"50": 3.27085,"75": 6.81402,"100": 6.58324,"125": 6.24786,"150": 6.22687,"175": 4.40283,"200": 3.68998,"225": 2.78848,"250": 3.04009,"275": 2.1176,"300": 1.86602,"325": 1.27896,"350": 0.96447,"375": 1.92894,"400": 1.86603,"425": 1.57252,"450": 1.6774,"475": 1.17416,"500": 1.69839,"525": 2.28552,"550": 0.85969}}}