{"type":"Feature","properties":{"GID_3":"TLS.4.1.5_1","GID_0":"TLS","country":"Timor-Leste","GID_1":"TLS.4_1","province":"Baucau","NL_NAME_1":"NA","GID_2":"TLS.4.1_1","county":"Baguia","NL_NAME_2":"NA","city":"Devauasi","VARNAME_3":"DefaUassi","NL_NAME_3":"NA","TYPE_3":"Suco","ENGTYPE_3":"Community","CC_3":"NA","HASC_3":"NA","name":"Devauasi.city"},
"geometry":{"type": "MultiPolygon","coordinates": [[[[126.6773,-8.6346,154.7608],[126.6798,-8.636,157.0748],[126.686,-8.6331,188.5899],[126.692,-8.6292,240.7672],[126.6924,-8.6269,254.1249],[126.6983,-8.6218,290.0526],[126.7038,-8.6196,325.3732],[126.7041,-8.6136,360.1552],[126.7099,-8.6102,422.2544],[126.7131,-8.6036,499.9144],[126.7132,-8.5954,654.9822],[126.7118,-8.5922,804.5186],[126.7081,-8.5862,809.418],[126.7022,-8.5846,746.3247],[126.7043,-8.5776,610.2186],[126.6999,-8.5745,538.433],[126.6968,-8.5654,444.0661],[126.6938,-8.5614,387.6609],[126.6872,-8.5683,407.6557],[126.6857,-8.568,415.967],[126.6849,-8.5727,442.3094],[126.6815,-8.5734,451.5774],[126.6815,-8.5759,448.2743],[126.6776,-8.5777,484.4428],[126.6696,-8.5853,406.9225],[126.6714,-8.5889,322.4484],[126.6739,-8.5902,294.5557],[126.6706,-8.5964,260.4264],[126.6713,-8.5989,259.8512],[126.67529999999999,-8.6016,351.1624],[126.6783,-8.6016,403.8949],[126.6843,-8.6068,587.1489],[126.6863,-8.6063,573.4503],[126.6847,-8.6145,514.309],[126.6776,-8.625,306.3423],[126.6799,-8.6283,272.6681],[126.6773,-8.6346,154.7608]]]]}}