{"type":"Feature","properties":{"GID_3":"TLS.5.4.2_1","GID_0":"TLS","country":"Timor-Leste","GID_1":"TLS.5_1","province":"Bobonaro","NL_NAME_1":"NA","GID_2":"TLS.5.4_1","county":"Cailaco","NL_NAME_2":"NA","city":"Daudo","VARNAME_3":"NA","NL_NAME_3":"NA","TYPE_3":"Suco","ENGTYPE_3":"Community","CC_3":"NA","HASC_3":"NA","name":"Daudo.city"},
"geometry":{"type": "MultiPolygon","coordinates": [[[[125.2505,-8.8719,181.4926],[125.255,-8.8737,214.7493],[125.2557,-8.8757,228.412],[125.2552,-8.8795,276.6016],[125.2526,-8.8806,192.4096],[125.2533,-8.8825,221.1815],[125.2573,-8.882,224.69],[125.256,-8.8831,238.888],[125.2568,-8.8893,282.0267],[125.254,-8.8922,295.972],[125.2546,-8.8958,327.6721],[125.2622,-8.9093,631.9623],[125.2671,-8.9136,734.8596],[125.2713,-8.9067,524.373],[125.2716,-8.9033,544.0015],[125.2748,-8.8996,477.2736],[125.2742,-8.8966,442.7785],[125.2805,-8.892,273.8884],[125.2804,-8.888,320.526],[125.2945,-8.8843,176.8751],[125.2934,-8.8798,176.3417],[125.2953,-8.8651,163.736],[125.2889,-8.8569,150.4948],[125.2871,-8.8591,165.2015],[125.2868,-8.8642,160.5933],[125.2808,-8.8633,173.4405],[125.2775,-8.8659,196.6914],[125.2742,-8.8644,209.418],[125.2719,-8.8599,242.0036],[125.263,-8.8603,391.024],[125.2591,-8.8634,427.1719],[125.2573,-8.8616,400.0467],[125.2505,-8.8719,181.4926]]]]}}