{"type": "Feature","bbox": [126.5849,-8.5643,126.6224,-8.513],"geometry": {"type": "MultiPolygon","coordinates": [[[[126.5862,-8.5249,125.291],[126.5858,-8.531,105.6487],[126.5871,-8.5337,111.324],[126.5849,-8.5367,119.1556],[126.5854,-8.5391,123.9725],[126.5904,-8.5404,218.7926],[126.5968,-8.5461,330.3954],[126.5998,-8.5511,327.0403],[126.5994,-8.5538,308.7108],[126.6061,-8.5561,419.7746],[126.6076,-8.5613,400.8392],[126.6116,-8.5615,458.0133],[126.6134,-8.5643,511.3341],[126.6169,-8.5639,572.6144],[126.6224,-8.5552,774.8123],[126.6207,-8.5464,769.9875],[126.6217,-8.5421,710.4893],[126.6186,-8.539,679.868],[126.6181,-8.5233,314.4878],[126.6124,-8.5196,174.2667],[126.61,-8.5144,91.1537],[126.6076,-8.513,87.5464],[126.6062,-8.5146,94.821],[126.5983,-8.5145,67.4236],[126.5977,-8.5189,76.4057],[126.5936,-8.5224,84.6033],[126.5922,-8.5256,90.163],[126.5862,-8.5249,125.291]]]]}
,"properties": {"GID_3": "TLS.4.4.2_1","GID_0": "TLS","country": "Timor-Leste","GID_1": "TLS.4_1","province": "Baucau","NL_NAME_1": "NA","GID_2": "TLS.4.4_1","county": "Quelicai","NL_NAME_2": "NA","city": "Afaca","VARNAME_3": "Afasa","NL_NAME_3": "NA","TYPE_3": "Suco","ENGTYPE_3": "Community","CC_3": "NA","HASC_3": "NA","name": "Afaca.city","area_km2": 14.0271,"hist_schema_id": "Elevation0-9000","hist_area_km2": {"75": 0.54518,"100": 1.34195,"125": 0.83871,"150": 0.69194,"175": 0.67097,"200": 0.56613,"225": 0.60806,"250": 0.64999,"275": 0.56612,"300": 0.71289,"325": 0.48224,"350": 0.48224,"375": 0.48224,"400": 0.46127,"425": 0.3774,"450": 0.3774,"475": 0.33546,"500": 0.3145,"525": 0.3145,"550": 0.33547,"575": 0.46126,"600": 0.44031,"625": 0.3774,"650": 0.54514,"675": 0.14677,"700": 0.14677,"725": 0.14677,"750": 0.10483,"775": 0.10483,"800": 0.0629,"825": 0.0629,"850": 0.10483,"875": 0.02097,"900": 0.02097,"925": 0.02097,"950": 0.0629,"1000": 0.04193}}}