{"type":"Feature","properties":{"GID_3":"TLS.5.6.3_1","GID_0":"TLS","country":"Timor-Leste","GID_1":"TLS.5_1","province":"Bobonaro","NL_NAME_1":"NA","GID_2":"TLS.5.6_1","county":"Maliana","NL_NAME_2":"NA","city":"Odomau","VARNAME_3":"NA","NL_NAME_3":"NA","TYPE_3":"Suco","ENGTYPE_3":"Community","CC_3":"NA","HASC_3":"NA","name":"Odomau.city"},
"geometry":{"type": "MultiPolygon","coordinates": [[[[125.219,-8.9914,254.3609],[125.2205,-8.9867,240.9109],[125.2195,-8.9859,232.8462],[125.216,-8.9864,235.3323],[125.2018,-8.9772,201.4261],[125.1961,-8.9753,192.7103],[125.1958,-8.973,190.2088],[125.1989,-8.9683,186.0403],[125.1935,-8.9624,173.4016],[125.1922,-8.955,168.1229],[125.1901,-8.9532,161.8163],[125.1902,-8.9451,150.3579],[125.1827,-8.9366,138.8263],[125.177,-8.942,148.9797],[125.1742,-8.9419,150.1489],[125.1691,-8.9454,160.5683],[125.1685,-8.9599,155.4777],[125.1728,-8.9629,153.3734],[125.1707,-8.9658,159.0536],[125.1731,-8.9661,158.1229],[125.1739,-8.9719,162.672],[125.1781,-8.9734,166.0909],[125.1766,-8.9748,165.32],[125.1816,-8.978,168.994],[125.1828,-8.982,173.8163],[125.1929,-8.9859,189.9422],[125.1948,-8.9885,194.9508],[125.1933,-8.991,188.9498],[125.1943,-8.9921,195.9908],[125.2144,-8.9889,235.9749],[125.219,-8.9914,254.3609]]]]}}