{"type": "Feature","bbox": [125.1739,-9.3003,125.2733,-9.2354],"geometry": {"type": "MultiPolygon","coordinates": [[[[125.183,-9.2381,282.9071],[125.1814,-9.2487,252.4187],[125.1934,-9.2592,231.1554],[125.1805,-9.276,180.2838],[125.1739,-9.2791,167.5503],[125.174,-9.2881,162.4877],[125.1811,-9.2871,180.2008],[125.185,-9.2824,289.8299],[125.1886,-9.2815,362.2518],[125.202,-9.2924,397.126],[125.2116,-9.296,301.7609],[125.2244,-9.2943,219.9541],[125.2288,-9.2964,184.261],[125.2417,-9.2949,74.0858],[125.2465,-9.2964,68.0669],[125.2481,-9.3,63.2626],[125.2522,-9.3003,58.0765],[125.2539,-9.2941,73.8966],[125.2569,-9.2901,80.7009],[125.2509,-9.2821,196.83],[125.2499,-9.2784,228.8687],[125.2466,-9.2794,186.6848],[125.2442,-9.2771,201.7442],[125.2472,-9.2623,566.8038],[125.2488,-9.2611,524.1996],[125.2689,-9.262,140.3719],[125.2733,-9.2567,173.6304],[125.2721,-9.2533,179.0693],[125.2674,-9.2506,195.2075],[125.2612,-9.2525,273.9625],[125.2569,-9.2496,291.107],[125.2537,-9.2444,332.3803],[125.2487,-9.242,365.2974],[125.2475,-9.2453,387.457],[125.2419,-9.2451,445.2138],[125.2353,-9.2419,519.3011],[125.2336,-9.2384,563.9426],[125.2278,-9.2354,612.718],[125.2214,-9.237,629.9224],[125.2194,-9.2409,631.2802],[125.2118,-9.2435,466.8099],[125.1978,-9.242,302.2671],[125.196,-9.2436,287.787],[125.1944,-9.2371,403.0597],[125.1913,-9.2386,360.4227],[125.1884,-9.2369,304.6867],[125.1854,-9.2391,289.0237],[125.183,-9.2381,282.9071]]]]}
,"properties": {"GID_3": "TLS.6.5.13_1","GID_0": "TLS","country": "Timor-Leste","GID_1": "TLS.6_1","province": "Covalima","NL_NAME_1": "NA","GID_2": "TLS.6.5_1","county": "SuaiKota","NL_NAME_2": "NA","city": "Ogues","VARNAME_3": "NA","NL_NAME_3": "NA","TYPE_3": "Suco","ENGTYPE_3": "Community","CC_3": "NA","HASC_3": "NA","name": "Ogues.city","area_km2": 45.55479,"hist_schema_id": "Elevation0-9000","hist_area_km2": {"50": 0.08369,"75": 0.66956,"100": 1.29729,"125": 1.33915,"150": 2.38538,"175": 2.59466,"200": 2.95043,"225": 2.92951,"250": 2.95047,"275": 3.30622,"300": 2.72031,"325": 3.45272,"350": 3.43182,"375": 2.46924,"400": 2.19723,"425": 1.40205,"450": 1.2765,"475": 1.27651,"500": 1.21373,"525": 1.15095,"550": 0.81613,"575": 0.79521,"600": 0.58595,"625": 0.98356,"650": 0.52317,"675": 0.35576,"700": 0.10463,"725": 0.16741,"750": 0.06278,"775": 0.02093,"800": 0.04185}}}