{"type": "Feature","bbox": [125.5907,-8.1998,125.6444,-8.1269],"geometry": {"type": "MultiPolygon","coordinates": [[[[125.6258,-8.1998,18.1273],[125.6342,-8.1922,0.0],[125.635,-8.1825,0.0],[125.64,-8.1753,0.0],[125.6411,-8.1658,0.0],[125.6444,-8.1633,4.3611],[125.6403,-8.1533,2.4694],[125.6417,-8.1431,0.0],[125.6383,-8.1375,39.6392],[125.639,-8.1328,0.0],[125.6367,-8.1269,1.0708],[125.6331,-8.1271,9.175],[125.6191,-8.1328,0.0],[125.6075,-8.1488,0.0],[125.5972,-8.159,0.0],[125.5907,-8.1613,0.0],[125.5974,-8.1689,145.7833],[125.5968,-8.1706,154.8492],[125.6002,-8.1705,165.2271],[125.6049,-8.1765,253.9816],[125.6094,-8.1775,305.285],[125.6127,-8.1905,299.4867],[125.6194,-8.1935,270.9984],[125.6208,-8.1974,105.3634],[125.6258,-8.1998,18.1273]]]]}
,"properties": {"GID_3": "TLS.7.1.2_1","GID_0": "TLS","country": "Timor-Leste","GID_1": "TLS.7_1","province": "Dili","NL_NAME_1": "NA","GID_2": "TLS.7.1_1","county": "Atauro","NL_NAME_2": "NA","city": "Biqueli","VARNAME_3": "NA","NL_NAME_3": "NA","TYPE_3": "Suco","ENGTYPE_3": "Community","CC_3": "NA","HASC_3": "NA","name": "Biqueli.city","area_km2": 25.87749,"hist_schema_id": "Elevation0-9000","hist_area_km2": {"0": 2.4975,"25": 1.74196,"50": 1.4901199999999999,"75": 1.72099,"100": 1.93086,"125": 1.67901,"150": 1.5111,"175": 1.65802,"200": 1.72096,"225": 1.02839,"250": 1.23825,"275": 2.24562,"300": 2.49747,"325": 1.3012,"350": 0.81851,"375": 0.41975,"400": 0.25185,"425": 0.12593}}}