{"type":"Feature","properties":{"GID_3":"TLS.7.2.6_1","GID_0":"TLS","country":"Timor-Leste","GID_1":"TLS.7_1","province":"Dili","NL_NAME_1":"NA","GID_2":"TLS.7.2_1","county":"DiliBarat","NL_NAME_2":"NA","city":"Caicoli","VARNAME_3":"Rumbia","NL_NAME_3":"NA","TYPE_3":"Suco","ENGTYPE_3":"Community","CC_3":"NA","HASC_3":"NA","name":"Caicoli.city"},
"geometry":{"type": "MultiPolygon","coordinates": [[[[125.5719,-8.5575,5.2393],[125.5723,-8.5627,5.7388],[125.5776,-8.564,6.7712],[125.5784,-8.5614,5.6441],[125.5801,-8.5608,8.0937],[125.5798,-8.5564,5.2731],[125.5719,-8.5575,5.2393]]]]}}