{"type": "Feature","bbox": [124.2195,-9.29,124.3296,-9.224],"geometry": {"type": "MultiPolygon","coordinates": [[[[124.2408,-9.29,151.8671],[124.2655,-9.2875,552.6304],[124.2865,-9.2875,522.9788],[124.3124,-9.2899,260.0326],[124.3253,-9.2821,220.7879],[124.3296,-9.2761,210.0911],[124.3265,-9.2708,233.049],[124.3097,-9.2616,153.0456],[124.3058,-9.255,53.9203],[124.3003,-9.2564,123.2232],[124.2973,-9.2556,135.5562],[124.2928,-9.2518,191.9177],[124.291,-9.2473,318.5965],[124.278,-9.2391,194.6909],[124.2715,-9.2311,81.5151],[124.2693,-9.224,0.0],[124.2636,-9.2247,1.9814],[124.2545,-9.2367,5.9297],[124.2386,-9.2349,1.9715],[124.2329,-9.2372,1.2101],[124.222,-9.2379,0.0],[124.2195,-9.2405,2.7596],[124.2273,-9.2488,12.7884],[124.228,-9.2514,13.9144],[124.2261,-9.2569,39.4351],[124.2286,-9.2609,21.0708],[124.2274,-9.266,33.3417],[124.2305,-9.2725,57.0318],[124.2366,-9.2792,79.4378],[124.2367,-9.2833,120.1371],[124.2408,-9.29,151.8671]]]]}
,"properties": {"GID_3": "TLS.3.3.10_1","GID_0": "TLS","country": "Timor-Leste","GID_1": "TLS.3_1","province": "Ambeno","NL_NAME_1": "NA","GID_2": "TLS.3.3_1","county": "PanteMacassar","NL_NAME_2": "NA","city": "TaibocoI","VARNAME_3": "Taiboco","NL_NAME_3": "NA","TYPE_3": "Suco","ENGTYPE_3": "Community","CC_3": "NA","HASC_3": "NA","name": "Taiboco_I.city","area_km2": 51.62372,"hist_schema_id": "Elevation0-9000","hist_area_km2": {"0": 3.74597,"25": 3.72497,"50": 2.44842,"75": 2.72044,"100": 2.57392,"125": 2.88777,"150": 3.0761,"175": 3.05515,"200": 2.99236,"225": 3.07604,"250": 2.55289,"275": 2.84583,"300": 2.11345,"325": 1.98788,"350": 2.05065,"375": 1.86232,"400": 1.23457,"425": 1.48566,"450": 1.06716,"475": 0.92069,"500": 0.75329,"525": 0.79514,"550": 0.69051,"575": 0.48127,"600": 0.41849,"625": 0.06277}}}