{"type": "Feature","bbox": [125.4411,-9.0764,125.5072,-9.0018],"geometry": {"type": "MultiPolygon","coordinates": [[[[125.4917,-9.0154,582.517],[125.4902,-9.0161,656.3488],[125.487,-9.0127,649.4361],[125.4647,-9.0099,948.9083],[125.4617,-9.0067,960.4185],[125.4607,-9.002,1028.9052],[125.458,-9.003,1127.0447],[125.4529,-9.0018,1320.693],[125.4457,-9.0047,1445.7021],[125.4411,-9.0108,1205.6194],[125.4433,-9.0143,1073.2301],[125.4434,-9.0184,938.5143],[125.4481,-9.0223,855.7516],[125.4501,-9.029,783.5391],[125.4455,-9.0378,700.8379],[125.4458,-9.0402,586.0444],[125.4489,-9.042,543.6838],[125.4471,-9.0483,537.5688],[125.4488,-9.0506,450.0687],[125.4451,-9.0554,443.5606],[125.4442,-9.0618,399.6809],[125.4637,-9.0655,306.4365],[125.4668,-9.0682,291.287],[125.468,-9.072,281.6527],[125.4749,-9.0764,268.9968],[125.4763,-9.0746,312.0924],[125.4747,-9.0723,273.3375],[125.4754,-9.0692,288.2665],[125.4719,-9.0668,289.3487],[125.4704,-9.0635,298.2296],[125.4723,-9.0617,371.2673],[125.4725,-9.0573,338.4383],[125.4744,-9.0546,348.0735],[125.482,-9.0513,490.7288],[125.4933,-9.0515,575.0095],[125.5028,-9.0472,388.2372],[125.5072,-9.0488,370.9968],[125.5027,-9.0299,460.119],[125.4917,-9.0154,582.517]]]]}
,"properties": {"GID_3": "TLS.2.1.5_1","GID_0": "TLS","country": "Timor-Leste","GID_1": "TLS.2_1","province": "Ainaro","NL_NAME_1": "NA","GID_2": "TLS.2.1_1","county": "Ainaro","NL_NAME_2": "NA","city": "Mau-Nuno","VARNAME_3": "MauNuno","NL_NAME_3": "NA","TYPE_3": "Suco","ENGTYPE_3": "Community","CC_3": "NA","HASC_3": "NA","name": "Mau-Nuno.city","area_km2": 33.00009,"hist_schema_id": "Elevation0-9000","hist_area_km2": {"275": 0.52343,"300": 0.54437,"325": 0.37688,"350": 0.64907,"375": 0.73283,"400": 0.73283,"425": 0.96316,"450": 0.83753,"475": 1.1935,"500": 1.38194,"525": 1.42383,"550": 1.48665,"575": 1.42384,"600": 1.73793,"625": 1.40291,"650": 1.5495,"675": 1.34011,"700": 0.92133,"725": 0.92133,"750": 0.77476,"775": 0.54443,"800": 0.87946,"825": 0.46067,"850": 0.71195,"875": 0.62819,"900": 0.43973,"925": 0.43973,"950": 0.71195,"975": 0.62819,"1000": 0.87948,"1025": 0.54444,"1050": 0.46068,"1075": 0.35598,"1100": 0.56538,"1125": 0.58632,"1150": 0.87949,"1175": 0.43975,"1200": 0.5235,"1225": 0.39787,"1250": 0.33505,"1275": 0.1047,"1300": 0.18846,"1325": 0.1047,"1350": 0.12564,"1375": 0.06282,"1400": 0.04188,"1450": 0.02094,"1475": 0.02094}}}