{"type": "Feature","bbox": [126.3414,-8.5831,126.4264,-8.5183],"geometry": {"type": "MultiPolygon","coordinates": [[[[126.3856,-8.5183,598.6165],[126.3802,-8.5205,603.5411],[126.3719,-8.5329,642.3243],[126.3629,-8.5374,669.6794],[126.3581,-8.5385,678.752],[126.348,-8.53,681.4633],[126.3422,-8.5338,685.9496],[126.3448,-8.5426,704.0565],[126.3432,-8.5444,708.3422],[126.3445,-8.5469,711.9778],[126.3429,-8.5538,730.2942],[126.3453,-8.5588,737.5741],[126.3414,-8.5653,750.2339],[126.3426,-8.5663,748.6306],[126.3426,-8.5706,746.0244],[126.347,-8.5746,736.5461],[126.3472,-8.5765,746.0316],[126.3575,-8.5831,753.3239],[126.3631,-8.577,720.0942],[126.3744,-8.5794,707.1575],[126.3852,-8.5782,625.4634],[126.3856,-8.5749,584.1412],[126.3894,-8.5729,576.5649],[126.3925,-8.5749,535.8914],[126.396,-8.5737,518.2663],[126.4,-8.5763,493.282],[126.4042,-8.5761,446.0571],[126.4044,-8.5723,494.6116],[126.4017,-8.5718,561.8373],[126.4085,-8.5632,515.6549],[126.4107,-8.5625,494.9708],[126.4124,-8.5645,481.8862],[126.4172,-8.5625,479.1305],[126.4224,-8.5545,453.1487],[126.423,-8.5503,447.5014],[126.4264,-8.5469,463.237],[126.4259,-8.5346,455.258],[126.4115,-8.5293,522.6379],[126.401,-8.5226,571.2667],[126.397,-8.5237,574.5174],[126.3896,-8.5223,596.6744],[126.3856,-8.5183,598.6165]]]]}
,"properties": {"GID_3": "TLS.4.2.8_1","GID_0": "TLS","country": "Timor-Leste","GID_1": "TLS.4_1","province": "Baucau","NL_NAME_1": "NA","GID_2": "TLS.4.2_1","county": "Baucau","NL_NAME_2": "NA","city": "Gariuai","VARNAME_3": "NA","NL_NAME_3": "NA","TYPE_3": "Suco","ENGTYPE_3": "Community","CC_3": "NA","HASC_3": "NA","name": "Gariuai.city","area_km2": 44.32319,"hist_schema_id": "Elevation0-9000","hist_area_km2": {"450": 0.3145,"475": 1.3838,"500": 2.516,"525": 3.50143,"550": 4.23526,"575": 3.98368,"600": 3.60634,"625": 4.52885,"650": 4.00459,"675": 4.7384,"700": 7.08656,"725": 3.33356,"750": 1.0902}}}