{"type":"Feature","properties":{"GID_3":"TLS.7.2.5_1","GID_0":"TLS","country":"Timor-Leste","GID_1":"TLS.7_1","province":"Dili","NL_NAME_1":"NA","GID_2":"TLS.7.2_1","county":"DiliBarat","NL_NAME_2":"NA","city":"Caicido","VARNAME_3":"Solo","NL_NAME_3":"NA","TYPE_3":"Suco","ENGTYPE_3":"Community","CC_3":"NA","HASC_3":"NA","name":"Caicido.city"},
"geometry":{"type": "MultiPolygon","coordinates": [[[[125.574,-8.5511,0.0],[125.5719,-8.5533,5.6062],[125.5719,-8.5575,5.2393],[125.5833,-8.5558,5.6865],[125.5828,-8.554,5.2207],[125.5856,-8.5532,5.753],[125.5836,-8.5497,2.6451],[125.5789,-8.5508,0.0],[125.5772,-8.5533,3.7765],[125.574,-8.5511,0.0]]]]}}