{"type": "Feature","bbox": [125.4538,-8.7437,125.6575,-8.5788],"geometry": {"type": "MultiPolygon","coordinates": [[[[125.5654,-8.6596,1115.8672],[125.566,-8.6548,1174.1541],[125.569,-8.6515,1370.3943],[125.5841,-8.6508,1121.9187],[125.5903,-8.6437,1287.6589],[125.5963,-8.6417,1337.1237],[125.6001,-8.6382,1310.4236],[125.6141,-8.6373,1206.6841],[125.6184,-8.6312,1252.4236],[125.6257,-8.6301,1273.9728],[125.6293,-8.6279,1154.8721],[125.6311,-8.6181,1093.964],[125.6342,-8.613,951.8758],[125.65,-8.6041,392.2944],[125.6541,-8.5984,316.0731],[125.6537,-8.5966,289.6981],[125.6571,-8.5904,286.4373],[125.6573,-8.5874,265.2041],[125.656,-8.5864,227.5476],[125.6575,-8.5788,193.3652],[125.6547,-8.5798,173.6709],[125.6534,-8.5843,186.0141],[125.6489,-8.5901,315.2988],[125.6429,-8.5933,367.9188],[125.6355,-8.5913,610.6781],[125.6252,-8.5844,314.5495],[125.623,-8.5852,357.9199],[125.6179,-8.5828,239.8268],[125.6028,-8.5895,480.1605],[125.6084,-8.5995,597.1504],[125.5906,-8.6032,785.5457],[125.5885,-8.6059,816.6915],[125.5891,-8.6089,842.2518],[125.5796,-8.6189,538.5276],[125.5757,-8.6194,554.6169],[125.5754,-8.6216,493.0996],[125.5726,-8.6233,461.3043],[125.5654,-8.6234,370.7755],[125.5655,-8.6264,329.2093],[125.5626,-8.6269,314.9572],[125.5529,-8.6227,241.0846],[125.5502,-8.6234,198.1122],[125.5482,-8.6211,247.2451],[125.5442,-8.6224,160.5383],[125.5423,-8.6196,157.6449],[125.5348,-8.6149,124.4178],[125.5278,-8.6128,100.8694],[125.5239,-8.6189,111.1328],[125.5152,-8.6235,131.8384],[125.5125,-8.629,165.9086],[125.5145,-8.6325,168.591],[125.5139,-8.6349,181.8911],[125.5039,-8.6351,209.9698],[125.5033,-8.638,205.8013],[125.5111,-8.6437,275.8884],[125.5215,-8.6465,361.1588],[125.5269,-8.6626,642.2039],[125.5298,-8.6653,668.9606],[125.5309,-8.6696,709.4108],[125.5349,-8.6712,674.2529],[125.5352,-8.6774,751.2009],[125.5318,-8.6844,803.5916],[125.5284,-8.6865,855.5024],[125.526,-8.693,1052.2034],[125.5158,-8.7008,1223.7493],[125.5099,-8.7076,1225.2554],[125.5056,-8.7076,1156.9766],[125.5028,-8.7099,1139.0498],[125.4991,-8.7085,1137.0703],[125.4968,-8.71,1164.7644],[125.4916,-8.7075,1084.8469],[125.4879,-8.7029,1070.1333],[125.4835,-8.7236,879.0272],[125.4816,-8.7225,894.2035],[125.4781,-8.7235,842.6809],[125.4757,-8.7212,821.8537],[125.4712,-8.7223,782.7382],[125.4686,-8.7207,797.4897],[125.4625,-8.7205,755.6375],[125.4538,-8.7244,725.7216],[125.4588,-8.7298,744.939],[125.4649,-8.7298,752.2676],[125.4757,-8.7368,786.1627],[125.4761,-8.7389,810.9583],[125.4736,-8.7425,807.3601],[125.4758,-8.7437,828.8544],[125.4892,-8.7401,1005.5338],[125.4948,-8.7338,1057.2739],[125.504,-8.7311,1140.2297],[125.5166,-8.7317,1236.1437],[125.5223,-8.728,1287.0389],[125.5232,-8.7258,1248.1667],[125.5328,-8.7216,1183.5363],[125.534,-8.7138,1182.7566],[125.5398,-8.7134,1168.9561],[125.5465,-8.7072,1201.1688],[125.5437,-8.7054,1190.3734],[125.5466,-8.6925,1159.7491],[125.5564,-8.6872,1056.2095],[125.5597,-8.6764,1187.6941],[125.5668,-8.6669,1056.358],[125.5655,-8.6632,1078.8798],[125.5668,-8.6612,1121.1761],[125.5654,-8.6596,1115.8672]]]]}
,"properties": {"GID_2": "TLS.1.2_1","GID_0": "TLS","country": "Timor-Leste","GID_1": "TLS.1_1","province": "Aileu","NL_NAME_1": "NA","county": "LauLara","VARNAME_2": "Laulara","NL_NAME_2": "NA","TYPE_2": "Subdistrito","ENGTYPE_2": "Subdistrict","CC_2": "NA","HASC_2": "NA","name": "Lau_Lara.county","area_km2": 97.55156,"hist_schema_id": "Elevation0-9000","hist_area_km2": {"100": 0.18867,"125": 0.44022,"150": 0.35637,"175": 0.69178,"200": 0.60792,"225": 0.62888,"250": 0.60792,"275": 1.0272,"300": 0.94333,"325": 0.94334,"350": 1.29971,"375": 0.94333,"400": 1.09008,"425": 1.11104,"450": 1.55127,"475": 0.9643,"500": 1.21585,"525": 1.42549,"550": 1.25777,"575": 1.36259,"600": 1.36258,"625": 1.42544,"650": 1.48834,"675": 1.88662,"700": 2.30589,"725": 3.18627,"750": 2.64116,"775": 3.01846,"800": 2.87169,"825": 3.18604,"850": 2.87165,"875": 3.10224,"900": 2.89257,"925": 2.85064,"950": 2.68296,"975": 2.66193,"1000": 2.49424,"1025": 2.61999,"1050": 2.70379,"1075": 4.90431,"1100": 6.22464,"1125": 5.28159,"1150": 4.23368,"1175": 2.70374,"1200": 2.82955,"1225": 1.76064,"1250": 1.38336,"1275": 0.62881,"1300": 0.37729,"1325": 0.20961,"1350": 0.08384,"1375": 0.02096}}}