{"type":"Feature","properties":{"GID_2":"TLS.7.2_1","GID_0":"TLS","country":"Timor-Leste","GID_1":"TLS.7_1","province":"Dili","NL_NAME_1":"NA","county":"DiliBarat","VARNAME_2":"NA","NL_NAME_2":"NA","TYPE_2":"Subdistrito","ENGTYPE_2":"Subdistrict","CC_2":"NA","HASC_2":"NA","name":"Dili_Barat.county"},
"geometry":{"type": "MultiPolygon","coordinates": [[[[125.5584,-8.6248,246.3593],[125.5637,-8.6268,314.9572],[125.566,-8.6262,338.3817],[125.5654,-8.6234,370.7755],[125.573,-8.6232,493.6015],[125.5754,-8.6216,493.0996],[125.5757,-8.6194,554.6169],[125.5796,-8.6189,538.5276],[125.5893,-8.6086,846.2014],[125.5892,-8.6014,743.3087],[125.5834,-8.6017,723.4495],[125.5745,-8.5961,490.7852],[125.5743,-8.5941,442.7633],[125.5773,-8.5909,324.5038],[125.5775,-8.5857,257.6602],[125.5728,-8.584,299.8242],[125.574,-8.5745,272.5204],[125.5807,-8.5742,77.8151],[125.5801,-8.5808,155.557],[125.585,-8.5818,269.9266],[125.5869,-8.5795,214.8379],[125.5844,-8.5765,162.5512],[125.586,-8.5759,144.1703],[125.5864,-8.5714,78.9672],[125.5844,-8.5708,40.4537],[125.5797,-8.5597,8.0937],[125.5798,-8.5564,5.2731],[125.5833,-8.5558,5.6865],[125.5828,-8.554,5.2207],[125.5856,-8.5532,5.753],[125.5836,-8.5497,2.6451],[125.5793,-8.5506,0.0],[125.5764,-8.5533,1.9985],[125.5694,-8.5483,0.0],[125.5573,-8.5476,0.0],[125.5336,-8.5367,0.0],[125.5311,-8.5408,0.0],[125.5256,-8.5414,3.769],[125.5175,-8.5458,0.0],[125.5075,-8.5567,2.9135],[125.5039,-8.5575,0.0],[125.4981,-8.5558,0.0],[125.4982,-8.5577,18.7008],[125.4934,-8.5616,77.8673],[125.5007,-8.5679,140.3631],[125.5015,-8.5713,147.9655],[125.5073,-8.5751,170.0559],[125.5073,-8.5805,198.0762],[125.5178,-8.5841,368.0081],[125.5187,-8.5859,359.3683],[125.5202,-8.5913,410.131],[125.519,-8.5966,383.301],[125.5172,-8.5978,383.301],[125.5184,-8.6034,314.6507],[125.517,-8.6114,475.4484],[125.5188,-8.6129,388.2061],[125.5329,-8.6141,121.8747],[125.5423,-8.6196,157.6449],[125.5442,-8.6224,160.5383],[125.5482,-8.6211,247.2451],[125.5502,-8.6234,198.1122],[125.5529,-8.6227,241.0846],[125.5584,-8.6248,246.3593]]]]}}