{"type": "Feature","bbox": [126.6415,-8.6447,126.6788,-8.6258],"geometry": {"type": "MultiPolygon","coordinates": [[[[126.6498,-8.6258,513.1346],[126.6415,-8.6271,942.5115],[126.6441,-8.636,662.3818],[126.6492,-8.6403,270.6666],[126.6536,-8.6357,299.0522],[126.6575,-8.6352,229.4308],[126.6664,-8.6386,188.8521],[126.6705,-8.6423,143.5753],[126.6731,-8.6415,137.1104],[126.6754,-8.6447,111.6235],[126.6788,-8.6444,131.0519],[126.6779,-8.6408,153.5399],[126.6744,-8.6378,129.5307],[126.6781,-8.6353,157.0748],[126.6743,-8.6329,151.9557],[126.6738,-8.6305,187.3287],[126.6704,-8.6306,250.7843],[126.6663,-8.6279,221.9783],[126.6635,-8.6292,290.9264],[126.6498,-8.6258,513.1346]]]]}
,"properties": {"GID_3": "TLS.4.1.4_1","GID_0": "TLS","country": "Timor-Leste","GID_1": "TLS.4_1","province": "Baucau","NL_NAME_1": "NA","GID_2": "TLS.4.1_1","county": "Baguia","NL_NAME_2": "NA","city": "AlawaCraicI","VARNAME_3": "AlauaBawah","NL_NAME_3": "NA","TYPE_3": "Suco","ENGTYPE_3": "Community","CC_3": "NA","HASC_3": "NA","name": "Alawa_Craic_I.city","area_km2": 4.213352,"hist_schema_id": "Elevation0-9000","hist_area_km2": {"100": 0.062884,"125": 0.440195,"150": 0.293465,"175": 0.23058,"200": 0.272504,"225": 0.209619,"250": 0.20962,"275": 0.272506,"300": 0.272506,"325": 0.230583,"350": 0.188658,"375": 0.104811,"400": 0.209621,"425": 0.188658,"450": 0.10481,"475": 0.020962,"500": 0.10481,"525": 0.146735,"550": 0.020962,"575": 0.062886,"600": 0.041924,"625": 0.041924,"650": 0.041924,"675": 0.125773,"700": 0.020962,"725": 0.041924,"750": 0.041924,"775": 0.041925,"800": 0.083849,"825": 0.062886,"975": 0.020962}}}