{"type": "Feature","bbox": [126.6217,-8.4935,126.6823,-8.4294],"geometry": {"type": "MultiPolygon","coordinates": [[[[126.6579,-8.4839,477.7735],[126.6659,-8.4702,303.303],[126.6707,-8.4664,180.6992],[126.6724,-8.4548,117.7611],[126.6751,-8.4474,114.3383],[126.6783,-8.4459,39.8973],[126.6823,-8.4316,11.6286],[126.6814,-8.4294,0.0],[126.6581,-8.4375,0.0],[126.6378,-8.451,0.4615],[126.6303,-8.4517,0.0],[126.6217,-8.4547,1.6284],[126.625,-8.4578,11.0705],[126.6267,-8.4728,142.9603],[126.6309,-8.4761,174.8129],[126.6345,-8.4822,252.272],[126.6442,-8.488,309.1017],[126.6465,-8.4924,300.8735],[126.6485,-8.4935,311.5341],[126.6504,-8.4925,337.6333],[126.6556,-8.4844,471.4289],[126.6579,-8.4839,477.7735]]]]}
,"properties": {"GID_3": "TLS.4.3.4_1","GID_0": "TLS","country": "Timor-Leste","GID_1": "TLS.4_1","province": "Baucau","NL_NAME_1": "NA","GID_2": "TLS.4.3_1","county": "Laga","NL_NAME_2": "NA","city": "Nunira","VARNAME_3": "NA","NL_NAME_3": "NA","TYPE_3": "Suco","ENGTYPE_3": "Community","CC_3": "NA","HASC_3": "NA","name": "Nunira.city","area_km2": 22.98473,"hist_schema_id": "Elevation0-9000","hist_area_km2": {"0": 2.93613,"25": 2.16013,"50": 1.50999,"75": 1.7197,"100": 1.63581,"125": 1.57287,"150": 1.40508,"175": 1.44702,"200": 1.46798,"225": 1.04855,"250": 0.67107,"275": 0.71301,"300": 0.62912,"325": 0.54523,"350": 0.69203,"375": 0.54523,"400": 0.52426,"425": 0.67106,"450": 0.75493,"475": 0.33552}}}