{"type": "Feature","bbox": [125.5891,-8.5536,125.6055,-8.5467],"geometry": {"type": "MultiPolygon","coordinates": [[[[125.5906,-8.5526,6.9126],[125.593,-8.5536,9.863],[125.5931,-8.5522,9.1439],[125.5977,-8.5511,70.4991],[125.6055,-8.5522,215.6569],[125.5992,-8.5467,2.5417],[125.5891,-8.5475,0.4282],[125.5906,-8.5526,6.9126]]]]}
,"properties": {"GID_3": "TLS.7.3.8_1","GID_0": "TLS","country": "Timor-Leste","GID_1": "TLS.7_1","province": "Dili","NL_NAME_1": "NA","GID_2": "TLS.7.3_1","county": "DiliTimur","NL_NAME_2": "NA","city": "BidauLecidere","VARNAME_3": "Monumento","NL_NAME_3": "NA","TYPE_3": "Suco","ENGTYPE_3": "Community","CC_3": "NA","HASC_3": "NA","name": "Bidau_Lecidere.city","area_km2": 0.7547974,"hist_schema_id": "Elevation0-9000","hist_area_km2": {"0": 0.4193322,"25": 0.1467663,"50": 0.0209666,"75": 0.0628997,"125": 0.0419331,"150": 0.0209665,"175": 0.0209665,"225": 0.0209665}}}