{"type": "Feature","bbox": [125.5066,-9.0758,125.5623,-8.9786],"geometry": {"type": "MultiPolygon","coordinates": [[[[125.5293,-9.0617,286.1803],[125.5337,-9.0651,263.175],[125.5372,-9.0758,239.128],[125.5391,-9.0744,244.0389],[125.5374,-9.0701,250.743],[125.5382,-9.067,274.8746],[125.5347,-9.0638,266.7104],[125.5363,-9.0584,297.9227],[125.5349,-9.0576,303.6456],[125.5339,-9.0512,370.6182],[125.5311,-9.0477,365.281],[125.531,-9.0381,422.1431],[125.534,-9.0353,517.9855],[125.5374,-9.0261,663.9517],[125.5508,-9.0256,381.2061],[125.5552,-9.0239,316.8362],[125.5571,-9.0174,325.4489],[125.5623,-9.0154,331.6014],[125.5599,-9.0143,425.189],[125.5584,-9.0103,385.2175],[125.5594,-9.0065,409.7036],[125.5569,-9.0077,410.6217],[125.5514,-8.9997,499.9713],[125.5535,-8.995,541.3245],[125.5519,-8.9901,563.7881],[125.5492,-8.9883,613.3304],[125.55,-8.9855,611.1531],[125.5325,-8.9786,666.0089],[125.5244,-8.9924,983.7542],[125.5214,-8.9944,939.4618],[125.5119,-8.994,790.3959],[125.5102,-8.9975,779.099],[125.5105,-9.0014,711.7311],[125.5066,-9.0076,698.5212],[125.5125,-9.0372,399.8563],[125.5167,-9.043,415.2237],[125.5206,-9.043,355.4327],[125.5293,-9.0617,286.1803]]]]}
,"properties": {"GID_3": "TLS.2.1.6_1","GID_0": "TLS","country": "Timor-Leste","GID_1": "TLS.2_1","province": "Ainaro","NL_NAME_1": "NA","GID_2": "TLS.2.1_1","county": "Ainaro","NL_NAME_2": "NA","city": "Soro","VARNAME_3": "NA","NL_NAME_3": "NA","TYPE_3": "Suco","ENGTYPE_3": "Community","CC_3": "NA","HASC_3": "NA","name": "Soro.city","area_km2": 28.60445,"hist_schema_id": "Elevation0-9000","hist_area_km2": {"250": 0.29312,"275": 0.35594,"300": 0.29314,"325": 0.41877,"350": 0.71191,"375": 0.62816,"400": 0.77474,"425": 0.54442,"450": 0.691,"475": 0.85853,"500": 0.94229,"525": 0.67007,"550": 1.02605,"575": 0.8376,"600": 0.85854,"625": 1.17265,"650": 1.00514,"675": 1.10986,"700": 1.13079,"725": 1.1308,"750": 1.00516,"775": 0.9214,"800": 1.21458,"825": 0.8167,"850": 0.92141,"875": 1.19364,"900": 0.69105,"925": 0.96329,"950": 0.71199,"975": 0.8167,"1000": 0.69106,"1025": 1.04705,"1050": 0.52352,"1075": 0.43976,"1100": 0.52352,"1125": 0.33505,"1150": 0.04188,"1175": 0.08376,"1200": 0.1047,"1225": 0.04188,"1250": 0.04188,"1275": 0.02094}}}