{"type":"Feature","properties":{"GID_3":"TLS.5.4.6_1","GID_0":"TLS","country":"Timor-Leste","GID_1":"TLS.5_1","province":"Bobonaro","NL_NAME_1":"NA","GID_2":"TLS.5.4_1","county":"Cailaco","NL_NAME_2":"NA","city":"Meligo","VARNAME_3":"NA","NL_NAME_3":"NA","TYPE_3":"Suco","ENGTYPE_3":"Community","CC_3":"NA","HASC_3":"NA","name":"Meligo.city"},
"geometry":{"type": "MultiPolygon","coordinates": [[[[125.1856,-8.8793,63.6917],[125.1951,-8.8794,69.2605],[125.2034,-8.8851,77.5205],[125.2073,-8.891,82.4774],[125.2099,-8.8957,87.0369],[125.2094,-8.9059,100.7464],[125.2124,-8.9109,109.679],[125.22,-8.9178,113.0241],[125.2183,-8.9218,130.4254],[125.2203,-8.9281,127.5183],[125.2203,-8.9366,146.2897],[125.2548,-8.9436,863.9127],[125.2595,-8.9425,973.0452],[125.2657,-8.9326,1051.1273],[125.2688,-8.932,938.2339],[125.2718,-8.9229,794.7806],[125.2697,-8.9152,755.0981],[125.2632,-8.9106,657.2557],[125.2546,-8.8958,327.6721],[125.254,-8.8922,295.972],[125.2568,-8.8893,282.0267],[125.256,-8.8831,238.888],[125.2573,-8.882,224.69],[125.2548,-8.8828,226.6687],[125.2527,-8.8813,221.1815],[125.2557,-8.8787,276.6016],[125.255,-8.8737,214.7493],[125.2505,-8.8719,181.4926],[125.2424,-8.8747,162.6376],[125.2371,-8.8739,142.5793],[125.2332,-8.8769,127.0078],[125.2264,-8.8752,111.2462],[125.2233,-8.8766,112.5461],[125.2209,-8.8747,103.5941],[125.2136,-8.8733,90.9144],[125.2105,-8.8747,78.8496],[125.2042,-8.869,73.3095],[125.2009,-8.8699,70.8649],[125.1975,-8.8677,63.9944],[125.1972,-8.8643,59.9231],[125.1936,-8.8643,59.106],[125.1864,-8.8749,62.7421],[125.1856,-8.8793,63.6917]]]]}}