{"type":"Feature","properties":{"GID_3":"TLS.6.4.2_1","GID_0":"TLS","country":"Timor-Leste","GID_1":"TLS.6_1","province":"Covalima","NL_NAME_1":"NA","GID_2":"TLS.6.4_1","county":"Mape","NL_NAME_2":"NA","city":"Fatuleto","VARNAME_3":"Fatoleto","NL_NAME_3":"NA","TYPE_3":"Suco","ENGTYPE_3":"Community","CC_3":"NA","HASC_3":"NA","name":"Fatuleto.city"},
"geometry":{"type": "MultiPolygon","coordinates": [[[[125.4166,-9.1389,356.4889],[125.4237,-9.1288,333.6443],[125.4296,-9.1166,368.1336],[125.4313,-9.1102,241.1775],[125.4284,-9.1033,271.709],[125.4236,-9.1051,303.7925],[125.4142,-9.1041,302.6768],[125.4072,-9.1291,342.2405],[125.4138,-9.1337,276.5608],[125.4166,-9.1389,356.4889]]]]}}