{"type":"Feature","properties":{"GID_3":"TLS.5.3.6_1","GID_0":"TLS","country":"Timor-Leste","GID_1":"TLS.5_1","province":"Bobonaro","NL_NAME_1":"NA","GID_2":"TLS.5.3_1","county":"Bobonaro","NL_NAME_2":"NA","city":"Cotabot","VARNAME_3":"KotaBo'ot","NL_NAME_3":"NA","TYPE_3":"Suco","ENGTYPE_3":"Community","CC_3":"NA","HASC_3":"NA","name":"Cotabot.city"},
"geometry":{"type": "MultiPolygon","coordinates": [[[[125.4255,-9.001,2132.8896],[125.4149,-9.0032,2081.3711],[125.4124,-9.0089,1973.4189],[125.4103,-9.01,1955.9037],[125.4045,-9.0055,1629.2167],[125.3964,-9.0089,1268.9543],[125.3823,-9.009,903.1934],[125.3778,-9.0127,838.1748],[125.3768,-9.0155,792.6603],[125.4048,-9.0238,1633.6962],[125.407,-9.0198,1524.9171],[125.4089,-9.0196,1456.041],[125.4116,-9.023,1363.21],[125.4127,-9.0309,1110.1052],[125.4212,-9.0401,815.6636],[125.4343,-9.0237,1182.4115],[125.4325,-9.0115,1562.8575],[125.4259,-9.0034,1941.5173],[125.4255,-9.001,2132.8896]]]]}}