{"type":"Feature","properties":{"GID_3":"TLS.4.5.3_1","GID_0":"TLS","country":"Timor-Leste","GID_1":"TLS.4_1","province":"Baucau","NL_NAME_1":"NA","GID_2":"TLS.4.5_1","county":"Vemasse","NL_NAME_2":"NA","city":"Ossoala","VARNAME_3":"OssoAla","NL_NAME_3":"NA","TYPE_3":"Suco","ENGTYPE_3":"Community","CC_3":"NA","HASC_3":"NA","name":"Ossoala.city"},
"geometry":{"type": "MultiPolygon","coordinates": [[[[126.2647,-8.6208,256.2665],[126.2628,-8.6251,261.6151],[126.2549,-8.625,223.5664],[126.2525,-8.6284,228.0785],[126.2538,-8.6314,217.2357],[126.2505,-8.6344,212.5223],[126.2536,-8.6414,190.8593],[126.2512,-8.643,202.043],[126.2513,-8.647,187.9754],[126.248,-8.6474,188.164],[126.2465,-8.654,235.9429],[126.2494,-8.659,291.3369],[126.2462,-8.6657,366.0189],[126.2482,-8.6708,316.0783],[126.2436,-8.6762,299.4568],[126.2425,-8.6803,279.0995],[126.2438,-8.6818,304.9694],[126.2414,-8.6849,264.1487],[126.2389,-8.6852,262.3231],[126.2458,-8.6857,274.7675],[126.2452,-8.6878,266.8954],[126.247,-8.6881,283.9047],[126.2517,-8.6846,286.4302],[126.2565,-8.6894,320.3845],[126.2534,-8.6935,340.9306],[126.2604,-8.6916,310.105],[126.2626,-8.6936,335.2234],[126.2688,-8.686,322.2026],[126.2727,-8.6864,345.722],[126.2738,-8.6787,340.1076],[126.2783,-8.6771,347.4863],[126.2786,-8.6735,368.7733],[126.2821,-8.6709,375.2272],[126.2807,-8.6696,375.2272],[126.2877,-8.668,411.2735],[126.2953,-8.67,481.2682],[126.3065,-8.6643,590.5729],[126.3185,-8.6542,840.8912],[126.3195,-8.6505,977.8622],[126.3251,-8.6494,825.0009],[126.3338,-8.6382,435.2959],[126.3334,-8.6367,424.1917],[126.328,-8.6323,383.6077],[126.327,-8.628,348.3281],[126.3255,-8.6291,345.5291],[126.3202,-8.6257,348.2194],[126.3143,-8.6269,331.7356],[126.3138,-8.6257,331.5633],[126.3169,-8.6213,334.7925],[126.3117,-8.615,311.1585],[126.3141,-8.6118,399.544],[126.3202,-8.6096,462.4658],[126.324,-8.6039,444.2617],[126.3321,-8.6026,532.7172],[126.3376,-8.5953,567.229],[126.3417,-8.5933,627.9584],[126.344,-8.5896,687.1034],[126.3435,-8.5865,736.8249],[126.332,-8.5761,680.218],[126.328,-8.5791,652.6276],[126.3258,-8.5785,605.3566],[126.3204,-8.5837,570.4819],[126.3148,-8.5848,504.761],[126.3047,-8.593,441.0359],[126.2962,-8.5958,346.9223],[126.2938,-8.6026,300.6786],[126.2871,-8.6072,269.1001],[126.2848,-8.6161,268.9161],[126.2814,-8.6147,256.2703],[126.28,-8.6183,269.137],[126.276,-8.6193,280.2372],[126.2738,-8.6217,265.9339],[126.2683,-8.6209,281.2137],[126.267,-8.6222,244.6593],[126.2647,-8.6208,256.2665]]]]}}