{"type": "Feature","bbox": [124.9771,-9.4606,125.54,-9.0071],"geometry": {"type": "MultiPolygon","coordinates": [[[[125.0876,-9.4568,9.0732],[125.0894,-9.4606,0.0],[125.1106,-9.4375,5.6492],[125.1247,-9.4275,1.7261],[125.1406,-9.4194,1.4274],[125.16,-9.4139,2.415],[125.1881,-9.4097,0.0],[125.1953,-9.4092,4.0381],[125.2078,-9.4119,0.0],[125.21,-9.4108,2.4489],[125.2319,-9.3878,5.5829],[125.2515,-9.3706,2.5878],[125.2558,-9.3614,2.2111],[125.2625,-9.3536,0.0],[125.2706,-9.351,2.2306],[125.2769,-9.3539,0.0],[125.2856,-9.3456,0.0],[125.292,-9.3327,3.2199],[125.3074,-9.3176,0.0],[125.3308,-9.3027,5.8744],[125.3378,-9.3008,1.343],[125.3661,-9.2772,6.2654],[125.3778,-9.27,0.0],[125.3933,-9.2636,1.9998],[125.4111,-9.2617,0.0],[125.4156,-9.2581,0.0],[125.4172,-9.2586,0.2252],[125.4167,-9.2606,0.0],[125.4272,-9.2614,1.2555],[125.4303,-9.2586,1.8328],[125.4344,-9.2597,0.7171],[125.4497,-9.2553,0.0],[125.4549,-9.2509,7.1241],[125.4564,-9.2519,0.0],[125.4694,-9.245,0.0],[125.4877,-9.2325,3.768],[125.5028,-9.2264,0.0],[125.5027,-9.2246,3.6111],[125.5079,-9.2213,9.8587],[125.5049,-9.2197,12.347],[125.506,-9.2162,7.1892],[125.5141,-9.207,11.7477],[125.5164,-9.2003,14.5819],[125.5218,-9.1951,20.8607],[125.5277,-9.1942,25.7298],[125.5321,-9.186,34.3643],[125.54,-9.163,64.5238],[125.5298,-9.1593,148.5718],[125.5251,-9.1519,282.2457],[125.525,-9.1468,257.8378],[125.5209,-9.1421,285.2321],[125.4966,-9.1437,114.5369],[125.4946,-9.1428,110.3303],[125.4941,-9.1385,129.6277],[125.488,-9.1359,174.5208],[125.4857,-9.1321,191.9633],[125.4812,-9.132,319.5366],[125.4739,-9.1274,154.2733],[125.4736,-9.1242,160.4326],[125.4775,-9.1172,174.0669],[125.4811,-9.1055,198.7406],[125.4797,-9.0965,226.2541],[125.4744,-9.0873,239.0104],[125.4765,-9.0822,253.6238],[125.4757,-9.0774,268.9968],[125.468,-9.072,281.6527],[125.4668,-9.0682,291.287],[125.4637,-9.0655,306.4365],[125.4442,-9.0618,399.6809],[125.4451,-9.0554,443.5606],[125.4488,-9.0506,450.0687],[125.4471,-9.0483,537.5688],[125.4489,-9.042,543.6838],[125.4454,-9.0385,631.5219],[125.4501,-9.029,783.5391],[125.45,-9.0262,847.1017],[125.4477,-9.0218,855.7516],[125.4434,-9.0184,938.5143],[125.4433,-9.0143,1073.2301],[125.4411,-9.0108,1205.6194],[125.4344,-9.0074,1562.2524],[125.4296,-9.0071,1745.7853],[125.4325,-9.0115,1562.8575],[125.4343,-9.0237,1182.4115],[125.4212,-9.0401,815.6636],[125.4139,-9.0326,1058.9637],[125.4116,-9.023,1363.21],[125.4089,-9.0196,1456.041],[125.4072,-9.0196,1524.9171],[125.4005,-9.0312,1455.7554],[125.3958,-9.0333,1419.3364],[125.3951,-9.0403,1172.2413],[125.3872,-9.0483,903.1385],[125.3788,-9.0505,704.4074],[125.3712,-9.062,461.9891],[125.3684,-9.0634,412.1074],[125.3677,-9.066,398.2926],[125.3708,-9.0728,338.5311],[125.3728,-9.074,329.0291],[125.3725,-9.0782,310.2449],[125.3703,-9.0821,305.2852],[125.368,-9.082,290.3834],[125.3658,-9.088,268.6561],[125.368,-9.0905,259.2625],[125.3693,-9.0966,237.0426],[125.3724,-9.0979,235.294],[125.374,-9.1029,224.9427],[125.3714,-9.1087,213.7586],[125.3715,-9.1126,225.7286],[125.3657,-9.1192,198.3763],[125.364,-9.1264,198.9309],[125.3609,-9.1301,180.282],[125.3572,-9.1279,193.4508],[125.3543,-9.1284,214.614],[125.3457,-9.1253,230.7355],[125.3413,-9.1255,241.5098],[125.3385,-9.1284,283.9519],[125.3314,-9.1283,317.0641],[125.329,-9.13,359.59],[125.3262,-9.137,527.6892],[125.3174,-9.1438,826.8546],[125.3169,-9.156,527.384],[125.3211,-9.1571,524.7508],[125.3292,-9.1632,470.1073],[125.3406,-9.1655,265.9309],[125.3527,-9.1725,201.1658],[125.3452,-9.1812,443.7347],[125.3459,-9.1875,301.1827],[125.3357,-9.1978,355.1557],[125.327,-9.1948,213.0567],[125.3238,-9.1956,192.1747],[125.3215,-9.1983,161.2226],[125.3197,-9.1951,164.5583],[125.3113,-9.1992,250.9337],[125.3034,-9.2053,415.8124],[125.2969,-9.2022,619.4009],[125.2859,-9.2008,543.4258],[125.2806,-9.2049,418.5775],[125.2785,-9.2107,288.6146],[125.2672,-9.2039,597.736],[125.2588,-9.2077,391.1043],[125.2546,-9.2122,298.2256],[125.2511,-9.2135,253.1559],[125.246,-9.2075,264.4244],[125.242,-9.2088,314.3369],[125.241,-9.2117,355.2131],[125.2382,-9.2083,330.9554],[125.2347,-9.2088,310.1113],[125.227,-9.2054,392.7602],[125.2257,-9.2035,342.3332],[125.2278,-9.1913,379.4257],[125.2317,-9.1873,411.5935],[125.2296,-9.1796,438.1801],[125.2243,-9.1754,484.5231],[125.2122,-9.1708,554.5018],[125.1961,-9.1688,757.8975],[125.1841,-9.1628,996.767],[125.1794,-9.1664,806.0922],[125.1747,-9.175,600.3988],[125.1714,-9.1724,605.9875],[125.1554,-9.173,663.126],[125.1482,-9.1708,678.8751],[125.1421,-9.1735,685.9119],[125.1343,-9.1744,750.5907],[125.1319,-9.1791,745.393],[125.125,-9.1823,780.9828],[125.1226,-9.1853,808.3021],[125.1164,-9.1865,825.9584],[125.1079,-9.1924,936.7124],[125.1062,-9.1958,944.5327],[125.1023,-9.1958,978.8666],[125.1025,-9.1972,993.9274],[125.097,-9.2018,1169.5812],[125.0911,-9.1954,967.297],[125.0863,-9.193,949.7921],[125.0834,-9.1895,868.3604],[125.08,-9.1886,809.6379],[125.0748,-9.1755,721.5306],[125.068,-9.1758,670.6594],[125.0653,-9.1733,655.575],[125.0564,-9.1715,627.7159],[125.0561,-9.1697,612.0396],[125.0523,-9.1689,616.3892],[125.0419,-9.1743,558.9763],[125.0395,-9.1732,552.8452],[125.0361,-9.1744,544.843],[125.0331,-9.1702,514.2762],[125.0286,-9.1696,503.1385],[125.0251,-9.1713,503.2231],[125.0144,-9.1691,455.1241],[125.0117,-9.1739,601.787],[125.009,-9.1748,588.9266],[125.0055,-9.1746,498.8624],[125.003,-9.1724,509.2766],[124.9997,-9.1742,458.0901],[124.9943,-9.1724,428.4768],[124.993,-9.1766,442.8791],[124.994,-9.1783,450.0969],[124.9928,-9.1767,442.8791],[124.9904,-9.1787,552.194],[124.9883,-9.1895,566.2609],[124.9845,-9.192,610.4874],[124.9827,-9.1914,642.042],[124.9814,-9.2111,819.8848],[124.9838,-9.2308,782.2041],[124.9821,-9.2354,690.2173],[124.983,-9.2409,714.8954],[124.9814,-9.242,729.7657],[124.9839,-9.2429,717.4028],[124.9853,-9.2463,720.1465],[124.9848,-9.2515,736.8937],[124.9883,-9.2552,756.3909],[124.9874,-9.2608,790.587],[124.9894,-9.268,856.1661],[124.9979,-9.2783,750.3351],[124.9983,-9.2808,736.8583],[124.9953,-9.2855,670.8251],[124.9945,-9.2902,662.8844],[124.9969,-9.2941,586.9106],[125.0067,-9.2948,533.6973],[125.0107,-9.3005,475.6398],[125.0264,-9.314,662.115],[125.0295,-9.3201,604.2366],[125.0341,-9.3201,499.6138],[125.0356,-9.3235,459.543],[125.0425,-9.3213,416.9165],[125.0478,-9.3239,384.7568],[125.0513,-9.3288,355.204],[125.0523,-9.3312,370.5907],[125.0502,-9.3344,324.7159],[125.0512,-9.3448,253.2246],[125.0488,-9.3535,208.0504],[125.0495,-9.3551,211.3546],[125.0515,-9.3551,201.4776],[125.05,-9.358,179.9332],[125.0507,-9.3602,171.0952],[125.0534,-9.3641,159.5248],[125.0587,-9.3669,150.9976],[125.0589,-9.3709,141.5478],[125.0668,-9.3736,134.9981],[125.0678,-9.3793,124.8072],[125.071,-9.3828,117.004],[125.0751,-9.3838,116.3285],[125.08,-9.3921,85.0343],[125.077,-9.3983,72.2349],[125.0772,-9.4049,68.268],[125.0811,-9.4132,81.2776],[125.0779,-9.4183,56.7519],[125.0787,-9.4206,52.6624],[125.081,-9.4213,58.9215],[125.0782,-9.4264,44.6555],[125.0806,-9.4272,42.7111],[125.0793,-9.4301,35.8555],[125.0815,-9.4316,61.472],[125.0787,-9.4347,31.7281],[125.0809,-9.4387,33.3121],[125.0787,-9.4426,24.1012],[125.0812,-9.4439,47.7882],[125.0837,-9.4497,18.6871],[125.087,-9.4507,18.5861],[125.0847,-9.4546,11.3015],[125.0876,-9.4568,9.0732]],
[[124.9944,-9.1799,460.1675],[124.9942,-9.1788,450.0969],[124.9948,-9.18,451.183],[124.9949,-9.1812,451.183],[124.9936,-9.1831,459.5175],[124.9942,-9.1814,456.0176],[124.9944,-9.1799,460.1675]],
[[124.9925,-9.1839,459.5175],[124.993,-9.1836,459.5175],[124.9926,-9.1862,473.1664],[124.9919,-9.1849,472.549],[124.9925,-9.1839,459.5175]]],
[[[124.9784,-9.2331,682.6836],[124.9795,-9.2336,682.6836],[124.979,-9.2329,674.9667],[124.978,-9.2326,683.1326],[124.9784,-9.2331,682.6836]]],
[[[124.9778,-9.2316,683.1326],[124.9779,-9.232,683.1326],[124.9781,-9.2313,674.9667],[124.9772,-9.2303,664.1104],[124.9771,-9.2307,664.1104],[124.9778,-9.2316,683.1326]]]]}
,"properties": {"GID_1": "TLS.6_1","GID_0": "TLS","country": "Timor-Leste","province": "Covalima","VARNAME_1": "CovaLima","NL_NAME_1": "NA","TYPE_1": "Distrito","ENGTYPE_1": "District","CC_1": "NA","HASC_1": "TP.CL","ISO_1": "NA","name": "Covalima.province","area_km2": 1204.6531,"hist_schema_id": "Elevation0-9000","hist_area_km2": {"0": 99.2589,"25": 135.4845,"50": 56.3936,"75": 37.4987,"100": 35.4069,"125": 37.395,"150": 39.739,"175": 41.3289,"200": 41.6223,"225": 40.5344,"250": 36.7477,"275": 36.2453,"300": 33.2325,"325": 30.3871,"350": 29.362,"375": 26.4532,"400": 26.8094,"425": 24.3399,"450": 23.6078,"475": 22.5822,"500": 20.908,"525": 20.6356,"550": 18.6892,"575": 19.0241,"600": 17.6424,"625": 16.8473,"650": 15.2359,"675": 14.6084,"700": 14.064,"725": 13.9387,"750": 13.2061,"775": 13.1015,"800": 12.8085,"825": 13.7712,"850": 12.5572,"875": 10.6528,"900": 9.9413,"925": 10.0665,"950": 8.9784,"975": 7.1368,"1000": 6.9694,"1025": 5.3997,"1050": 5.4418,"1075": 4.5627,"1100": 4.3743,"1125": 4.0396,"1150": 3.0349,"1175": 3.2443,"1200": 2.7627,"1225": 2.2604,"1250": 2.4906,"1275": 1.9883,"1300": 1.8836,"1325": 1.8418,"1350": 1.3185,"1375": 1.5697,"1400": 1.3395,"1425": 1.507,"1450": 1.486,"1475": 1.2976,"1500": 1.4023,"1525": 1.5697,"1550": 1.172,"1575": 1.172,"1600": 0.8162,"1625": 0.6279,"1650": 0.3977,"1675": 0.2512,"1700": 0.1256,"1725": 0.0628}}}