{"type": "Feature","id": "548","bbox": [124.95411,-9.48577,125.51113,-9.03382],"geometry": {"type": "Polygon","coordinates": [[[125.48801,-9.2408,0.0],[125.49521,-9.21344,5.6676],[125.51113,-9.16445,237.7878],[125.49521,-9.15515,93.4352],[125.4731,-9.14957,280.2839],[125.45987,-9.13407,166.7392],[125.45656,-9.095,494.2444],[125.44602,-9.06999,364.898],[125.43175,-9.06358,472.2932],[125.42493,-9.0487,677.3065],[125.41191,-9.03382,1139.2031],[125.41062,-9.03413,1139.2031],[125.38442,-9.04022,868.7629],[125.36065,-9.06027,492.817],[125.35589,-9.08611,399.7639],[125.35238,-9.12311,222.6835],[125.34204,-9.14275,462.6352],[125.30939,-9.1413,858.7721],[125.29202,-9.14544,1231.7466],[125.31931,-9.17934,415.5295],[125.31125,-9.20952,388.7998],[125.25481,-9.21737,222.9754],[125.21802,-9.21406,596.2555],[125.21347,-9.20083,621.5027],[125.20645,-9.1905,831.8083],[125.19198,-9.18264,606.5098],[125.15808,-9.17231,649.9747],[125.15265,-9.17082,668.1813],[125.15389,-9.17577,708.8103],[125.15063,-9.18538,1020.7142],[125.14252,-9.1891,1027.861],[125.11792,-9.18755,825.9584],[125.10697,-9.18848,1013.7669],[125.09146,-9.19675,1014.7971],[125.08258,-9.20554,995.9935],[125.07395,-9.21132,1052.2141],[125.05968,-9.2105,803.2761],[125.05338,-9.20667,799.1625],[125.04144,-9.19324,1006.0872],[125.03452,-9.18817,976.5792],[125.0277,-9.18631,944.5154],[125.00723,-9.1861,649.658],[124.97447,-9.19189,657.9708],[124.95793,-9.21194,726.5363],[124.95411,-9.2415,597.3969],[124.96016,-9.27602,792.5416],[124.96599,-9.29339,516.5568],[124.97282,-9.30465,479.9848],[124.99669,-9.32584,380.8407],[125.01788,-9.33896,520.9597],[125.02341,-9.34558,637.1044],[125.0248,-9.35199,534.3765],[125.02279,-9.3677,482.2733],[125.02377,-9.37472,329.0961],[125.0463,-9.40986,342.769],[125.05093,-9.4247,278.0166],[125.06163,-9.48577,0.0],[125.09645,-9.4612,0.0],[125.11362,-9.44443,0.0],[125.13054,-9.43377,0.0],[125.14991,-9.42816,0.0],[125.19663,-9.42474,0.0],[125.21111,-9.41961,0.0],[125.22202,-9.41107,0.0],[125.23292,-9.39918,0.0],[125.25148,-9.37151,1.5944],[125.26368,-9.35735,0.0],[125.29127,-9.34547,0.0],[125.34278,-9.30291,0.0],[125.37875,-9.28102,0.0],[125.48797,-9.24082,0.0],[125.48801,-9.2408,0.0]]]}
,"properties": {"ISO3166-1-Alpha-3": "TLS","country": "East Timor","fill": "#00F","name": "Cova Lima","area_km2": 1270.004,"hist_schema_id": "Elevation0-9000","hist_area_km2": {"0": 141.2421,"25": 136.9659,"50": 55.8688,"75": 37.288,"100": 35.0707,"125": 36.9122,"150": 39.2765,"175": 42.2056,"200": 43.5662,"225": 41.1394,"250": 38.4412,"275": 37.9182,"300": 33.5866,"325": 31.0342,"350": 31.0765,"375": 27.9375,"400": 27.9587,"425": 25.6778,"450": 25.0504,"475": 23.7528,"500": 22.2254,"525": 22.0995,"550": 20.0067,"575": 19.7348,"600": 18.3324,"625": 18.2905,"650": 17.349,"675": 17.0772,"700": 16.6166,"725": 16.4912,"750": 16.1981,"775": 14.6914,"800": 13.8542,"825": 13.331,"850": 12.0335,"875": 9.7942,"900": 9.1456,"925": 8.8942,"950": 7.6806,"975": 6.132,"1000": 6.1948,"1025": 4.6671,"1050": 4.6672,"1075": 3.8929,"1100": 4.0393,"1125": 3.3487,"1150": 2.6581,"1175": 2.5953,"1200": 2.4696,"1225": 1.7999,"1250": 2.1138,"1275": 1.5696,"1300": 1.6952,"1325": 1.6533,"1350": 1.2138,"1375": 1.4231,"1400": 1.2138,"1425": 1.2557,"1450": 1.3603,"1475": 1.172,"1500": 1.2557,"1525": 1.4441,"1550": 1.1092,"1575": 1.0883,"1600": 0.8162,"1625": 0.5651,"1650": 0.3767,"1675": 0.2093,"1700": 0.1256,"1725": 0.0628}}}