{"type": "Feature","bbox": [125.3798,-9.01,125.43,-8.9782],"geometry": {"type": "MultiPolygon","coordinates": [[[[125.43,-8.9852,2386.887],[125.4138,-8.9782,1938.7855],[125.4001,-8.9827,1392.9688],[125.3971,-8.9818,1323.5353],[125.3798,-8.986,818.0969],[125.3807,-8.9888,886.0981],[125.3868,-8.9925,1063.3448],[125.3865,-8.9948,1036.921],[125.3837,-8.9957,981.4149],[125.384,-8.9977,961.7262],[125.3824,-8.999,921.3619],[125.3907,-9.0011,1051.8539],[125.3893,-9.0044,1045.5173],[125.3899,-9.0094,1036.8483],[125.3972,-9.0087,1268.9543],[125.4045,-9.0055,1629.2167],[125.4103,-9.01,1955.9037],[125.4124,-9.0089,1973.4189],[125.4149,-9.0032,2081.3711],[125.4255,-9.001,2132.8896],[125.4244,-8.9944,2256.8362],[125.43,-8.9852,2386.887]]]]}
,"properties": {"GID_3": "TLS.5.3.5_1","GID_0": "TLS","country": "Timor-Leste","GID_1": "TLS.5_1","province": "Bobonaro","NL_NAME_1": "NA","GID_2": "TLS.5.3_1","county": "Bobonaro","NL_NAME_2": "NA","city": "Colimau","VARNAME_3": "NA","NL_NAME_3": "NA","TYPE_3": "Suco","ENGTYPE_3": "Community","CC_3": "NA","HASC_3": "NA","name": "Colimau.city","area_km2": 12.313633,"hist_schema_id": "Elevation0-9000","hist_area_km2": {"825": 0.020942,"850": 0.041884,"875": 0.020942,"900": 0.041884,"925": 0.104709,"950": 0.083766,"975": 0.167532,"1000": 0.14659,"1025": 0.209417,"1050": 0.188472,"1075": 0.293181,"1100": 0.230354,"1125": 0.167529,"1150": 0.083765,"1175": 0.272241,"1200": 0.146591,"1225": 0.209414,"1250": 0.293179,"1275": 0.12565,"1300": 0.272237,"1325": 0.209417,"1350": 0.209415,"1375": 0.188475,"1400": 0.251298,"1425": 0.125649,"1450": 0.251296,"1475": 0.230356,"1500": 0.335067,"1525": 0.146592,"1550": 0.251298,"1575": 0.104707,"1600": 0.314124,"1625": 0.125649,"1650": 0.188475,"1675": 0.188475,"1700": 0.188476,"1725": 0.167536,"1750": 0.293181,"1775": 0.251302,"1800": 0.230355,"1825": 0.14659,"1850": 0.230357,"1875": 0.314124,"1900": 0.2513,"1925": 0.356005,"1950": 0.251297,"1975": 0.2513,"2000": 0.167534,"2025": 0.251301,"2050": 0.272239,"2075": 0.46071,"2100": 0.418827,"2125": 0.314124,"2150": 0.14659,"2175": 0.104709,"2200": 0.272241,"2225": 0.104708,"2250": 0.125651,"2275": 0.083767,"2300": 0.10471,"2325": 0.020942,"2350": 0.062826,"2375": 0.125651,"2400": 0.10471}}}