{"type":"Feature","properties":{"GID_3":"TLS.6.5.7_1","GID_0":"TLS","country":"Timor-Leste","GID_1":"TLS.6_1","province":"Covalima","NL_NAME_1":"NA","GID_2":"TLS.6.5_1","county":"SuaiKota","NL_NAME_2":"NA","city":"Ila","VARNAME_3":"Matai","NL_NAME_3":"NA","TYPE_3":"Suco","ENGTYPE_3":"Community","CC_3":"NA","HASC_3":"NA","name":"Ila.city"},
"geometry":{"type": "MultiPolygon","coordinates": [[[[125.2697,-9.2895,139.1194],[125.2829,-9.3061,18.2105],[125.2839,-9.3054,18.2105],[125.2856,-9.3031,21.9365],[125.284,-9.2955,36.5021],[125.2862,-9.291,38.1696],[125.2818,-9.2875,42.5926],[125.2818,-9.2851,43.3055],[125.2794,-9.2841,60.5616],[125.2786,-9.2816,53.3124],[125.2805,-9.2804,53.9747],[125.2781,-9.279,64.326],[125.2794,-9.2774,60.272],[125.2769,-9.2774,62.5954],[125.278,-9.2754,67.6315],[125.275,-9.2751,74.2787],[125.2715,-9.2714,82.2265],[125.2703,-9.2717,82.2265],[125.2697,-9.2895,139.1194]]]]}}