{"type": "Feature","bbox": [125.4559,-8.6622,125.5121,-8.638],"geometry": {"type": "MultiPolygon","coordinates": [[[[125.5033,-8.638,205.8013],[125.4996,-8.6408,218.4359],[125.4927,-8.6389,284.7169],[125.4854,-8.6435,284.3147],[125.4798,-8.644,324.7875],[125.4734,-8.6422,360.9979],[125.4671,-8.6468,361.2701],[125.4642,-8.6454,388.188],[125.4642,-8.648,429.754],[125.462,-8.6491,409.164],[125.4596,-8.6453,417.2878],[125.4559,-8.6498,443.7446],[125.4589,-8.652,458.7017],[125.4584,-8.6538,456.0793],[125.4605,-8.6537,483.8012],[125.4644,-8.6573,484.7639],[125.4684,-8.6559,557.9281],[125.4724,-8.6584,523.7393],[125.4773,-8.6581,530.5538],[125.4824,-8.6621,558.4267],[125.4983,-8.6621,703.8705],[125.502,-8.659,848.4],[125.5103,-8.6622,1055.7292],[125.5081,-8.6575,803.8443],[125.5092,-8.6521,615.4935],[125.5121,-8.6486,498.7889],[125.5116,-8.6438,275.8884],[125.5033,-8.638,205.8013]]]]}
,"properties": {"GID_3": "TLS.8.5.8_1","GID_0": "TLS","country": "Timor-Leste","GID_1": "TLS.8_1","province": "Ermera","NL_NAME_1": "NA","GID_2": "TLS.8.5_1","county": "Railaco","NL_NAME_2": "NA","city": "Taraso","VARNAME_3": "Taraco","NL_NAME_3": "NA","TYPE_3": "Suco","ENGTYPE_3": "Community","CC_3": "NA","HASC_3": "NA","name": "Taraso.city","area_km2": 10.732026,"hist_schema_id": "Elevation0-9000","hist_area_km2": {"200": 0.062885,"225": 0.104808,"250": 0.104808,"275": 0.188654,"300": 0.251537,"325": 0.230575,"350": 0.293459,"375": 0.31442,"400": 0.335381,"425": 0.544992,"450": 0.419224,"475": 0.901329,"500": 0.79652,"525": 0.796517,"550": 0.775554,"575": 0.712668,"600": 0.649785,"625": 0.712667,"650": 0.377294,"675": 0.524019,"700": 0.482095,"725": 0.251528,"750": 0.230567,"775": 0.146724,"800": 0.125764,"825": 0.104803,"850": 0.020961,"875": 0.125764,"900": 0.041921,"925": 0.020961,"950": 0.041921,"975": 0.02096,"1050": 0.02096}}}