{"type":"Feature","properties":{"GID_3":"TLS.6.4.8_1","GID_0":"TLS","country":"Timor-Leste","GID_1":"TLS.6_1","province":"Covalima","NL_NAME_1":"NA","GID_2":"TLS.6.4_1","county":"Mape","NL_NAME_2":"NA","city":"Usekai","VARNAME_3":"Ueacai","NL_NAME_3":"NA","TYPE_3":"Suco","ENGTYPE_3":"Community","CC_3":"NA","HASC_3":"NA","name":"Usekai.city"},
"geometry":{"type": "MultiPolygon","coordinates": [[[[125.4296,-9.0071,1745.7853],[125.4325,-9.0115,1562.8575],[125.4344,-9.0221,1203.5959],[125.4331,-9.0262,1176.2246],[125.4272,-9.0319,1036.9541],[125.4236,-9.0381,883.3262],[125.4203,-9.04,690.9972],[125.4127,-9.0309,1110.1052],[125.4112,-9.0222,1374.7079],[125.4072,-9.0196,1524.9171],[125.4005,-9.0312,1455.7554],[125.3958,-9.0333,1419.3364],[125.3951,-9.0403,1172.2413],[125.3876,-9.0478,911.8016],[125.3901,-9.0567,601.8858],[125.3939,-9.0595,551.4019],[125.4031,-9.0507,874.4256],[125.4165,-9.0485,545.6355],[125.4201,-9.0503,547.4203],[125.4222,-9.054,502.7763],[125.4265,-9.0555,484.0345],[125.4315,-9.0624,417.069],[125.4368,-9.0604,400.7112],[125.4442,-9.0614,399.6809],[125.4451,-9.0554,443.5606],[125.4488,-9.0506,450.0687],[125.4471,-9.0483,537.5688],[125.4489,-9.042,543.6838],[125.4454,-9.0385,631.5219],[125.4501,-9.029,783.5391],[125.45,-9.0262,847.1017],[125.4477,-9.0218,855.7516],[125.4434,-9.0184,938.5143],[125.4433,-9.0143,1073.2301],[125.4411,-9.0108,1205.6194],[125.4344,-9.0074,1562.2524],[125.4296,-9.0071,1745.7853]]]]}}