{"type": "Feature","bbox": [125.6251,-8.6816,125.6689,-8.6373],"geometry": {"type": "MultiPolygon","coordinates": [[[[125.6268,-8.6816,1306.2452],[125.6366,-8.6782,1049.5542],[125.6386,-8.6797,1026.4968],[125.6502,-8.6809,947.2166],[125.6492,-8.6705,1198.9335],[125.6519,-8.6628,1042.9297],[125.654,-8.661,1020.7501],[125.6597,-8.6602,947.4563],[125.662,-8.6554,896.7433],[125.6647,-8.6558,907.0471],[125.6689,-8.6416,901.3762],[125.6651,-8.6393,955.7739],[125.66,-8.6405,917.8671],[125.6571,-8.6389,987.257],[125.6486,-8.6403,997.5666],[125.6464,-8.6394,1036.729],[125.644,-8.6409,1055.8945],[125.6393,-8.6384,1110.293],[125.6303,-8.6373,1148.4929],[125.6286,-8.6462,1187.7687],[125.6318,-8.6545,1289.9492],[125.6353,-8.6574,1444.1356],[125.6367,-8.6627,1397.6052],[125.6326,-8.6665,1319.2036],[125.6251,-8.6699,1190.0986],[125.6268,-8.6816,1306.2452]]]]}
,"properties": {"GID_3": "TLS.1.4.4_1","GID_0": "TLS","country": "Timor-Leste","GID_1": "TLS.1_1","province": "Aileu","NL_NAME_1": "NA","GID_2": "TLS.1.4_1","county": "Remexio","NL_NAME_2": "NA","city": "Fahisoi","VARNAME_3": "FahiSoi","NL_NAME_3": "NA","TYPE_3": "Suco","ENGTYPE_3": "Community","CC_3": "NA","HASC_3": "NA","name": "Fahisoi.city","area_km2": 13.93884,"hist_schema_id": "Elevation0-9000","hist_area_km2": {"875": 0.02096,"900": 0.06288,"925": 0.31442,"950": 0.29345,"975": 0.39826,"1000": 0.50306,"1025": 0.50306,"1050": 0.83843,"1075": 0.9642,"1100": 1.13189,"1125": 0.90130999999999994,"1150": 0.85939,"1175": 1.19476,"1200": 0.94323,"1225": 0.94322,"1250": 0.94322,"1275": 0.90129,"1300": 0.7965,"1325": 0.39825,"1350": 0.33537,"1375": 0.31441,"1400": 0.12576,"1425": 0.16768,"1450": 0.06288,"1475": 0.02096}}}