{"type":"Feature","properties":{"GID_3":"TLS.5.1.2_1","GID_0":"TLS","country":"Timor-Leste","GID_1":"TLS.5_1","province":"Bobonaro","NL_NAME_1":"NA","GID_2":"TLS.5.1_1","county":"Atabai","NL_NAME_2":"NA","city":"Atabae","VARNAME_3":"Atabai","NL_NAME_3":"NA","TYPE_3":"Suco","ENGTYPE_3":"Community","CC_3":"NA","HASC_3":"NA","name":"Atabae.city"},
"geometry":{"type": "MultiPolygon","coordinates": [[[[125.1616,-8.8325,182.168],[125.1642,-8.831,172.5303],[125.1741,-8.8348,108.1599],[125.17529999999999,-8.8377,128.0477],[125.1793,-8.8382,107.576],[125.183,-8.8408,88.7827],[125.1838,-8.844,94.6119],[125.1861,-8.8458,78.0257],[125.1886,-8.8439,81.6303],[125.1951,-8.8439,70.1684],[125.2018,-8.8413,55.5897],[125.2054,-8.8423,54.7564],[125.2047,-8.8381,52.9025],[125.2101,-8.8296,51.0254],[125.209,-8.8218,49.4569],[125.2117,-8.8125,46.8944],[125.2203,-8.8047,49.8913],[125.2166,-8.8,45.7529],[125.215,-8.7915,43.0977],[125.2101,-8.789,48.2479],[125.2071,-8.782,44.1757],[125.2085,-8.774,39.1632],[125.2026,-8.7716,39.8753],[125.2027,-8.7689,37.6198],[125.1964,-8.7635,35.1107],[125.1899,-8.7536,31.2335],[125.1854,-8.7524,30.1908],[125.1835,-8.7493,28.3762],[125.1803,-8.7479,28.1424],[125.1704,-8.753,43.8141],[125.161,-8.7505,21.6611],[125.155,-8.7513,20.6064],[125.1575,-8.7548,27.4506],[125.1625,-8.7556,35.1196],[125.1648,-8.7613,128.5755],[125.1684,-8.7631,186.8378],[125.1708,-8.7675,239.951],[125.1726,-8.7794,696.8043],[125.1707,-8.7856,760.3408],[125.1682,-8.7877,822.5895],[125.1762,-8.7981,539.033],[125.1738,-8.8028,562.5337],[125.1631,-8.8105,384.6299],[125.1633,-8.8126,366.4919],[125.1611,-8.8139,325.1873],[125.1567,-8.8234,242.1859],[125.1538,-8.8253,237.267],[125.1551,-8.8305,206.612],[125.1577,-8.8301,201.3827],[125.1616,-8.8325,182.168]]]]}}