{"type":"Feature","properties":{"GID_3":"TLS.2.2.2_1","GID_0":"TLS","country":"Timor-Leste","GID_1":"TLS.2_1","province":"Ainaro","NL_NAME_1":"NA","GID_2":"TLS.2.2_1","county":"HatoBuilico","NL_NAME_2":"NA","city":"Mulo","VARNAME_3":"NA","NL_NAME_3":"NA","TYPE_3":"Suco","ENGTYPE_3":"Community","CC_3":"NA","HASC_3":"NA","name":"Mulo.city"},
"geometry":{"type": "MultiPolygon","coordinates": [[[[125.5975,-8.9206,1142.3098],[125.6046,-8.9132,1196.5245],[125.6035,-8.9009,1300.6619],[125.5986,-8.8979,1373.1101],[125.596,-8.8993,1383.2267],[125.5903,-8.8989,1485.5621],[125.5864,-8.8904,1703.1558],[125.5764,-8.8819,1819.0437],[125.5711,-8.8827,1901.1975],[125.5662,-8.8797,2170.9465],[125.5633,-8.8821,2250.7139],[125.5571,-8.8777,2173.3872],[125.5507,-8.8782,2143.8179],[125.5376,-8.8734,2440.8767],[125.5258,-8.8721,2281.2302],[125.5257,-8.8743,2237.7419],[125.5297,-8.8794,2105.4246],[125.5214,-8.8893,1902.0189],[125.5236,-8.902,1832.9531],[125.5221,-8.9046,1834.3153],[125.5257,-8.9108,1824.5946],[125.5306,-8.9127,1743.686],[125.5325,-8.9233,1696.8611],[125.5351,-8.9271,1482.7181],[125.5399,-8.9298,1320.1237],[125.5388,-8.9369,1053.2639],[125.542,-8.9401,966.4308],[125.5462,-8.9488,847.0638],[125.5474,-8.9456,868.2053],[125.563,-8.9351,954.8218],[125.5727,-8.9328,987.3262],[125.5743,-8.93,1004.271],[125.5775,-8.9295,1035.6501],[125.5784,-8.9278,1091.5259],[125.5867,-8.9246,1076.5134],[125.5916,-8.9247,1126.6036],[125.5941,-8.9217,1119.8379],[125.5975,-8.9206,1142.3098]]]]}}