{"type": "Feature","bbox": [125.4519,-9.0617,125.5293,-8.9339],"geometry": {"type": "MultiPolygon","coordinates": [[[[125.5293,-9.0617,286.1803],[125.5206,-9.043,355.4327],[125.5167,-9.043,415.2237],[125.5125,-9.0372,399.8563],[125.5066,-9.0076,698.5212],[125.5105,-9.0014,711.7311],[125.5102,-8.9975,779.099],[125.512,-8.9948,785.7431],[125.5111,-8.9888,806.0331],[125.5064,-8.9816,865.5682],[125.5075,-8.9733,943.8726],[125.5006,-8.9631,1271.9196],[125.4969,-8.954,1647.9497],[125.4914,-8.9509,1978.3743],[125.487,-8.9445,2349.9922],[125.4756,-8.9339,2552.8003],[125.4727,-8.9362,2618.5002],[125.4728,-8.9383,2494.2434],[125.4661,-8.9392,2414.2632],[125.4575,-8.9467,2464.6599],[125.4519,-8.9545,2507.6489],[125.4537,-8.9593,2435.8677],[125.4564,-8.9649,2291.6401],[125.4644,-8.9655,1843.4819],[125.4719,-8.9733,1454.8102],[125.4885,-8.9778,994.4393],[125.4904,-8.9828,980.7907],[125.4947,-8.9862,900.4629],[125.4979,-8.9971,775.9987],[125.4913,-9.0059,665.9554],[125.4917,-9.0154,582.517],[125.5027,-9.0299,460.119],[125.5054,-9.0449,384.9951],[125.5102,-9.0511,379.0713],[125.5103,-9.0535,347.5367],[125.523,-9.0614,356.8707],[125.5293,-9.0617,286.1803]]]]}
,"properties": {"GID_3": "TLS.2.1.1_1","GID_0": "TLS","country": "Timor-Leste","GID_1": "TLS.2_1","province": "Ainaro","NL_NAME_1": "NA","GID_2": "TLS.2.1_1","county": "Ainaro","NL_NAME_2": "NA","city": "Ainaro","VARNAME_3": "NA","NL_NAME_3": "NA","TYPE_3": "Suco","ENGTYPE_3": "Community","CC_3": "NA","HASC_3": "NA","name": "Ainaro.city","area_km2": 30.84766,"hist_schema_id": "Elevation0-9000","hist_area_km2": {"275": 0.06281,"300": 0.48157,"325": 0.46064,"350": 0.4397,"375": 0.39783,"400": 0.56534,"425": 0.67004,"450": 0.60723,"475": 0.5863,"500": 0.52349,"525": 0.33503,"550": 0.3141,"575": 0.29316,"600": 0.25128,"625": 0.2094,"650": 0.41881,"675": 0.41881,"700": 0.67009,"725": 0.83763,"750": 0.54446,"775": 0.48164,"800": 0.64918,"825": 0.69107,"850": 0.7539,"875": 0.6492,"900": 0.46073,"925": 0.35602,"950": 0.35602,"975": 0.39791,"1000": 0.39791,"1025": 0.25131,"1050": 0.39791,"1075": 0.41885,"1100": 0.41886,"1125": 0.33509,"1150": 0.41886,"1175": 0.2932,"1200": 0.4398,"1225": 0.35603,"1250": 0.33509,"1275": 0.33509,"1300": 0.23038,"1325": 0.35604,"1350": 0.29321,"1375": 0.29321,"1400": 0.35604,"1425": 0.27227,"1450": 0.25132,"1475": 0.31415,"1500": 0.23038,"1525": 0.35604,"1550": 0.29321,"1575": 0.37698,"1600": 0.23038,"1625": 0.31415,"1650": 0.25132,"1675": 0.29321,"1700": 0.31416,"1725": 0.3351,"1750": 0.27227,"1775": 0.23038,"1800": 0.29321,"1825": 0.14661,"1850": 0.20944,"1875": 0.31416,"1900": 0.25133,"1925": 0.25133,"1950": 0.25133,"1975": 0.25133,"2000": 0.23038,"2025": 0.27227,"2050": 0.20944,"2075": 0.1885,"2100": 0.35605,"2125": 0.14661,"2150": 0.20944,"2175": 0.20944,"2200": 0.25133,"2225": 0.16755,"2250": 0.16755,"2275": 0.14661,"2300": 0.29322,"2325": 0.08378,"2350": 0.14661,"2375": 0.23039,"2400": 0.06283,"2425": 0.27228,"2450": 0.12566,"2475": 0.33511,"2500": 0.20944,"2525": 0.1885,"2550": 0.04189,"2575": 0.08378,"2600": 0.06283,"2625": 0.04189}}}