{"type": "Feature","bbox": [125.3041,-8.8573,125.3608,-8.802],"geometry": {"type": "MultiPolygon","coordinates": [[[[125.3077,-8.824,331.6125],[125.3073,-8.8291,293.4017],[125.3041,-8.8339,240.0351],[125.3131,-8.8308,345.269],[125.3187,-8.8308,438.1152],[125.3248,-8.835,578.4617],[125.3302,-8.8425,517.0107],[125.3283,-8.8504,403.5457],[125.3244,-8.8549,307.7367],[125.325,-8.8573,282.3797],[125.3265,-8.8544,336.1766],[125.3283,-8.8555,362.3659],[125.3306,-8.853,388.679],[125.3366,-8.8531,472.9432],[125.3382,-8.8469,562.5378],[125.3408,-8.8453,642.6766],[125.3409,-8.8435,639.4806],[125.3473,-8.8402,722.7836],[125.3506,-8.8279,905.8921],[125.3544,-8.8252,929.3254],[125.3572,-8.8099,1257.2926],[125.3608,-8.8057,1381.376],[125.3593,-8.8034,1364.7031],[125.3538,-8.802,1263.4297],[125.3446,-8.8039,1159.8073],[125.3319,-8.8097,833.4246],[125.3206,-8.8077,717.3694],[125.3136,-8.8167,492.5257],[125.3119,-8.8218,369.7489],[125.3077,-8.824,331.6125]]]]}
,"properties": {"GID_3": "TLS.8.3.5_1","GID_0": "TLS","country": "Timor-Leste","GID_1": "TLS.8_1","province": "Ermera","NL_NAME_1": "NA","GID_2": "TLS.8.3_1","county": "Hatólia","NL_NAME_2": "NA","city": "Hatolia","VARNAME_3": "HatoliaKota","NL_NAME_3": "NA","TYPE_3": "Suco","ENGTYPE_3": "Community","CC_3": "NA","HASC_3": "NA","name": "Hatolia.city","area_km2": 17.55715,"hist_schema_id": "Elevation0-9000","hist_area_km2": {"275": 0.06285,"300": 0.1676,"325": 0.29331,"350": 0.25141,"375": 0.18856,"400": 0.31426,"425": 0.2095,"450": 0.29331,"475": 0.52377,"500": 0.39806,"525": 0.62852,"550": 0.39807,"575": 0.64947,"600": 0.75424,"625": 0.77519,"650": 0.67043,"675": 0.69138,"700": 0.71234,"725": 0.62853,"750": 0.64948,"775": 0.46092,"800": 0.67044,"825": 0.33522,"850": 0.56569,"875": 0.37712,"900": 0.60759,"925": 0.33522,"950": 0.41903,"975": 0.46093,"1000": 0.37713,"1025": 0.50284,"1050": 0.35618,"1075": 0.39809,"1100": 0.37713,"1125": 0.35618,"1150": 0.27237,"1175": 0.29333,"1200": 0.27238,"1225": 0.14667,"1250": 0.12571,"1275": 0.18857,"1300": 0.12571,"1325": 0.10476,"1350": 0.08381,"1375": 0.08381}}}