{"type":"Feature","properties":{"GID_3":"TLS.7.3.18_1","GID_0":"TLS","country":"Timor-Leste","GID_1":"TLS.7_1","province":"Dili","NL_NAME_1":"NA","GID_2":"TLS.7.3_1","county":"DiliTimur","NL_NAME_2":"NA","city":"MetiAut","VARNAME_3":"NA","NL_NAME_3":"NA","TYPE_3":"Suco","ENGTYPE_3":"Community","CC_3":"NA","HASC_3":"NA","name":"Meti_Aut.city"},
"geometry":{"type": "MultiPolygon","coordinates": [[[[125.6055,-8.5522,215.6569],[125.6121,-8.5523,274.6955],[125.615,-8.5489,299.1329],[125.6245,-8.5474,416.5691],[125.6294,-8.5392,462.1487],[125.6401,-8.5392,281.1071],[125.6706,-8.5279,0.0],[125.6667,-8.525,3.2744],[125.6592,-8.5264,4.8098],[125.6467,-8.5244,0.0],[125.6444,-8.5264,2.4374],[125.6338,-8.5271,0.0],[125.6286,-8.5253,5.5955],[125.625,-8.5267,5.1946],[125.6219,-8.5248,63.8871],[125.6211,-8.5189,0.0],[125.6153,-8.5219,2.6122],[125.6081,-8.5192,0.0],[125.6069,-8.521,6.3795],[125.6093,-8.5232,0.0],[125.6097,-8.5297,0.0],[125.6136,-8.5303,3.9148],[125.6147,-8.5333,13.3872],[125.6117,-8.5417,0.0],[125.6086,-8.545,3.7561],[125.5997,-8.5467,4.6708],[125.6055,-8.5522,215.6569]]]]}}