{"type":"Feature","properties":{"GID_3":"TLS.4.3.9_1","GID_0":"TLS","country":"Timor-Leste","GID_1":"TLS.4_1","province":"Baucau","NL_NAME_1":"NA","GID_2":"TLS.4.3_1","county":"Laga","NL_NAME_2":"NA","city":"Tekinomata","VARNAME_3":"Teqinomata","NL_NAME_3":"NA","TYPE_3":"Suco","ENGTYPE_3":"Community","CC_3":"NA","HASC_3":"NA","name":"Tekinomata.city"},
"geometry":{"type": "MultiPolygon","coordinates": [[[[126.6503,-8.5332,758.2697],[126.6685,-8.528,891.3964],[126.6583,-8.5154,547.9932],[126.6511,-8.5112,361.2687],[126.6469,-8.5068,315.502],[126.646,-8.5031,275.1961],[126.6429,-8.5004,287.9037],[126.6418,-8.4957,218.5317],[126.6332,-8.4897,152.464],[126.6259,-8.4895,126.0103],[126.6198,-8.4865,118.9857],[126.615,-8.4886,78.7327],[126.6021,-8.485,40.8931],[126.6017,-8.4806,36.2909],[126.5937,-8.4727,5.879],[126.5935,-8.4697,2.1053],[126.5898,-8.4712,0.0],[126.5816,-8.4704,0.4027],[126.5809,-8.4743,4.7367],[126.5842,-8.481,15.9407],[126.5906,-8.4829,59.0597],[126.5929,-8.49,35.2917],[126.5957,-8.4909,88.0495],[126.5958,-8.495,46.1136],[126.5923,-8.4974,46.0397],[126.5948,-8.5058,58.2557],[126.5921,-8.5089,68.0201],[126.5923,-8.5164,78.0077],[126.5894,-8.5187,81.7938],[126.5862,-8.5249,125.291],[126.5922,-8.5256,90.163],[126.5936,-8.5224,84.6033],[126.5977,-8.5189,76.4057],[126.5987,-8.5143,67.4236],[126.6056,-8.5147,90.5619],[126.6076,-8.513,87.5464],[126.613,-8.5140999999999991,120.1238],[126.6155,-8.512,156.2054],[126.6242,-8.5109,251.1137],[126.627,-8.5155,276.2089],[126.6366,-8.5207,485.6119],[126.6442,-8.5296,749.7495],[126.6503,-8.5332,758.2697]]]]}}