{"type": "Feature","bbox": [125.091,-8.7536,125.3029,-8.6028],"geometry": {"type": "MultiPolygon","coordinates": [[[[125.1882,-8.753,31.2335],[125.1899,-8.7536,31.2335],[125.1937,-8.7506,36.3354],[125.1977,-8.7435,42.6844],[125.2028,-8.7419,48.3735],[125.2097,-8.737,54.9984],[125.2162,-8.7379,62.2195],[125.222,-8.7342,70.0817],[125.2314,-8.7345,81.657],[125.2308,-8.7276,82.7788],[125.2331,-8.7222,97.6243],[125.2434,-8.7133,128.1634],[125.2489,-8.7145,145.0256],[125.2553,-8.7112,206.8935],[125.2616,-8.697,218.5652],[125.2673,-8.6926,206.0361],[125.2687,-8.6865,219.3937],[125.2715,-8.684,240.9777],[125.2738,-8.6761,309.7941],[125.2763,-8.6734,334.4561],[125.2838,-8.6761,584.3066],[125.301,-8.6763,369.1321],[125.3029,-8.6712,442.9255],[125.3013,-8.6689,457.4671],[125.3006,-8.6591,552.6435],[125.3027,-8.6534,604.3653],[125.2977,-8.6433,689.955],[125.3027,-8.6303,447.5507],[125.2989,-8.6256,343.3985],[125.2987,-8.6203,233.1191],[125.2931,-8.6028,0.0],[125.2711,-8.605,3.9612],[125.2606,-8.6044,0.0],[125.2567,-8.6028,0.0],[125.2483,-8.6044,0.0],[125.2358,-8.6036,2.5295],[125.2289,-8.6053,3.6441],[125.2214,-8.6044,0.0],[125.2164,-8.6069,2.1904],[125.2106,-8.6056,0.0],[125.2036,-8.6103,3.555],[125.1964,-8.6106,0.0],[125.1792,-8.6175,0.0],[125.1703,-8.6194,0.0],[125.1642,-8.625,15.4702],[125.1533,-8.628,21.0875],[125.1433,-8.6344,3.7131],[125.1228,-8.6403,26.8466],[125.1205,-8.6486,10.5529],[125.1164,-8.6514,17.4915],[125.113,-8.6572,0.0],[125.1083,-8.6678,6.1864],[125.1061,-8.6778,11.5793],[125.0978,-8.6889,13.7633],[125.1003,-8.6953,6.7342],[125.0986,-8.6989,0.0],[125.1006,-8.7042,0.0],[125.1003,-8.7114,2.9504],[125.0958,-8.7292,9.5113],[125.091,-8.7347,0.3644],[125.0914,-8.7394,1.2308],[125.0925,-8.736,1.6673],[125.1031,-8.7383,3.626],[125.1202,-8.7374,9.5985],[125.1249,-8.7421,12.1435],[125.1366,-8.7445,14.3438],[125.1461,-8.7513,48.3892],[125.1517,-8.7499,19.2889],[125.1564,-8.7514,21.2147],[125.1603,-8.7504,21.6611],[125.1704,-8.753,43.8141],[125.1803,-8.7479,28.1424],[125.1835,-8.7493,28.3762],[125.1854,-8.7524,30.1908],[125.1882,-8.753,31.2335]]]]}
,"properties": {"GID_2": "TLS.10.3_1","GID_0": "TLS","country": "Timor-Leste","GID_1": "TLS.10_1","province": "Liquiçá","NL_NAME_1": "NA","county": "Maubara","VARNAME_2": "NA","NL_NAME_2": "NA","TYPE_2": "Subdistrito","ENGTYPE_2": "Subdistrict","CC_2": "NA","HASC_2": "NA","name": "Maubara.county","area_km2": 264.6993,"hist_schema_id": "Elevation0-9000","hist_area_km2": {"0": 12.0517,"25": 19.2184,"50": 13.2455,"75": 11.3594,"100": 10.8986,"125": 10.9196,"150": 11.0664,"175": 9.7671,"200": 9.2013,"225": 9.1804,"250": 8.2582,"275": 7.5876,"300": 6.833,"325": 6.8959,"350": 6.9588,"375": 6.2462,"400": 6.9169,"425": 6.9379,"450": 6.0156,"475": 6.2042,"500": 6.0995,"525": 6.2671,"550": 5.5964,"575": 5.4078,"600": 5.9108,"625": 6.0156,"650": 5.9528,"675": 6.2043,"700": 5.5965,"725": 4.8628,"750": 3.71,"775": 2.7458,"800": 2.5362,"825": 2.0331,"850": 1.593,"875": 1.572,"900": 1.2576,"925": 1.3414,"950": 0.9851,"975": 1.2786,"1000": 0.6288,"1025": 0.4402,"1050": 0.2934,"1075": 0.2934,"1100": 0.2096,"1125": 0.1048}}}