{"type": "Feature","bbox": [125.7103,-8.6959,125.7573,-8.646],"geometry": {"type": "MultiPolygon","coordinates": [[[[125.751,-8.6928,475.5641],[125.7573,-8.6478,749.9926],[125.7489,-8.6461,810.136],[125.7447,-8.6491,829.5923],[125.7419,-8.649,852.7709],[125.7376,-8.6532,889.305],[125.733,-8.6538,907.916],[125.7299,-8.6492,1000.4024],[125.7251,-8.646,1038.6595],[125.724,-8.6551,1099.2],[125.7203,-8.659,970.6053],[125.7103,-8.6634,640.5167],[125.7123,-8.6663,617.3437],[125.7121,-8.6708,612.6885],[125.7156,-8.6734,603.7301],[125.7158,-8.6753,604.2635],[125.7174,-8.6745,623.4531],[125.7214,-8.6784,574.0352],[125.7238,-8.6883,515.2639],[125.729,-8.6887,512.4426],[125.7296,-8.6908,517.2414],[125.7334,-8.6922,493.0947],[125.7345,-8.6959,503.061],[125.7357,-8.6935,489.3104],[125.7434,-8.695,464.1823],[125.751,-8.6928,475.5641]]]]}
,"properties": {"GID_3": "TLS.1.4.8_1","GID_0": "TLS","country": "Timor-Leste","GID_1": "TLS.1_1","province": "Aileu","NL_NAME_1": "NA","GID_2": "TLS.1.4_1","county": "Remexio","NL_NAME_2": "NA","city": "Reileu","VARNAME_3": "Faturasa","NL_NAME_3": "NA","TYPE_3": "Suco","ENGTYPE_3": "Community","CC_3": "NA","HASC_3": "NA","name": "Reileu.city","area_km2": 18.36089,"hist_schema_id": "Elevation0-9000","hist_area_km2": {"450": 0.06288,"475": 0.12575,"500": 0.27246,"525": 0.18863,"550": 0.25151,"575": 0.56589,"600": 0.44014,"625": 0.60782,"650": 0.60782,"675": 0.6707,"700": 0.7755,"725": 0.96415,"750": 0.94319,"775": 0.98512,"800": 0.96416,"825": 1.00608,"850": 1.19473,"875": 1.23666,"900": 1.23665,"925": 1.13186,"950": 1.15282,"975": 1.29954,"1000": 0.77553,"1025": 0.56593,"1050": 0.2096,"1075": 0.08384,"1100": 0.04192}}}