{"type":"Feature","properties":{"GID_3":"TLS.4.4.10_1","GID_0":"TLS","country":"Timor-Leste","GID_1":"TLS.4_1","province":"Baucau","NL_NAME_1":"NA","GID_2":"TLS.4.4_1","county":"Quelicai","NL_NAME_2":"NA","city":"Letemumu","VARNAME_3":"LeteMumo","NL_NAME_3":"NA","TYPE_3":"Suco","ENGTYPE_3":"Community","CC_3":"NA","HASC_3":"NA","name":"Letemumu.city"},
"geometry":{"type": "MultiPolygon","coordinates": [[[[126.5463,-8.5849,613.6493],[126.5437,-8.5908,558.0768],[126.5404,-8.5914,494.8962],[126.5401,-8.593,477.1945],[126.5312,-8.5978,389.3934],[126.5267,-8.6024,305.9317],[126.5313,-8.6104,402.9739],[126.5454,-8.6247,628.2268],[126.5533,-8.6161,613.6158],[126.5534,-8.6112,641.5286],[126.5553,-8.6085,652.1287],[126.5638,-8.6052,767.618],[126.5632,-8.6031,737.444],[126.5594,-8.6011,672.7635],[126.5548,-8.5934,619.8741],[126.547,-8.5897,628.1344],[126.5463,-8.5849,613.6493]]]]}}