{"type": "Feature","bbox": [125.5859,-8.5662,125.597,-8.5579],"geometry": {"type": "MultiPolygon","coordinates": [[[[125.5921,-8.5651,36.6354],[125.597,-8.5662,35.3731],[125.597,-8.5603,20.8634],[125.5918,-8.5579,12.9787],[125.5859,-8.5649,23.808],[125.5921,-8.5651,36.6354]]]]}
,"properties": {"GID_3": "TLS.7.3.17_1","GID_0": "TLS","country": "Timor-Leste","GID_1": "TLS.7_1","province": "Dili","NL_NAME_1": "NA","GID_2": "TLS.7.3_1","county": "DiliTimur","NL_NAME_2": "NA","city": "Meira","VARNAME_3": "Bemori","NL_NAME_3": "NA","TYPE_3": "Suco","ENGTYPE_3": "Community","CC_3": "NA","HASC_3": "NA","name": "Meira.city","area_km2": 0.7128403,"hist_schema_id": "Elevation0-9000","hist_area_km2": {"25": 0.6918746,"50": 0.0209658}}}