{"type": "Feature","bbox": [126.695,-8.57,127.1146,-8.3219],"geometry": {"type": "MultiPolygon","coordinates": [[[[126.8702,-8.57,270.7452],[126.8725,-8.5696,248.012],[126.8728,-8.5662,270.9417],[126.8748,-8.5649,241.0411],[126.8746,-8.5611,269.6223],[126.8782,-8.5603,235.7676],[126.8781,-8.5554,219.1939],[126.8839,-8.5478,219.8213],[126.8841,-8.5457,229.8569],[126.8813,-8.5432,209.1665],[126.8813,-8.5397,199.4897],[126.8854,-8.5333,171.0807],[126.8839,-8.5304,179.337],[126.8898,-8.5247,172.6134],[126.8894,-8.5232,186.459],[126.8824,-8.5219,150.1246],[126.8868,-8.5159,141.9552],[126.8848,-8.5154,155.1686],[126.8845,-8.5138,182.2272],[126.9009,-8.5051,128.1377],[126.9007,-8.5018,146.6894],[126.9045,-8.5003,117.3157],[126.909,-8.4945,126.5968],[126.9078,-8.4887,114.1353],[126.9117,-8.4899,106.0272],[126.9141,-8.4887,100.9297],[126.9143,-8.4863,108.17],[126.9118,-8.4869,101.1241],[126.9096,-8.4843,101.172],[126.9155,-8.4779,98.8871],[126.914,-8.4762,85.8287],[126.9143,-8.4716,82.9275],[126.9128,-8.4709,80.7428],[126.914,-8.4686,86.398],[126.9123,-8.4646,97.7336],[126.9138,-8.4623,73.0806],[126.9158,-8.464,75.806],[126.9185,-8.4625,80.3823],[126.915,-8.4618,72.2],[126.9165,-8.4592,104.0367],[126.9133,-8.4592,73.8921],[126.9148,-8.4558,77.3431],[126.9111,-8.4525,66.3098],[126.912,-8.4485,81.3904],[126.9173,-8.4508,63.6297],[126.9173,-8.4448,53.0355],[126.9484,-8.429,556.7426],[126.9615,-8.419,582.7513],[126.983,-8.4057,558.1146],[126.9918,-8.4026,534.9176],[127.0029,-8.4014,481.2687],[127.0096,-8.4057,455.4158],[127.0221,-8.4065,457.0771],[127.031,-8.4026,498.2305],[127.0528,-8.4085,470.6474],[127.067,-8.4063,454.9332],[127.0745,-8.4034,465.9144],[127.0912,-8.4027,442.7834],[127.1047,-8.3936,502.5814],[127.1107,-8.3941,474.6276],[127.1119,-8.393,474.6276],[127.1143,-8.3872,345.1322],[127.11279999999999,-8.3728,90.4734],[127.1146,-8.368,8.462],[127.1053,-8.3675,0.0],[127.0997,-8.3656,0.0],[127.0897,-8.3667,5.0448],[127.0839,-8.3631,0.8899],[127.0806,-8.3644,0.0],[127.0642,-8.3633,9.3271],[127.0472,-8.3436,5.4011],[127.0361,-8.3392,0.0],[127.0311,-8.3408,3.2859],[127.0236,-8.3381,10.1506],[127.0111,-8.3275,3.5097],[127.0075,-8.3267,6.1423],[127.0011,-8.3219,1.35],[126.9656,-8.3258,0.0],[126.9586,-8.3272,0.0],[126.9489,-8.3331,3.6748],[126.9331,-8.3381,5.5504],[126.9045,-8.3614,7.4997],[126.8942,-8.3656,1.9484],[126.8869,-8.3706,1.1192],[126.8812,-8.3699,5.3409],[126.8753,-8.3722,0.0],[126.8561,-8.3825,0.0],[126.8456,-8.3911,0.0],[126.8364,-8.3956,1.8597],[126.8314,-8.3961,0.0],[126.8272,-8.4003,6.3087],[126.8214,-8.4008,0.0],[126.8126,-8.4059,0.0],[126.8008,-8.4056,0.0],[126.795,-8.4083,0.0],[126.7861,-8.4178,0.0],[126.7761,-8.4181,3.92],[126.7672,-8.4222,2.7776],[126.7578,-8.4206,3.2389],[126.7453,-8.4136,1.8113],[126.7367,-8.4033,1.13],[126.7319,-8.4028,0.0],[126.7276,-8.4044,0.0],[126.7189,-8.4111,0.0],[126.715,-8.4119,1.4858],[126.7075,-8.4192,0.0],[126.6954,-8.4249,2.9518],[126.695,-8.4288,13.8775],[126.697,-8.4332,34.4423],[126.7029,-8.437,131.1545],[126.7069,-8.4431,158.8166],[126.7073,-8.4454,141.5725],[126.7054,-8.4484,140.1233],[126.708,-8.4536,172.802],[126.7077,-8.4586,199.7682],[126.7126,-8.4658,261.5845],[126.7117,-8.4682,249.1899],[126.7166,-8.4799,456.6438],[126.7209,-8.4826,390.1633],[126.7297,-8.4866,178.8256],[126.7367,-8.4873,149.7637],[126.741,-8.492,111.45],[126.7528,-8.4916,80.3515],[126.7533,-8.4899,77.2601],[126.7551,-8.4914,98.8677],[126.7558,-8.4955,92.3165],[126.7588,-8.4967,110.2855],[126.7594,-8.4956,134.8012],[126.7619,-8.4983,122.196],[126.7641,-8.4978,166.0983],[126.7668,-8.4998,160.3103],[126.7821,-8.4912,298.9008],[126.7902,-8.4897,220.5292],[126.7996,-8.4855,291.1776],[126.808,-8.484,182.6567],[126.8164,-8.4877,76.0475],[126.8195,-8.4857,64.035],[126.8254,-8.4859,66.248],[126.8283,-8.4877,79.9457],[126.8273,-8.4893,60.6654],[126.8297,-8.4918,67.0261],[126.8283,-8.4944,65.2089],[126.832,-8.4977,69.7104],[126.831,-8.5005,70.5796],[126.8362,-8.5072,89.0015],[126.8372,-8.5117,95.9867],[126.8422,-8.5124,136.7778],[126.8427,-8.5149,100.1018],[126.8449,-8.5128,153.8642],[126.8487,-8.5143,136.9559],[126.8466,-8.5168,107.2766],[126.8486,-8.517,105.8804],[126.8489,-8.5187,108.7792],[126.8466,-8.5204,110.4394],[126.8496,-8.5204,111.1537],[126.8484,-8.5232,120.3536],[126.8502,-8.5244,115.3],[126.8499,-8.5272,120.2936],[126.8524,-8.5275,142.1739],[126.8517,-8.5331,134.7117],[126.8539,-8.5354,161.2294],[126.8534,-8.5378,147.4229],[126.8575,-8.5381,172.637],[126.8558,-8.5397,147.0079],[126.8591,-8.5432,185.3769],[126.8568,-8.5448,157.6202],[126.8569,-8.5479,162.2505],[126.8589,-8.549,227.9536],[126.8565,-8.5508,180.2933],[126.8585,-8.5515,172.0011],[126.8567,-8.5544,181.2858],[126.8579,-8.5564,180.536],[126.8602,-8.5558,249.2247],[126.8602,-8.5611,217.7201],[126.8669,-8.5649,267.299],[126.8679,-8.5695,317.7174],[126.8702,-8.57,270.7452]]]]}
,"properties": {"GID_2": "TLS.9.2_1","GID_0": "TLS","country": "Timor-Leste","GID_1": "TLS.9_1","province": "Lautém","NL_NAME_1": "NA","county": "Lautém","VARNAME_2": "Moro","NL_NAME_2": "NA","TYPE_2": "Subdistrito","ENGTYPE_2": "Subdistrict","CC_2": "NA","HASC_2": "NA","name": "Lautém.county","area_km2": 439.5211,"hist_schema_id": "Elevation0-9000","hist_area_km2": {"0": 18.3748,"25": 32.5949,"50": 32.8242,"75": 28.5453,"100": 25.2942,"125": 21.162,"150": 22.5667,"175": 20.2593,"200": 20.4271,"225": 18.3297,"250": 18.3092,"275": 16.5052,"300": 15.876,"325": 15.0581,"350": 13.066,"375": 12.5841,"400": 11.8291,"425": 11.1581,"450": 13.3605,"475": 11.9135,"500": 12.5638,"525": 16.7589,"550": 13.5077,"575": 11.0742,"600": 3.062,"625": 1.1534,"650": 0.713,"675": 0.5662,"700": 0.0839}}}