{"type":"Feature","properties":{"GID_3":"TLS.9.1.1_1","GID_0":"TLS","country":"Timor-Leste","GID_1":"TLS.9_1","province":"Lautém","NL_NAME_1":"NA","GID_2":"TLS.9.1_1","county":"Iliomar","NL_NAME_2":"NA","city":"Ailebere","VARNAME_3":"NA","NL_NAME_3":"NA","TYPE_3":"Suco","ENGTYPE_3":"Community","CC_3":"NA","HASC_3":"NA","name":"Ailebere.city"},
"geometry":{"type": "MultiPolygon","coordinates": [[[[126.8288,-8.7008,343.0722],[126.8238,-8.7039,410.2182],[126.8105,-8.7049,218.793],[126.81,-8.709,194.1676],[126.8059,-8.7131,166.296],[126.8039,-8.7212,118.7746],[126.8046,-8.726,98.4467],[126.8072,-8.7302,68.4475],[126.8102,-8.7265,160.1101],[126.8172,-8.7253,259.8674],[126.8205,-8.7236,320.0944],[126.8221,-8.7202,352.8525],[126.8252,-8.7205,396.1454],[126.8265,-8.7171,459.0479],[126.8223,-8.713,396.2845],[126.8283,-8.7085,366.297],[126.83,-8.7027,320.2458],[126.8288,-8.7008,343.0722]]]]}}