{"type": "Feature","bbox": [125.0312,-9.0344,125.1115,-8.9536],"geometry": {"type": "MultiPolygon","coordinates": [[[[125.0704,-9.0262,156.0331],[125.0726,-9.023,154.4516],[125.0768,-9.0217,153.8605],[125.0821,-9.0143,183.7846],[125.0873,-9.0127,141.0467],[125.0917,-9.0087,128.8423],[125.0929,-9.0051,138.5119],[125.099,-8.9998,123.7629],[125.0988,-8.9928,120.2996],[125.1021,-8.9884,118.1247],[125.1035,-8.9741,131.8965],[125.1115,-8.9668,111.31],[125.1105,-8.9639,107.4526],[125.0943,-8.9564,385.2579],[125.0803,-8.9536,383.3859],[125.0723,-8.9741,666.7048],[125.0585,-8.9899,507.7791],[125.0483,-8.9933,583.7161],[125.0381,-8.9849,526.6802],[125.0312,-8.9856,482.083],[125.0372,-8.9925,521.0599],[125.0354,-8.9995,596.4052],[125.036,-9.0059,649.0752],[125.0387,-9.01,674.7693],[125.0329,-9.0156,641.288],[125.0329,-9.022,416.0305],[125.0342,-9.0281,289.7518],[125.038,-9.0331,186.7605],[125.0403,-9.0344,183.1009],[125.0427,-9.0319,185.9932],[125.0524,-9.0317,195.4107],[125.058,-9.0269,181.9278],[125.0641,-9.0286,160.3067],[125.0704,-9.0262,156.0331]]]]}
,"properties": {"GID_3": "TLS.5.2.4_1","GID_0": "TLS","country": "Timor-Leste","GID_1": "TLS.5_1","province": "Bobonaro","NL_NAME_1": "NA","GID_2": "TLS.5.2_1","county": "Balibó","NL_NAME_2": "NA","city": "Leohitu","VARNAME_3": "NA","NL_NAME_3": "NA","TYPE_3": "Suco","ENGTYPE_3": "Community","CC_3": "NA","HASC_3": "NA","name": "Leohitu.city","area_km2": 39.76773,"hist_schema_id": "Elevation0-9000","hist_area_km2": {"100": 0.27226,"125": 1.86384,"150": 1.2146,"175": 1.36117,"200": 1.50776,"225": 1.27743,"250": 1.65437,"275": 1.54966,"300": 1.88472,"325": 1.82192,"350": 2.45014,"375": 2.01039,"400": 2.05226,"425": 1.90567,"450": 1.75909,"475": 1.8219,"500": 1.82191,"525": 2.11507,"550": 1.88472,"575": 1.63343,"600": 1.23553,"625": 1.15177,"650": 1.90565,"675": 1.44494,"700": 0.16753}}}