{"type": "Feature","bbox": [125.103,-9.223,125.1695,-9.1708],"geometry": {"type": "MultiPolygon","coordinates": [[[[125.1439,-9.1719,672.228],[125.1421,-9.1735,685.9119],[125.1343,-9.1744,750.5907],[125.1319,-9.1791,745.393],[125.125,-9.1823,780.9828],[125.1226,-9.1853,808.3021],[125.1164,-9.1865,825.9584],[125.1074,-9.1929,986.5145],[125.1056,-9.1962,949.5524],[125.1054,-9.2049,1076.459],[125.103,-9.2128,1217.7053],[125.109,-9.223,1597.7393],[125.1208,-9.2209,1501.9155],[125.1296,-9.2113,1575.0327],[125.1325,-9.2112,1608.5945],[125.1361,-9.2142,1604.1525],[125.145,-9.2132,1714.6685],[125.1525,-9.1906,1125.2701],[125.1592,-9.1845,845.2628],[125.1626,-9.1839,816.9814],[125.1695,-9.1764,663.5762],[125.1692,-9.1731,604.9784],[125.1552,-9.173,663.126],[125.1482,-9.1708,678.8751],[125.1439,-9.1719,672.228]]]]}
,"properties": {"GID_3": "TLS.6.1.2_1","GID_0": "TLS","country": "Timor-Leste","GID_1": "TLS.6_1","province": "Covalima","NL_NAME_1": "NA","GID_2": "TLS.6.1_1","county": "FatuFulic","NL_NAME_2": "NA","city": "Fatululik","VARNAME_3": "FatoLulik","NL_NAME_3": "NA","TYPE_3": "Suco","ENGTYPE_3": "Community","CC_3": "NA","HASC_3": "NA","name": "Fatululik.city","area_km2": 21.99713,"hist_schema_id": "Elevation0-9000","hist_area_km2": {"600": 0.04186,"625": 0.12559,"650": 0.20931,"675": 0.37676,"700": 0.52327,"725": 0.41862,"750": 0.46048,"775": 0.62792,"800": 0.62792,"825": 0.56512,"850": 0.73256,"875": 0.66977,"900": 0.71163,"925": 0.73256,"950": 0.8372,"975": 0.66976,"1000": 0.75348,"1025": 0.56511,"1050": 0.60696,"1075": 0.52324,"1100": 0.62789,"1125": 0.46045,"1150": 0.46045,"1175": 0.5651,"1200": 0.5023,"1225": 0.43951,"1250": 0.75345,"1275": 0.52323,"1300": 0.54416,"1325": 0.43951,"1350": 0.3558,"1375": 0.52323,"1400": 0.39765,"1425": 0.37672,"1450": 0.46044,"1475": 0.39765,"1500": 0.58601,"1525": 0.66972,"1550": 0.56508,"1575": 0.46044,"1600": 0.41858,"1625": 0.27207,"1650": 0.20929,"1675": 0.1465,"1700": 0.04186,"1725": 0.02093}}}