{"type":"Feature","properties":{"GID_2":"TLS.12.3_1","GID_0":"TLS","country":"Timor-Leste","GID_1":"TLS.12_1","province":"Manufahi","NL_NAME_1":"NA","county":"Same","VARNAME_2":"NA","NL_NAME_2":"NA","TYPE_2":"Subdistrito","ENGTYPE_2":"Subdistrict","CC_2":"NA","HASC_2":"NA","name":"Same.county"},
"geometry":{"type": "MultiPolygon","coordinates": [[[[125.7011,-9.1939,0.0],[125.7192,-9.1736,0.0],[125.7268,-9.1672,5.4902],[125.7317,-9.1669,0.0],[125.7375,-9.1642,3.4673],[125.7478,-9.1675,3.0501],[125.7543,-9.1667,0.0],[125.7675,-9.1608,0.6794],[125.7719,-9.1536,1.3823],[125.7806,-9.1531,0.0],[125.7922,-9.1469,0.0],[125.8048,-9.1458,0.0],[125.8028,-9.1448,0.0],[125.8044,-9.1423,9.0851],[125.8029,-9.1407,10.2387],[125.8054,-9.1381,12.1292],[125.8077,-9.1389,10.0743],[125.8088,-9.1337,23.0211],[125.8077,-9.1312,42.6254],[125.8058,-9.131,19.4975],[125.8047,-9.1274,22.7048],[125.8067,-9.1275,16.9519],[125.8104,-9.1231,23.794],[125.8069,-9.1224,24.2719],[125.8024,-9.1189,32.7806],[125.8017,-9.1163,31.1301],[125.7993,-9.1165,33.9575],[125.7994,-9.1146,33.2666],[125.7969,-9.1166,58.3723],[125.7943,-9.1109,42.0439],[125.7927,-9.112,46.7686],[125.7912,-9.1108,43.5374],[125.7913,-9.1073,43.0502],[125.7895,-9.1086,44.7761],[125.788,-9.107,48.9605],[125.7868,-9.1083,49.4207],[125.7861,-9.1058,49.2745],[125.7822,-9.104,57.1689],[125.7802,-9.1058,60.4017],[125.7777,-9.1044,75.7371],[125.7755,-9.1058,68.2516],[125.7622,-9.0979,170.091],[125.7601,-9.0945,110.4343],[125.7613,-9.0929,104.6378],[125.7576,-9.0934,124.7019],[125.7529,-9.0859,141.4421],[125.7508,-9.0857,181.4228],[125.7452,-9.092,305.3339],[125.7418,-9.0923,308.4872],[125.7401,-9.0864,289.6635],[125.7411,-9.0842,258.3289],[125.7376,-9.082,274.2],[125.7286,-9.0817,370.4795],[125.7282,-9.0787,415.7358],[125.7179,-9.0744,425.2911],[125.7184,-9.0711,452.9319],[125.7225,-9.0663,374.8098],[125.7225,-9.0622,378.3201],[125.7247,-9.0585,304.2258],[125.724,-9.0501,214.1678],[125.7202,-9.0472,191.7366],[125.7198,-9.0447,185.2137],[125.7149,-9.0439,168.7585],[125.7124,-9.0473,169.4165],[125.7082,-9.0473,153.8764],[125.7047,-9.0536,150.5055],[125.705,-9.0442,158.0317],[125.7025,-9.0324,175.8547],[125.7044,-9.0301,181.516],[125.708,-9.0308,185.25],[125.7122,-9.029,189.7691],[125.7197,-9.0178,203.3045],[125.719,-9.0095,226.4876],[125.7154,-9.0067,219.4382],[125.7145,-9.002,226.396],[125.7187,-8.995,240.1797],[125.7178,-8.9856,262.0828],[125.7225,-8.9754,267.5036],[125.7209,-8.9721,300.164],[125.7213,-8.9658,285.0617],[125.7236,-8.9623,321.8556],[125.7226,-8.9605,330.5552],[125.7243,-8.9571,317.6359],[125.7288,-8.9541,313.152],[125.7292,-8.9504,346.1813],[125.7262,-8.95,372.2649],[125.7276,-8.9473,332.6535],[125.731,-8.9466,335.6464],[125.7324,-8.9419,369.3506],[125.7296,-8.9402,360.405],[125.7304,-8.9355,381.4088],[125.7279,-8.935,392.2444],[125.7284,-8.9314,411.9439],[125.7228,-8.9278,444.799],[125.7261,-8.9262,453.3848],[125.7283,-8.9227,489.9941],[125.7273,-8.9198,534.5804],[125.7241,-8.9177,472.9255],[125.7236,-8.9153,448.2375],[125.7256,-8.915,455.9479],[125.7223,-8.9113,524.4366],[125.7156,-8.9083,660.8394],[125.709,-8.908,759.7586],[125.7031,-8.9014,988.7345],[125.6822,-8.8984,646.6992],[125.6766,-8.9027,597.3581],[125.6719,-8.8992,604.0217],[125.6691,-8.8992,612.6817],[125.6682,-8.8972,626.8664],[125.6637,-8.8963,640.3376],[125.6592,-8.8981,712.1151],[125.6551,-8.9051,775.1051],[125.6541,-8.9128,939.7246],[125.6494,-8.9207,1352.121],[125.6417,-8.9212,1448.3502],[125.6383,-8.9172,1403.0077],[125.6247,-8.9141,1587.2655],[125.6214,-8.9166,1494.7982],[125.6211,-8.9244,1576.0149],[125.6124,-8.9285,1599.1663],[125.615,-8.9332,1247.298],[125.6176,-8.9346,1230.0801],[125.615,-8.9354,1241.1281],[125.6127,-8.9384,1336.288],[125.6075,-8.9399,1481.3053],[125.6062,-8.9439,1744.522],[125.6079,-8.9467,1954.3179],[125.5973,-8.9534,2417.3943],[125.5937,-8.9619,1741.0156],[125.5943,-8.9677,1488.0079],[125.5921,-8.9718,1364.6075],[125.5943,-8.9761,1250.4304],[125.5943,-8.9808,1146.2628],[125.5921,-8.9846,1023.5433],[125.5894,-9.0056,694.5847],[125.586,-9.0103,564.7725],[125.5933,-9.016,507.7411],[125.5923,-9.0241,441.169],[125.596,-9.0303,419.9633],[125.5954,-9.0389,377.381],[125.5967,-9.0427,353.5392],[125.6051,-9.0472,295.7554],[125.6088,-9.0511,274.6616],[125.6119,-9.0503,250.6239],[125.6278,-9.0562,233.7876],[125.6293,-9.0608,206.2834],[125.6281,-9.0649,205.7926],[125.6332,-9.0643,203.4405],[125.6344,-9.0685,182.9044],[125.6435,-9.0673,172.2967],[125.6524,-9.0753,155.1198],[125.6568,-9.0739,147.9848],[125.6614,-9.0744,141.6472],[125.6664,-9.0718,133.9994],[125.6701,-9.073,130.5876],[125.6732,-9.0762,126.9569],[125.6739,-9.0794,131.5265],[125.6784,-9.0801,116.3498],[125.6839,-9.0838,107.9254],[125.6866,-9.0916,98.8596],[125.6911,-9.094,95.028],[125.6917,-9.1075,92.4178],[125.6891,-9.1165,73.5112],[125.6853,-9.119,69.9021],[125.6759,-9.1192,70.5153],[125.6723,-9.121,80.9678],[125.6699,-9.1243,59.4031],[125.6706,-9.1297,59.5351],[125.6672,-9.136,51.264],[125.6758,-9.1718,23.3821],[125.6911,-9.1798,13.5474],[125.6966,-9.1865,7.2063],[125.6979,-9.1914,6.7183],[125.7011,-9.1939,0.0]]]]}}