{"type": "Feature","bbox": [126.6405,-8.6271,126.6615,-8.6039],"geometry": {"type": "MultiPolygon","coordinates": [[[[126.6612,-8.6087,318.633],[126.647,-8.6039,537.5755],[126.6409,-8.6136,1059.7539],[126.6433,-8.6218,871.2615],[126.6405,-8.6254,971.3177],[126.6415,-8.6271,942.5115],[126.6498,-8.6258,513.1346],[126.6497,-8.6233,471.2499],[126.6523,-8.6205,401.8518],[126.6615,-8.6176,266.5069],[126.6591,-8.6134,379.7656],[126.6612,-8.6087,318.633]]]]}
,"properties": {"GID_3": "TLS.4.1.3_1","GID_0": "TLS","country": "Timor-Leste","GID_1": "TLS.4_1","province": "Baucau","NL_NAME_1": "NA","GID_2": "TLS.4.1_1","county": "Baguia","NL_NAME_2": "NA","city": "AlawaAfaguia","VARNAME_3": "AlauaBawah","NL_NAME_3": "NA","TYPE_3": "Suco","ENGTYPE_3": "Community","CC_3": "NA","HASC_3": "NA","name": "Alawa_Afaguia.city","area_km2": 3.584672,"hist_schema_id": "Elevation0-9000","hist_area_km2": {"325": 0.083852,"350": 0.062888,"375": 0.146741,"400": 0.083852,"425": 0.125777,"450": 0.167704,"475": 0.062888,"500": 0.167706,"525": 0.230593,"550": 0.104816,"575": 0.062889,"600": 0.125779,"625": 0.083853,"650": 0.041926,"675": 0.104815,"700": 0.188668,"725": 0.125777,"750": 0.230592,"775": 0.251556,"800": 0.125777,"825": 0.104815,"850": 0.146741,"875": 0.125776,"900": 0.083852,"925": 0.104814,"950": 0.083851,"975": 0.125778,"1000": 0.146742,"1025": 0.020963,"1050": 0.041926,"1075": 0.020963}}}