{"type":"Feature","properties":{"GID_1":"TLS.7_1","GID_0":"TLS","country":"Timor-Leste","province":"Dili","VARNAME_1":"NA","NL_NAME_1":"NA","TYPE_1":"Distrito","ENGTYPE_1":"District","CC_1":"NA","HASC_1":"TP.DL","ISO_1":"TL-DI","name":"Dili.province"},
"geometry":{"type": "MultiPolygon","coordinates": [[[[125.5572,-8.6242,260.3719],[125.5626,-8.6269,314.9572],[125.566,-8.6262,338.3817],[125.5654,-8.6234,370.7755],[125.573,-8.6232,493.6015],[125.5754,-8.6216,493.0996],[125.5757,-8.6194,554.6169],[125.5796,-8.6189,538.5276],[125.5891,-8.6089,842.2518],[125.5885,-8.6059,816.6915],[125.5906,-8.6032,785.5457],[125.6079,-8.5999,581.7464],[125.6086,-8.5981,597.1504],[125.6028,-8.5895,480.1605],[125.6179,-8.5828,239.8268],[125.623,-8.5852,357.9199],[125.6252,-8.5844,314.5495],[125.6385,-8.5922,552.4144],[125.6421,-8.5933,368.6322],[125.6469,-8.5919,324.9089],[125.6534,-8.5843,186.0141],[125.6566,-8.5761,197.5962],[125.6597,-8.5737,111.8878],[125.659,-8.5711,137.9773],[125.6612,-8.5701,96.8324],[125.6639,-8.5699,78.8365],[125.6638,-8.5773,137.9596],[125.6681,-8.5822,227.0059],[125.6758,-8.5873,601.8301],[125.6855,-8.5881,788.0206],[125.688,-8.5821,750.3977],[125.6856,-8.5771,456.4588],[125.6857,-8.5715,314.1398],[125.6877,-8.5689,296.6885],[125.6908,-8.5682,223.1531],[125.6943,-8.5624,155.1053],[125.694,-8.5602,136.0718],[125.6966,-8.5603,106.5228],[125.6975,-8.5588,92.3385],[125.7066,-8.5616,339.9227],[125.7128,-8.5655,505.4938],[125.7218,-8.5636,683.9032],[125.7315,-8.5654,687.1067],[125.7347,-8.5639,679.1757],[125.7408,-8.5671,700.5107],[125.7454,-8.5644,656.0525],[125.7536,-8.5639,758.4409],[125.7567,-8.5678,789.859],[125.7607,-8.5663,819.7643],[125.7676,-8.5712,883.9468],[125.7753,-8.5666,754.4128],[125.7775,-8.5589,521.3949],[125.7807,-8.5551,331.203],[125.7814,-8.5455,172.0389],[125.7843,-8.5421,141.6148],[125.793,-8.5433,180.7283],[125.7943,-8.5462,195.6488],[125.8001,-8.5471,429.2947],[125.8057,-8.544,464.1138],[125.8087,-8.5402,316.425],[125.8157,-8.5407,539.8231],[125.823,-8.5391,512.2306],[125.8291,-8.5349,547.1663],[125.8339,-8.5392,411.8568],[125.8361,-8.539,408.0578],[125.8414,-8.5324,610.5966],[125.8449,-8.5305,615.1095],[125.8471,-8.5326,572.2614],[125.856,-8.5232,714.3118],[125.8585,-8.5226,649.1732],[125.8568,-8.5185,622.3353],[125.8571,-8.5146,657.8289],[125.8605,-8.5097,780.9072],[125.8523,-8.5044,385.6249],[125.8445,-8.4928,82.0573],[125.8348,-8.4858,2.3534],[125.8285,-8.4909,0.7777],[125.8229,-8.4898,1.9295],[125.8195,-8.4909,0.0],[125.8164,-8.4964,6.2486],[125.8064,-8.5033,6.7022],[125.7883,-8.5022,0.0],[125.786,-8.5046,11.25],[125.7797,-8.5053,0.0],[125.7784,-8.5087,11.6092],[125.7733,-8.5069,4.3313],[125.76,-8.5114,0.0],[125.7552,-8.5143,0.0],[125.7514,-8.521,0.0],[125.7411,-8.5228,0.7546],[125.7319,-8.5208,0.0],[125.7258,-8.5269,9.15],[125.7231,-8.5256,0.0],[125.7192,-8.5197,0.0],[125.7172,-8.5194,0.0],[125.7144,-8.5206,0.0],[125.7058,-8.5297,8.4047],[125.6983,-8.5339,2.3878],[125.6942,-8.5328,0.0],[125.6925,-8.5353,6.0736],[125.69,-8.535,0.0],[125.6883,-8.5367,1.9362],[125.6833,-8.5362,0.6157],[125.6667,-8.525,3.2744],[125.6592,-8.5264,4.8098],[125.6461,-8.5244,0.0],[125.6444,-8.5264,2.4374],[125.6338,-8.5271,0.0],[125.6286,-8.5253,5.5955],[125.625,-8.5267,5.1946],[125.6219,-8.5248,63.8871],[125.6211,-8.5189,0.0],[125.6153,-8.5219,2.6122],[125.6081,-8.5192,0.0],[125.6069,-8.521,6.3795],[125.6093,-8.5232,0.0],[125.6097,-8.5297,0.0],[125.6136,-8.5303,3.9148],[125.6147,-8.5333,13.3872],[125.6117,-8.5417,0.0],[125.6078,-8.5456,3.7561],[125.5881,-8.5475,0.4282],[125.5814,-8.5509,0.0],[125.5793,-8.5506,0.0],[125.5764,-8.5533,1.9985],[125.5694,-8.5483,0.0],[125.5573,-8.5476,0.0],[125.5336,-8.5367,0.0],[125.5311,-8.5408,0.0],[125.5256,-8.5414,3.769],[125.5175,-8.5458,0.0],[125.5075,-8.5567,2.9135],[125.5039,-8.5575,0.0],[125.4981,-8.5558,0.0],[125.4982,-8.5577,18.7008],[125.4934,-8.5616,77.8673],[125.5007,-8.5679,140.3631],[125.5015,-8.5713,147.9655],[125.5073,-8.5751,170.0559],[125.5073,-8.5805,198.0762],[125.5178,-8.5841,368.0081],[125.5187,-8.5859,359.3683],[125.5202,-8.5913,410.131],[125.519,-8.5966,383.301],[125.5172,-8.5978,383.301],[125.5184,-8.6034,314.6507],[125.517,-8.6114,475.4484],[125.5188,-8.6129,388.2061],[125.5329,-8.6141,121.8747],[125.5423,-8.6196,157.6449],[125.5442,-8.6224,160.5383],[125.5477,-8.621,241.1059],[125.5502,-8.6234,198.1122],[125.5572,-8.6242,260.3719]]],
[[[125.5595,-8.3021,22.1418],[125.5611,-8.3067,0.0],[125.572,-8.3065,0.0],[125.5785,-8.309,7.7917],[125.579,-8.3069,36.4635],[125.5836,-8.3062,42.1104],[125.5836,-8.3036,55.7221],[125.5872,-8.3031,0.0],[125.5944,-8.29,3.687],[125.6,-8.2847,0.0],[125.6003,-8.2797,21.138],[125.6025,-8.2772,22.7549],[125.6061,-8.2631,0.0],[125.6097,-8.2567,3.1361],[125.6069,-8.2464,1.1856],[125.6072,-8.2331,1.7503],[125.6094,-8.2292,2.7616],[125.61,-8.2214,0.0],[125.6175,-8.2092,9.9831],[125.6217,-8.2069,21.7044],[125.6258,-8.1998,18.1273],[125.6342,-8.1922,0.0],[125.635,-8.1825,0.0],[125.64,-8.1753,0.0],[125.6411,-8.1658,0.0],[125.6444,-8.1633,4.3611],[125.6403,-8.1533,2.4694],[125.6417,-8.1431,0.0],[125.6383,-8.1375,39.6392],[125.639,-8.1328,0.0],[125.6367,-8.1269,1.0708],[125.6331,-8.1271,9.175],[125.6191,-8.1328,0.0],[125.6075,-8.1488,0.0],[125.5972,-8.159,0.0],[125.5911,-8.1608,0.0],[125.5846,-8.1758,0.0],[125.5775,-8.1811,0.0],[125.5675,-8.1925,0.0],[125.5667,-8.1953,1.7097],[125.5619,-8.1978,0.0],[125.5594,-8.2063,2.5337],[125.5557,-8.2081,0.0],[125.5489,-8.22,0.7585],[125.5362,-8.2199,0.0],[125.5232,-8.227,0.0],[125.5206,-8.2433,1.1209],[125.5178,-8.2475,2.6832],[125.5033,-8.2589,7.4142],[125.5006,-8.2633,0.0],[125.5003,-8.2658,0.0],[125.5058,-8.2756,0.0],[125.5289,-8.2969,0.0],[125.5531,-8.2978,4.8017],[125.5564,-8.3028,33.018],[125.5595,-8.3021,22.1418]]]]}}