{"type": "Feature","id": "541","bbox": [125.48983,-8.62702,125.84599,-8.13502],"geometry": {"type": "MultiPolygon","coordinates": [[[[125.84599,-8.51354,466.273],[125.82858,-8.49095,0.7777],[125.82854,-8.49091,0.7777],[125.73316,-8.52158,13.6841],[125.67888,-8.53037,0.0],[125.64926,-8.52955,33.152],[125.63087,-8.52158,0.0],[125.60353,-8.54892,63.0673],[125.59181,-8.54957,5.7953],[125.56593,-8.54209,0.0],[125.54151,-8.54502,9.5213],[125.48983,-8.56821,4.2507],[125.48984,-8.56826,4.2507],[125.49129,-8.57741,18.2102],[125.49749,-8.60966,252.9725],[125.51185,-8.62025,378.1937],[125.52105,-8.62702,374.9674],[125.56033,-8.62123,531.4623],[125.59216,-8.61048,825.2246],[125.61614,-8.60573,697.8597],[125.65004,-8.58733,246.0727],[125.69592,-8.56501,205.766],[125.73437,-8.56749,649.4672],[125.76166,-8.5834,551.361],[125.76367,-8.58283,625.7725],[125.78894,-8.57576,410.3998],[125.81085,-8.54888,494.7254],[125.83028,-8.53441,537.689],[125.84599,-8.51354,466.273]]],
[[[125.58302,-8.31439,0.0],[125.5923,-8.30731,0.0],[125.59669,-8.29925,0.0],[125.60353,-8.26881,41.686],[125.6421,-8.17474,0.0],[125.65065,-8.14284,0.0],[125.6325,-8.13502,105.2365],[125.60515,-8.15301,57.7629],[125.58025,-8.17897,0.0],[125.56935,-8.19638,94.1679],[125.56202,-8.20916,40.655],[125.52662,-8.23577,223.1009],[125.51417,-8.24774,0.0],[125.50636,-8.261,85.2375],[125.50367,-8.27077,16.7047],[125.50709,-8.28037,0.0],[125.51759,-8.29217,0.0],[125.53053,-8.29949,0.0],[125.56275,-8.30918,0.0],[125.56935,-8.31292,0.0],[125.57358,-8.31732,0.0],[125.58302,-8.31439,0.0]]]]}
,"properties": {"ISO3166-1-Alpha-3": "TLS","country": "East Timor","fill": "#FF0","name": "Dili","area_km2": 402.7575,"hist_schema_id": "Elevation0-9000","hist_area_km2": {"0": 52.8548,"25": 33.3619,"50": 19.7746,"75": 16.9025,"100": 16.9874,"125": 16.2951,"150": 15.7088,"175": 16.7153,"200": 16.4431,"225": 14.6815,"250": 15.2898,"275": 15.2275,"300": 14.305,"325": 11.2206,"350": 10.1507,"375": 9.0389,"400": 7.592,"425": 8.1167,"450": 7.8859,"475": 7.2566,"500": 7.7178,"525": 8.7874,"550": 8.3902,"575": 6.1669,"600": 5.5164,"625": 5.9776,"650": 4.7816,"675": 5.2218,"700": 6.1026,"725": 4.9702,"750": 3.7538,"775": 2.9985,"800": 2.5792,"825": 2.076,"850": 0.7969,"875": 0.4194,"900": 0.2937,"925": 0.2518,"950": 0.1259,"975": 0.021}}}