{"type":"Feature","properties":{"GID_3":"TLS.6.6.4_1","GID_0":"TLS","country":"Timor-Leste","GID_1":"TLS.6_1","province":"Covalima","NL_NAME_1":"NA","GID_2":"TLS.6.6_1","county":"Tilomar","NL_NAME_2":"NA","city":"Lalawa","VARNAME_3":"Salele","NL_NAME_3":"NA","TYPE_3":"Suco","ENGTYPE_3":"Community","CC_3":"NA","HASC_3":"NA","name":"Lalawa.city"},
"geometry":{"type": "MultiPolygon","coordinates": [[[[125.088,-9.4586,6.3796],[125.0894,-9.4606,0.0],[125.1056,-9.4422,4.5392],[125.1167,-9.4328,3.2164],[125.1341,-9.4222,2.4298],[125.1517,-9.4161,3.2758],[125.1535,-9.4119,7.5577],[125.1508,-9.4104,4.7513],[125.1491,-9.4066,6.3138],[125.1532,-9.3859,18.3488],[125.1508,-9.3837,29.5475],[125.151,-9.3809,69.3906],[125.1444,-9.3814,65.2524],[125.1415,-9.379,90.0823],[125.1444,-9.3745,120.1496],[125.1423,-9.3721,142.0683],[125.1419,-9.3677,169.3051],[125.1448,-9.3637,215.5802],[125.1446,-9.3564,250.2275],[125.1421,-9.3468,347.9247],[125.1366,-9.3439,375.0878],[125.1354,-9.3373,243.5683],[125.1373,-9.3314,176.2868],[125.142,-9.3271,130.5495],[125.1457,-9.3238,115.7452],[125.1509,-9.3234,94.1044],[125.153,-9.3162,103.2952],[125.1317,-9.3105,128.8578],[125.1296,-9.3046,134.5216],[125.1243,-9.3049,140.2554],[125.116,-9.3088,154.0333],[125.1131,-9.3079,241.0735],[125.1112,-9.3104,168.6376],[125.1043,-9.3111,184.0426],[125.1042,-9.3174,239.9675],[125.0993,-9.3326,439.6941],[125.101,-9.3388,557.4328],[125.1004,-9.3424,558.8986],[125.0931,-9.3606,269.1134],[125.094,-9.3757,180.2104],[125.0911,-9.3753,178.5528],[125.0881,-9.3778,166.3533],[125.0878,-9.3804,152.4251],[125.0839,-9.3816,123.7611],[125.0841,-9.3856,104.1464],[125.077,-9.3981,72.2349],[125.0772,-9.4049,68.268],[125.0811,-9.4132,81.2776],[125.0779,-9.4183,56.7519],[125.0787,-9.4206,52.6624],[125.081,-9.4213,58.9215],[125.0782,-9.4264,44.6555],[125.0806,-9.4272,42.7111],[125.0793,-9.4301,35.8555],[125.0815,-9.4316,61.472],[125.0787,-9.4347,31.7281],[125.0809,-9.4387,33.3121],[125.0787,-9.4426,24.1012],[125.0812,-9.4439,47.7882],[125.0837,-9.4497,18.6871],[125.0873,-9.4513,15.8371],[125.0847,-9.4546,11.3015],[125.088,-9.4586,6.3796]]]]}}