{"type":"Feature","properties":{"GID_3":"TLS.8.4.1_1","GID_0":"TLS","country":"Timor-Leste","GID_1":"TLS.8_1","province":"Ermera","NL_NAME_1":"NA","GID_2":"TLS.8.4_1","county":"Letefoho","NL_NAME_2":"NA","city":"Dukurai","VARNAME_3":"Dokurai","NL_NAME_3":"NA","TYPE_3":"Suco","ENGTYPE_3":"Community","CC_3":"NA","HASC_3":"NA","name":"Dukurai.city"},
"geometry":{"type": "MultiPolygon","coordinates": [[[[125.4937,-8.8328,1596.5232],[125.4886,-8.8304,1632.7942],[125.4834,-8.8246,1605.2712],[125.4753,-8.8229,1582.8662],[125.4694,-8.8223,1617.2795],[125.464,-8.824,1596.9321],[125.4582,-8.8222,1515.9659],[125.4453,-8.8236,1312.5437],[125.438,-8.8228,1303.0979],[125.4363,-8.8371,1495.2504],[125.444,-8.8453,1386.9917],[125.441,-8.8545,1169.9219],[125.4324,-8.8647,984.5281],[125.4385,-8.8638,1028.5789],[125.4501,-8.8546,1088.9646],[125.4593,-8.8614,1464.7607],[125.466,-8.8584,1444.2692],[125.4671,-8.8603,1443.8894],[125.4697,-8.8591,1482.3917],[125.4769,-8.8599,1501.7079],[125.4791,-8.8638,1557.1737],[125.4883,-8.8685,1662.444],[125.4953,-8.8696,1764.2708],[125.5023,-8.868,1836.7568],[125.5073,-8.8701,1970.4005],[125.5165,-8.8682,2090.6714],[125.519,-8.8655,2271.5188],[125.5099,-8.855,2326.3723],[125.5074,-8.8487,2284.9404],[125.5052,-8.8503,2212.5625],[125.5019,-8.8495,2077.3564],[125.4972,-8.8508,1850.3939],[125.4937,-8.8328,1596.5232]]]]}}