{"type":"Feature","properties":{"GID_3":"TLS.5.6.5_1","GID_0":"TLS","country":"Timor-Leste","GID_1":"TLS.5_1","province":"Bobonaro","NL_NAME_1":"NA","GID_2":"TLS.5.6_1","county":"Maliana","NL_NAME_2":"NA","city":"Ritabou","VARNAME_3":"NA","NL_NAME_3":"NA","TYPE_3":"Suco","ENGTYPE_3":"Community","CC_3":"NA","HASC_3":"NA","name":"Ritabou.city"},
"geometry":{"type": "MultiPolygon","coordinates": [[[[125.1401,-8.9219,83.1947],[125.1405,-8.9284,88.0625],[125.1384,-8.9329,87.8803],[125.1397,-8.9345,99.6019],[125.1388,-8.9357,100.0162],[125.1405,-8.9362,100.0162],[125.1402,-8.9395,99.3706],[125.1432,-8.9404,103.2448],[125.147,-8.9384,113.9277],[125.15,-8.942,120.3235],[125.1519,-8.9409,121.9131],[125.1565,-8.9424,123.5496],[125.1615,-8.9459,149.3565],[125.1609,-8.9475,146.583],[125.1644,-8.9494,150.4704],[125.166,-8.9534,142.7371],[125.1683,-8.9517,157.8952],[125.1691,-8.9454,160.5683],[125.1742,-8.9419,150.1489],[125.177,-8.942,148.9797],[125.1827,-8.9366,138.8263],[125.1902,-8.9451,150.3579],[125.1901,-8.9532,161.8163],[125.1922,-8.955,168.1229],[125.1923,-8.9592,171.9739],[125.1959,-8.9659,180.0723],[125.1975,-8.9673,182.325],[125.2033,-8.9672,199.1027],[125.2225,-8.9744,191.0591],[125.2252,-8.979,202.9408],[125.2248,-8.9837,239.4146],[125.2317,-8.9886,242.7659],[125.2361,-8.9887,272.0726],[125.2421,-8.9923,297.6866],[125.2479,-8.9916,378.2758],[125.2537,-8.9866,521.8389],[125.2616,-8.9886,706.3982],[125.2651,-8.9862,910.9485],[125.2728,-8.9898,954.9069],[125.2726,-8.9926,904.5552],[125.2749,-8.9939,873.082],[125.2898,-8.9942,718.6423],[125.2974,-8.9972,540.0613],[125.2902,-9.0044,586.4879],[125.2832,-9.0019,643.1993],[125.2793,-9.0044,727.8157],[125.2553,-9.003,552.0921],[125.2545,-9.0162,756.9319],[125.2558,-9.0231,991.2725],[125.2588,-9.0287,1105.8899],[125.2545,-9.0355,1163.2921],[125.257,-9.0404,1345.6208],[125.2572,-9.0447,1452.7709],[125.2607,-9.0492,1606.5615],[125.278,-9.0207,1196.9824],[125.2853,-9.0178,937.4372],[125.2985,-9.0184,950.6427],[125.3023,-9.0159,871.8654],[125.3104,-9.0151,759.5567],[125.3143,-9.0078,740.0961],[125.3183,-9.0039,617.8257],[125.3186,-8.9981,590.0969],[125.3157,-8.9961,623.5049],[125.3161,-8.9931,581.3492],[125.3121,-8.9867,408.5356],[125.3117,-8.9771,365.5678],[125.3068,-8.9766,378.1615],[125.304,-8.9824,417.4175],[125.3018,-8.982,419.1445],[125.2999,-8.9783,493.7466],[125.293,-8.9802,592.6033],[125.2843,-8.9734,835.8271],[125.2818,-8.9688,983.6064],[125.27,-8.9672,1277.9458],[125.2621,-8.9614,1214.0388],[125.2564,-8.9602,934.6548],[125.2491,-8.9629,658.5854],[125.244,-8.9677,515.2209],[125.2395,-8.9675,461.1181],[125.2338,-8.9705,338.5159],[125.2215,-8.9675,182.0188],[125.2194,-8.9571,166.6798],[125.2198,-8.948,154.384],[125.217,-8.9376,167.434],[125.2178,-8.9337,165.8793],[125.2132,-8.9285,138.4053],[125.2143,-8.9143,111.409],[125.209,-8.9046,100.7464],[125.2099,-8.8957,87.0369],[125.204,-8.8858,77.5205],[125.1951,-8.8794,69.2605],[125.1856,-8.8793,63.6917],[125.1857,-8.8819,65.8555],[125.1808,-8.8856,66.6256],[125.1762,-8.8859,73.976],[125.1712,-8.8903,69.5203],[125.1675,-8.8901,69.0004],[125.1667,-8.8947,74.3289],[125.1562,-8.8964,76.5878],[125.155,-8.902,74.6876],[125.1524,-8.9017,75.6117],[125.1468,-8.905,77.0045],[125.1399,-8.9185,83.1964],[125.1401,-8.9219,83.1947]]]]}}