{"type": "Feature","bbox": [126.3874,-8.6562,126.4558,-8.5792],"geometry": {"type": "MultiPolygon","coordinates": [[[[126.4543,-8.644,154.1417],[126.4505,-8.6418,228.6568],[126.4375,-8.6419,403.9896],[126.424,-8.6488,518.5396],[126.4282,-8.6558,386.4461],[126.439,-8.6548,267.536],[126.4416,-8.6514,234.8142],[126.4432,-8.6545,224.6928],[126.4469,-8.6562,178.4182],[126.449,-8.6552,176.5855],[126.4488,-8.6522,169.1906],[126.4546,-8.6469,168.5432],[126.4543,-8.644,154.1417]]],
[[[126.4398,-8.5792,134.5448],[126.433,-8.5852,168.0714],[126.4279,-8.586,270.5745],[126.4289,-8.5916,209.4612],[126.4038,-8.5913,464.9282],[126.4,-8.5991,510.0282],[126.3909,-8.6005,628.7695],[126.396,-8.605,528.5146],[126.3994,-8.6019,522.9768],[126.4021,-8.6043,485.6869],[126.3941,-8.61,531.9204],[126.3937,-8.6202,576.9056],[126.3879,-8.629,683.5946],[126.3874,-8.6352,762.6182],[126.4047,-8.6278,625.6354],[126.4085,-8.6275,772.4713],[126.4279,-8.6289,848.7903],[126.4431,-8.6353,406.7166],[126.4469,-8.6293,350.2476],[126.4459,-8.6211,294.5717],[126.4116,-8.6204,591.2653],[126.4126,-8.6091,460.296],[126.4084,-8.6058,420.0712],[126.4196,-8.6005,329.4536],[126.4278,-8.5937,236.5309],[126.4296,-8.5958,220.9927],[126.4402,-8.5969,145.9846],[126.4438,-8.5939,138.0112],[126.4466,-8.5994,125.334],[126.4488,-8.5991,125.3569],[126.4494,-8.6008,99.8652],[126.4528,-8.5997,97.5667],[126.4511,-8.5947,95.2994],[126.4544,-8.5939,88.6909],[126.4558,-8.5916,97.1308],[126.4542,-8.5872,82.5833],[126.4558,-8.5843,118.5512],[126.4551,-8.5816,84.9619],[126.4505,-8.5795,80.6283],[126.4398,-8.5792,134.5448]]]]}
,"properties": {"GID_3": "TLS.4.6.1_1","GID_0": "TLS","country": "Timor-Leste","GID_1": "TLS.4_1","province": "Baucau","NL_NAME_1": "NA","GID_2": "TLS.4.6_1","county": "Venilale","NL_NAME_2": "NA","city": "Badoho","VARNAME_3": "BadoHoo","NL_NAME_3": "NA","TYPE_3": "Suco","ENGTYPE_3": "Community","CC_3": "NA","HASC_3": "NA","name": "Badoho.city","area_km2": 22.22077,"hist_schema_id": "Elevation0-9000","hist_area_km2": {"75": 0.79666,"100": 1.00629,"125": 0.33543,"150": 0.56602,"175": 1.04818,"200": 0.94337,"225": 0.94335,"250": 0.6708,"275": 0.5031,"300": 0.73367,"325": 0.52406,"350": 0.67078,"375": 0.77562,"400": 0.9014,"425": 1.09007,"450": 1.4255,"475": 1.02719,"500": 1.02719,"525": 1.132,"550": 0.58696,"575": 0.58695,"600": 0.58695,"625": 0.6708,"650": 0.44021,"675": 0.54502,"700": 0.58695,"725": 0.56598,"750": 0.35636,"775": 0.25155,"800": 0.10481,"825": 0.06289,"850": 0.20962,"875": 0.10481,"900": 0.25155,"925": 0.12577,"950": 0.06289}}}