{"type":"Feature","properties":{"GID_3":"TLS.8.1.10_1","GID_0":"TLS","country":"Timor-Leste","GID_1":"TLS.8_1","province":"Ermera","NL_NAME_1":"NA","GID_2":"TLS.8.1_1","county":"Atsabe","NL_NAME_2":"NA","city":"Malimea","VARNAME_3":"Atara","NL_NAME_3":"NA","TYPE_3":"Suco","ENGTYPE_3":"Community","CC_3":"NA","HASC_3":"NA","name":"Malimea.city"},
"geometry":{"type": "MultiPolygon","coordinates": [[[[125.4273,-8.9567,1667.7736],[125.419,-8.9526,1597.6604],[125.4125,-8.9525,1495.9985],[125.3921,-8.9437,1049.6787],[125.3878,-8.9432,1028.2944],[125.3866,-8.9402,1031.3917],[125.3801,-8.9375,917.3459],[125.3759,-8.933,798.1934],[125.3737,-8.9363,810.2102],[125.3771,-8.9483,915.5663],[125.3804,-8.9486,893.962],[125.3837,-8.9549,1103.5586],[125.3841,-8.9632,1221.1089],[125.4077,-8.9609,1534.8545],[125.4273,-8.9567,1667.7736]]]]}}