{"type": "Feature","bbox": [125.2671,-8.92,125.3139,-8.8843],"geometry": {"type": "MultiPolygon","coordinates": [[[[125.2671,-8.9136,734.8596],[125.2697,-8.9152,755.0981],[125.2704,-8.92,806.7186],[125.2788,-8.9144,604.2695],[125.2866,-8.9133,395.3899],[125.293,-8.909,294.7767],[125.2956,-8.9089,279.9688],[125.2974,-8.9064,280.1254],[125.3139,-8.9045,208.6983],[125.3138,-8.8998,205.1661],[125.3118,-8.8977,223.1937],[125.2993,-8.8937,189.0349],[125.2966,-8.8907,183.1362],[125.2945,-8.8843,176.8751],[125.283,-8.8865,224.1707],[125.2804,-8.888,320.526],[125.2805,-8.892,273.8884],[125.2742,-8.8966,442.7785],[125.2748,-8.8996,477.2736],[125.2716,-8.9033,544.0015],[125.2713,-8.9067,524.373],[125.2671,-8.9136,734.8596]]]]}
,"properties": {"GID_3": "TLS.5.4.3_1","GID_0": "TLS","country": "Timor-Leste","GID_1": "TLS.5_1","province": "Bobonaro","NL_NAME_1": "NA","GID_2": "TLS.5.4_1","county": "Cailaco","NL_NAME_2": "NA","city": "Genulai","VARNAME_3": "NA","NL_NAME_3": "NA","TYPE_3": "Suco","ENGTYPE_3": "Community","CC_3": "NA","HASC_3": "NA","name": "Genulai.city","area_km2": 9.572714,"hist_schema_id": "Elevation0-9000","hist_area_km2": {"175": 0.356109,"200": 1.110199,"225": 0.691254,"250": 1.131145,"275": 0.691254,"300": 0.649356,"325": 0.54462,"350": 0.46083,"375": 0.52367,"400": 0.356096,"425": 0.314201,"450": 0.230412,"475": 0.3142,"500": 0.272305,"525": 0.293252,"550": 0.230412,"575": 0.23041,"600": 0.209464,"625": 0.251356,"650": 0.251355,"675": 0.083785,"700": 0.125677,"725": 0.083784,"750": 0.041892,"775": 0.041892,"800": 0.041892,"825": 0.041892}}}