{"type":"Feature","properties":{"GID_3":"TLS.3.3.9_1","GID_0":"TLS","country":"Timor-Leste","GID_1":"TLS.3_1","province":"Ambeno","NL_NAME_1":"NA","GID_2":"TLS.3.3_1","county":"PanteMacassar","NL_NAME_2":"NA","city":"Nipane","VARNAME_3":"NA","NL_NAME_3":"NA","TYPE_3":"Suco","ENGTYPE_3":"Community","CC_3":"NA","HASC_3":"NA","name":"Nipane.city"},
"geometry":{"type": "MultiPolygon","coordinates": [[[[124.4761,-9.1744,2.9958],[124.4688,-9.1721,2.2887],[124.4659,-9.1729,0.0],[124.4481,-9.1669,2.9088],[124.4397,-9.1688,2.6079],[124.4276,-9.1672,0.0],[124.4152,-9.1728,0.0],[124.412,-9.1727,0.0],[124.4042,-9.181,26.5256],[124.4175,-9.2039,334.9168],[124.4182,-9.2108,446.4413],[124.4281,-9.2283,847.7723],[124.4297,-9.2341,961.4139],[124.4364,-9.236,1078.7539],[124.4448,-9.2445,1098.501],[124.442,-9.2499,825.1093],[124.4384,-9.2806,297.6012],[124.446,-9.2864,540.7872],[124.4577,-9.2869,776.4125],[124.4554,-9.2835,727.9961],[124.4561,-9.2751,623.6204],[124.4547,-9.2669,623.5914],[124.4609,-9.2568,768.4888],[124.462,-9.2508,1040.4169],[124.4661,-9.2498,1071.8704],[124.4645,-9.2424,568.2554],[124.4673,-9.2383,446.9421],[124.4658,-9.2314,353.614],[124.4685,-9.2281,294.3817],[124.4661,-9.224,274.4608],[124.4685,-9.2083,80.325],[124.476,-9.2034,112.1066],[124.4776,-9.2,64.0575],[124.4829,-9.1978,135.6933],[124.4795,-9.1956,60.0166],[124.4804,-9.1893,28.8461],[124.4781,-9.1762,7.4879],[124.4761,-9.1744,2.9958]]]]}}