{"type": "Feature","bbox": [126.613,-8.7715,126.738,-8.6352],"geometry": {"type": "MultiPolygon","coordinates": [[[[126.738,-8.7382,10.8036],[126.738,-8.7295,32.9716],[126.732,-8.7286,13.1904],[126.7354,-8.7215,33.7957],[126.7289,-8.7137,19.7398],[126.7308,-8.7101,30.0619],[126.729,-8.7056,24.327],[126.7303,-8.7014,40.9438],[126.7277,-8.6989,43.4418],[126.73,-8.696,39.7256],[126.7296,-8.6878,33.3144],[126.7348,-8.677,46.5121],[126.7325,-8.6723,49.4087],[126.7298,-8.6716,50.3475],[126.7282,-8.6655,56.5639],[126.7292,-8.6626,56.1361],[126.7222,-8.6589,66.5023],[126.7119,-8.6472,119.9231],[126.7095,-8.6463,106.8459],[126.7056,-8.6485,91.1201],[126.6901,-8.647,131.1192],[126.6852,-8.6481,104.7144],[126.6825,-8.6455,140.6678],[126.676,-8.645,108.5434],[126.6731,-8.6415,137.1104],[126.6705,-8.6423,143.5753],[126.6664,-8.6386,188.8521],[126.6575,-8.6352,229.4308],[126.6517,-8.6376,256.2393],[126.6455,-8.6472,389.8928],[126.6417,-8.6471,440.6677],[126.6387,-8.6493,452.3913],[126.6265,-8.6523,733.36],[126.621,-8.6621,800.884],[126.6225,-8.6635,772.2958],[126.6213,-8.6697,839.434],[126.6226,-8.6754,811.545],[126.6188,-8.6782,881.0409],[126.618,-8.6829,855.9373],[126.6133,-8.6853,958.0375],[126.613,-8.6874,969.7228],[126.6139,-8.6891,999.7985],[126.6279,-8.6951,1141.9155],[126.6349,-8.7005,1027.3475],[126.6379,-8.7105,887.6387],[126.6444,-8.7149,803.8727],[126.6453,-8.7227,590.8731],[126.6495,-8.7259,516.5596],[126.6523,-8.7335,262.5434],[126.6512,-8.7388,150.0918],[126.6573,-8.7464,80.0107],[126.6541,-8.755,33.0858],[126.6597,-8.7619,8.7775],[126.6604,-8.7715,0.0],[126.6759,-8.764,3.224],[126.7081,-8.7572,1.7662],[126.7258,-8.7561,1.5854],[126.7364,-8.7589,1.1799],[126.7372,-8.758,1.1799],[126.7341,-8.7535,7.2845],[126.7371,-8.746,21.2882],[126.7348,-8.7418,9.9846],[126.738,-8.7382,10.8036]]]]}
,"properties": {"GID_2": "TLS.13.3_1","GID_0": "TLS","country": "Timor-Leste","GID_1": "TLS.13_1","province": "Viqueque","NL_NAME_1": "NA","county": "UatoCarbau","VARNAME_2": "UatuCarbau","NL_NAME_2": "NA","TYPE_2": "Subdistrito","ENGTYPE_2": "Subdistrict","CC_2": "NA","HASC_2": "NA","name": "Uato_Carbau.county","area_km2": 133.6927,"hist_schema_id": "Elevation0-9000","hist_area_km2": {"0": 9.0108,"25": 9.1161,"50": 8.0267,"75": 8.6137,"100": 7.8593,"125": 7.0001,"150": 5.8264,"175": 5.4492,"200": 5.4702,"225": 4.6738,"250": 5.596,"275": 4.7158,"300": 4.3594,"325": 3.7307,"350": 3.4792,"375": 2.9133,"400": 2.557,"425": 2.6408,"450": 2.0959,"475": 1.9911,"500": 2.0121,"525": 1.9282,"550": 1.7815,"575": 1.551,"600": 1.8863,"625": 1.551,"650": 2.0121,"675": 1.4881,"700": 1.7606,"725": 1.3623,"750": 1.6348,"775": 1.5091,"800": 1.0479,"825": 0.8383,"850": 0.5868,"875": 0.6707,"900": 0.7126,"925": 0.482,"950": 0.4401,"975": 0.2934,"1000": 0.3563,"1025": 0.2934,"1050": 0.3353,"1075": 0.2725,"1100": 0.3772,"1125": 0.2305,"1150": 0.2934,"1175": 0.3772,"1200": 0.2725,"1225": 0.1257,"1250": 0.0838}}}