{"type": "Feature","bbox": [125.2169,-9.1304,125.4344,-8.9545],"geometry": {"type": "MultiPolygon","coordinates": [[[[125.3691,-9.0946,248.074],[125.3658,-9.0876,277.8761],[125.368,-9.082,290.3834],[125.3699,-9.0825,305.2852],[125.3722,-9.0792,310.2449],[125.3728,-9.0744,329.0291],[125.3686,-9.0691,375.7245],[125.3684,-9.0634,412.1074],[125.3712,-9.062,461.9891],[125.3788,-9.0505,704.4074],[125.3872,-9.0483,903.1385],[125.3951,-9.0403,1172.2413],[125.3958,-9.0333,1419.3364],[125.4005,-9.0312,1455.7554],[125.407,-9.0198,1524.9171],[125.4089,-9.0196,1456.041],[125.4112,-9.0222,1374.7079],[125.4127,-9.0309,1110.1052],[125.4203,-9.04,690.9972],[125.4236,-9.0381,883.3262],[125.4272,-9.0319,1036.9541],[125.4336,-9.0256,1176.2246],[125.4344,-9.0221,1203.5959],[125.4325,-9.0115,1562.8575],[125.4259,-9.0034,1941.5173],[125.4244,-8.9983,2199.8975],[125.42529999999999,-8.9917,2313.4695],[125.43,-8.9852,2386.887],[125.4257,-8.9844,2277.27],[125.4172,-8.9792,1997.176],[125.4114,-8.9785,1791.0332],[125.4001,-8.9827,1392.9688],[125.3971,-8.9818,1323.5353],[125.3844,-8.9857,893.957],[125.3733,-8.9861,750.2885],[125.3624,-8.994,633.7504],[125.3588,-8.994,621.6292],[125.3566,-8.9962,592.4473],[125.3491,-8.9955,575.4833],[125.3479,-8.9937,529.8157],[125.3441,-8.9934,522.3239],[125.3424,-8.9903,503.8529],[125.3443,-8.9876,495.6113],[125.3436,-8.9829,475.9868],[125.3394,-8.9723,404.4916],[125.3274,-8.9626,341.6631],[125.3275,-8.9569,332.3881],[125.3252,-8.9545,322.4574],[125.3211,-8.9559,320.3825],[125.324,-8.9575,366.6389],[125.321,-8.962,345.1919],[125.3216,-8.9669,335.7014],[125.3171,-8.9683,348.3559],[125.3136,-8.973,355.5957],[125.3136,-8.9762,370.9548],[125.3115,-8.9775,365.5678],[125.3126,-8.9884,423.4441],[125.3189,-9.0003,591.4313],[125.3183,-9.0039,617.8257],[125.3143,-9.0078,740.0961],[125.3104,-9.0151,759.5567],[125.3023,-9.0159,871.8654],[125.2985,-9.0184,950.6427],[125.2853,-9.0178,937.4372],[125.278,-9.0207,1196.9824],[125.2524,-9.0619,1702.7183],[125.2299,-9.069,1650.1003],[125.2169,-9.0797,1385.8351],[125.2185,-9.0895,1221.1357],[125.2219,-9.0969,1700.8064],[125.2389,-9.0943,1526.6857],[125.256,-9.1015,1290.7198],[125.2593,-9.1036,1270.7856],[125.2601,-9.1076,1211.4724],[125.2645,-9.1095,1098.4017],[125.2723,-9.1235,650.053],[125.2764,-9.1222,630.4329],[125.2794,-9.124,590.345],[125.2822,-9.1214,579.2303],[125.2922,-9.1202,522.0665],[125.3005,-9.1139,456.568],[125.3084,-9.1159,428.9574],[125.3119,-9.1132,413.8289],[125.3198,-9.1118,399.3581],[125.3197,-9.1202,612.3913],[125.3246,-9.1258,367.0204],[125.3312,-9.1268,297.0402],[125.3332,-9.1288,286.2188],[125.3385,-9.1284,283.9519],[125.3413,-9.1255,241.5098],[125.3457,-9.1253,230.7355],[125.3543,-9.1284,214.614],[125.3572,-9.1279,193.4508],[125.3605,-9.1304,177.1335],[125.364,-9.1264,198.9309],[125.3657,-9.1192,198.3763],[125.3715,-9.1126,225.7286],[125.3714,-9.1087,213.7586],[125.374,-9.1029,224.9427],[125.3724,-9.0979,235.294],[125.3696,-9.0969,237.0426],[125.3691,-9.0946,248.074]]]]}
,"properties": {"GID_2": "TLS.5.3_1","GID_0": "TLS","country": "Timor-Leste","GID_1": "TLS.5_1","province": "Bobonaro","NL_NAME_1": "NA","county": "Bobonaro","VARNAME_2": "NA","NL_NAME_2": "NA","TYPE_2": "Subdistrito","ENGTYPE_2": "Subdistrict","CC_2": "NA","HASC_2": "NA","name": "Bobonaro.county","area_km2": 217.9663,"hist_schema_id": "Elevation0-9000","hist_area_km2": {"175": 0.1884,"200": 1.0467,"225": 1.277,"250": 1.7585,"275": 2.0935,"300": 2.261,"325": 2.7636,"350": 3.5383,"375": 3.999,"400": 4.334,"425": 4.4177,"450": 4.7109,"475": 4.1875,"500": 4.8365,"525": 4.7738,"550": 5.2344,"575": 5.2554,"600": 5.423,"625": 6.1978,"650": 5.8419,"675": 6.7005,"700": 7.0565,"725": 6.6797,"750": 7.4544,"775": 7.1193,"800": 5.5907,"825": 4.481,"850": 4.6275,"875": 4.2924,"900": 3.8318,"925": 3.9993,"950": 3.9364,"975": 3.7479,"1000": 4.397,"1025": 4.3342,"1050": 3.685,"1075": 3.5385,"1100": 3.4338,"1125": 3.2871,"1150": 3.2453,"1175": 3.1825,"1200": 3.1197,"1225": 2.6172,"1250": 1.8844,"1275": 1.7588,"1300": 1.5076,"1325": 1.6123,"1350": 1.7588,"1375": 1.717,"1400": 1.3191,"1425": 1.4238,"1450": 1.2982,"1475": 1.5913,"1500": 1.4657,"1525": 1.3819,"1550": 1.0679,"1575": 1.4029,"1600": 1.6123,"1625": 1.3819,"1650": 1.5494,"1675": 1.0678,"1700": 1.4238,"1725": 1.1516,"1750": 1.1935,"1775": 0.8794,"1800": 0.7957,"1825": 0.8375,"1850": 0.7119,"1875": 0.5863,"1900": 0.4398,"1925": 0.5445,"1950": 0.4188,"1975": 0.356,"2000": 0.2513,"2025": 0.356,"2050": 0.2932,"2075": 0.4817,"2100": 0.4398,"2125": 0.3351,"2150": 0.1466,"2175": 0.0838,"2200": 0.2722,"2225": 0.1047,"2250": 0.1257,"2275": 0.0838,"2300": 0.0628,"2325": 0.0209,"2350": 0.0419,"2375": 0.1257,"2400": 0.1047}}}