{"type":"Feature","properties":{"GID_3":"TLS.6.4.7_1","GID_0":"TLS","country":"Timor-Leste","GID_1":"TLS.6_1","province":"Covalima","NL_NAME_1":"NA","GID_2":"TLS.6.4_1","county":"Mape","NL_NAME_2":"NA","city":"Raimea","VARNAME_3":"NA","NL_NAME_3":"NA","TYPE_3":"Suco","ENGTYPE_3":"Community","CC_3":"NA","HASC_3":"NA","name":"Raimea.city"},
"geometry":{"type": "MultiPolygon","coordinates": [[[[125.4739,-9.1274,154.2733],[125.4709,-9.1311,152.2198],[125.4656,-9.1333,139.7306],[125.4629,-9.1417,126.5099],[125.4581,-9.141,134.8048],[125.4566,-9.1378,147.6111],[125.4534,-9.1513,145.004],[125.4469,-9.1633,79.72],[125.447,-9.1655,74.1565],[125.4431,-9.1685,75.0476],[125.443,-9.1733,61.0894],[125.4398,-9.1777,55.5218],[125.4418,-9.189,42.0478],[125.4361,-9.1924,35.7436],[125.437,-9.2006,25.4646],[125.4409,-9.2117,17.7439],[125.4459,-9.2157,11.9528],[125.4481,-9.2151,13.1688],[125.4485,-9.2176,12.3685],[125.4501,-9.217,14.5989],[125.4497,-9.2193,14.3955],[125.4523,-9.2243,11.0521],[125.4559,-9.2274,14.2723],[125.4524,-9.2455,5.019],[125.4564,-9.2519,0.0],[125.4877,-9.2325,3.768],[125.5028,-9.2264,0.0],[125.5027,-9.2246,3.6111],[125.5079,-9.2213,9.8587],[125.5049,-9.2197,12.347],[125.506,-9.2162,7.1892],[125.5141,-9.207,11.7477],[125.5164,-9.2003,14.5819],[125.5218,-9.1951,20.8607],[125.5277,-9.1942,25.7298],[125.5321,-9.186,34.3643],[125.54,-9.163,64.5238],[125.5298,-9.1593,148.5718],[125.5251,-9.1519,282.2457],[125.525,-9.1468,257.8378],[125.5209,-9.1421,285.2321],[125.4966,-9.1437,114.5369],[125.4946,-9.1428,110.3303],[125.4941,-9.1385,129.6277],[125.488,-9.1359,174.5208],[125.4857,-9.1321,191.9633],[125.4812,-9.132,319.5366],[125.4739,-9.1274,154.2733]]]]}}