{"type": "Feature","bbox": [124.137,-9.3791,124.2405,-9.285],"geometry": {"type": "MultiPolygon","coordinates": [[[[124.2355,-9.3751,289.0894],[124.2372,-9.3614,524.9623],[124.2405,-9.356,490.9748],[124.2331,-9.3531,550.1875],[124.2326,-9.3451,677.172],[124.2371,-9.341,735.2966],[124.2405,-9.3316,533.6852],[124.2365,-9.3309,614.9932],[124.2338,-9.3332,643.8815],[124.2186,-9.3315,905.451],[124.2135,-9.322,708.4797],[124.2083,-9.3188,569.9515],[124.2055,-9.3086,381.045],[124.1961,-9.3054,284.4077],[124.1938,-9.301,206.8161],[124.1861,-9.2998,156.8221],[124.181,-9.2924,69.6191],[124.1769,-9.2941,45.1164],[124.1721,-9.2881,17.7172],[124.1669,-9.285,1.9455],[124.1641,-9.2904,1.8941],[124.1567,-9.2956,0.0],[124.137,-9.2973,0.4613],[124.1412,-9.3075,17.4149],[124.1456,-9.3112,24.7348],[124.1502,-9.3105,30.2766],[124.1548,-9.3133,43.6894],[124.1532,-9.3165,45.9286],[124.153,-9.3249,82.4383],[124.1562,-9.3308,101.2346],[124.1558,-9.3352,137.0648],[124.1578,-9.3378,155.9035],[124.1577,-9.3403,361.1569],[124.1606,-9.3427,408.8834],[124.1626,-9.3474,488.3404],[124.1636,-9.3584,572.6021],[124.1668,-9.3616,663.9664],[124.1803,-9.3662,581.432],[124.1897,-9.3748,297.4319],[124.1917,-9.3791,250.0245],[124.1932,-9.3776,241.3585],[124.197,-9.3789,235.3148],[124.2031,-9.3778,240.9741],[124.205,-9.3706,252.3884],[124.2109,-9.3701,273.7168],[124.2121,-9.3678,264.6532],[124.2166,-9.3656,286.6322],[124.2306,-9.3759,284.4232],[124.2355,-9.3751,289.0894]]]]}
,"properties": {"GID_3": "TLS.3.1.6_1","GID_0": "TLS","country": "Timor-Leste","GID_1": "TLS.3_1","province": "Ambeno","NL_NAME_1": "NA","GID_2": "TLS.3.1_1","county": "Nitibe","NL_NAME_2": "NA","city": "Ussitaco","VARNAME_3": "UseTaku","NL_NAME_3": "NA","TYPE_3": "Suco","ENGTYPE_3": "Community","CC_3": "NA","HASC_3": "NA","name": "Ussitaco.city","area_km2": 61.67636,"hist_schema_id": "Elevation0-9000","hist_area_km2": {"0": 0.73233,"25": 1.5902,"50": 1.10894,"75": 0.75323,"100": 1.15077,"125": 1.25537,"150": 1.12983,"175": 1.17169,"200": 1.3809,"225": 1.50641,"250": 1.65281,"275": 2.36411,"300": 2.15488,"325": 2.23856,"350": 2.15487,"375": 2.51054,"400": 2.30131,"425": 2.36409,"450": 2.57329,"475": 2.23855,"500": 2.28039,"525": 2.4059,"550": 2.53142,"575": 2.4268,"600": 2.19668,"625": 2.05024,"650": 2.23854,"675": 2.11301,"700": 2.00841,"725": 1.94564,"750": 1.50632,"775": 1.15067,"800": 0.92053,"825": 0.50212,"850": 0.39751,"875": 0.25106,"900": 0.23014,"925": 0.16737,"950": 0.02092}}}