{"type": "Feature","bbox": [124.2764,-9.4946,124.3188,-9.4205],"geometry": {"type": "MultiPolygon","coordinates": [[[[124.2788,-9.4946,1430.0496],[124.2795,-9.4932,1388.625],[124.2825,-9.4932,1334.5925],[124.2954,-9.4698,1004.3313],[124.2999,-9.4659,971.8097],[124.3096,-9.4615,954.2184],[124.3122,-9.4557,961.5848],[124.3136,-9.4423,944.0246],[124.3188,-9.4332,793.4948],[124.3165,-9.4288,539.9381],[124.3188,-9.4205,461.8333],[124.307,-9.4207,877.1194],[124.2933,-9.4288,728.3569],[124.2841,-9.4299,626.0881],[124.2764,-9.4362,456.4731],[124.2841,-9.4447,497.001],[124.287,-9.4512,524.5771],[124.2836,-9.4584,655.5936],[124.2846,-9.4628,705.2134],[124.287,-9.4646,778.0548],[124.2865,-9.4687,837.8038],[124.2882,-9.4724,867.8491],[124.2832,-9.4795,984.757],[124.2824,-9.4853,1147.219],[124.2794,-9.4889,1257.1062],[124.2788,-9.4946,1430.0496]]]]}
,"properties": {"GID_3": "TLS.3.4.3_1","GID_0": "TLS","country": "Timor-Leste","GID_1": "TLS.3_1","province": "Ambeno","NL_NAME_1": "NA","GID_2": "TLS.3.4_1","county": "Passabe","NL_NAME_2": "NA","city": "Malelat","VARNAME_3": "NA","NL_NAME_3": "NA","TYPE_3": "Suco","ENGTYPE_3": "Community","CC_3": "NA","HASC_3": "NA","name": "Malelat.city","area_km2": 17.35914,"hist_schema_id": "Elevation0-9000","hist_area_km2": {"450": 0.16732,"475": 0.16732,"500": 0.39739,"525": 0.48105,"550": 0.35556,"575": 0.6902,"600": 0.6902,"625": 0.85752,"650": 1.12942,"675": 0.9621,"700": 1.35948,"725": 1.19215,"750": 0.98299,"775": 0.96207,"800": 0.89934,"825": 0.89932,"850": 0.75293,"875": 0.732,"900": 0.66925,"925": 0.50194,"950": 0.62742,"975": 0.39736,"1000": 0.37644,"1025": 0.20913,"1050": 0.08365,"1075": 0.10456,"1100": 0.06274,"1125": 0.10456,"1150": 0.04182,"1175": 0.10456,"1200": 0.06274,"1225": 0.04182,"1250": 0.08365,"1275": 0.08365,"1300": 0.04182,"1325": 0.04182,"1350": 0.04182}}}