{"type":"Feature","properties":{"GID_2":"TLS.4.1_1","GID_0":"TLS","country":"Timor-Leste","GID_1":"TLS.4_1","province":"Baucau","NL_NAME_1":"NA","county":"Baguia","VARNAME_2":"NA","NL_NAME_2":"NA","TYPE_2":"Subdistrito","ENGTYPE_2":"Subdistrict","CC_2":"NA","HASC_2":"NA","name":"Baguia.county"},
"geometry":{"type": "MultiPolygon","coordinates": [[[[126.6212,-8.6629,800.884],[126.6214,-8.6601,808.9826],[126.6274,-8.6513,733.36],[126.6455,-8.6472,389.8928],[126.6517,-8.6376,256.2393],[126.6575,-8.6352,229.4308],[126.6664,-8.6386,188.8521],[126.6705,-8.6423,143.5753],[126.6731,-8.6415,137.1104],[126.676,-8.645,108.5434],[126.6825,-8.6455,140.6678],[126.6852,-8.6481,104.7144],[126.6901,-8.647,131.1192],[126.7056,-8.6485,91.1201],[126.7095,-8.6463,106.8459],[126.7113,-8.6468,119.9231],[126.7222,-8.6589,66.5023],[126.7292,-8.6626,56.1361],[126.7282,-8.6655,56.5639],[126.7298,-8.6716,50.3475],[126.7325,-8.6723,49.4087],[126.7348,-8.6776,46.5121],[126.7299,-8.6871,33.3144],[126.734,-8.6853,36.7279],[126.7364,-8.6863,44.4894],[126.739,-8.6815,41.8097],[126.7417,-8.6799,72.9467],[126.7417,-8.6766,48.1636],[126.7453,-8.6739,56.8911],[126.7475,-8.6655,78.3005],[126.7548,-8.6568,72.2657],[126.7596,-8.6577,81.3605],[126.765,-8.6557,73.8758],[126.7638,-8.6531,90.5387],[126.7661,-8.6504,80.5018],[126.766,-8.6464,80.7775],[126.7747,-8.6394,94.2032],[126.7814,-8.6271,112.7388],[126.7867,-8.6234,182.6799],[126.7925,-8.6222,147.1389],[126.7972,-8.6229,168.2827],[126.8063,-8.6199,169.4652],[126.8103,-8.6216,152.0017],[126.8103,-8.6174,179.8055],[126.8085,-8.6162,177.6858],[126.8122,-8.6134,168.683],[126.8092,-8.6071,175.7079],[126.8104,-8.6045,192.0892],[126.8095,-8.6,202.0049],[126.8082,-8.5984,189.4234],[126.8042,-8.5987,236.1837],[126.8012,-8.5921,325.2084],[126.7968,-8.5877,385.4034],[126.7945,-8.5877,410.8523],[126.7926,-8.5844,450.6729],[126.7855,-8.5819,593.2611],[126.7858,-8.577,717.2563],[126.7825,-8.566,1054.7919],[126.7656,-8.5569,834.3047],[126.7605,-8.562,826.9692],[126.757,-8.5684,1043.3622],[126.7437,-8.5746,1003.2346],[126.735,-8.576,921.4788],[126.7255,-8.5803,1006.5104],[126.7165,-8.5814,923.5704],[126.7031,-8.5771,610.2186],[126.6999,-8.5745,538.433],[126.6968,-8.5654,444.0661],[126.6936,-8.5611,384.0064],[126.6899,-8.5616,411.0777],[126.6847,-8.5566,467.9585],[126.6787,-8.5576,570.6722],[126.6633,-8.5508,959.1751],[126.6569,-8.5392,861.8896],[126.6513,-8.5337,760.4495],[126.6442,-8.5296,749.7495],[126.6378,-8.5222,518.4188],[126.6368,-8.5239,531.6389],[126.6401,-8.5327,856.1323],[126.6406,-8.5391,1100.3561],[126.6395,-8.542,1097.5034],[126.6326,-8.546,1115.2571],[126.6298,-8.5576,1113.4159],[126.6261,-8.5639,1090.0896],[126.6322,-8.5789,1010.787],[126.6326,-8.5854,922.4487],[126.6292,-8.5874,1070.5562],[126.6201,-8.6015,1239.9224],[126.6137,-8.6067,1392.1863],[126.6122,-8.6098,1755.4633],[126.6037,-8.6147,1825.8809],[126.6052,-8.6187,1719.4575],[126.6044,-8.6205,1637.2271],[126.6062,-8.6215,1611.5045],[126.6084,-8.6297,1638.3418],[126.6073,-8.6343,1564.3252],[126.6038,-8.6398,1930.6349],[126.5923,-8.6429,2198.7388],[126.5895,-8.6476,2132.6714],[126.5896,-8.6528,2076.7451],[126.5872,-8.6573,1976.6537],[126.5876,-8.66,1621.6178],[126.5951,-8.6675,1889.4587],[126.5975,-8.6721,1721.8982],[126.61279999999999,-8.6883,999.7985],[126.6131,-8.6855,958.0375],[126.618,-8.6829,855.9373],[126.6188,-8.6782,881.0409],[126.6226,-8.6754,811.545],[126.6213,-8.6697,839.434],[126.6225,-8.6635,772.2958],[126.6212,-8.6629,800.884]]]]}}