{"type": "Feature","bbox": [124.3245,-9.2337,124.3489,-9.1961],"geometry": {"type": "MultiPolygon","coordinates": [[[[124.3489,-9.1961,0.0],[124.3308,-9.1963,2.1508],[124.328,-9.1978,0.0],[124.33,-9.2012,5.2372],[124.3267,-9.2078,29.6828],[124.3263,-9.2191,13.7624],[124.3245,-9.225,15.0677],[124.3314,-9.2337,21.3714],[124.343,-9.2298,32.0811],[124.3451,-9.2265,44.2849],[124.3488,-9.225,89.9324],[124.3489,-9.1961,0.0]]]]}
,"properties": {"GID_3": "TLS.3.3.12_1","GID_0": "TLS","country": "Timor-Leste","GID_1": "TLS.3_1","province": "Ambeno","NL_NAME_1": "NA","GID_2": "TLS.3.3_1","county": "PanteMacassar","NL_NAME_2": "NA","city": "TibalPah","VARNAME_3": "Costa","NL_NAME_3": "NA","TYPE_3": "Suco","ENGTYPE_3": "Community","CC_3": "NA","HASC_3": "NA","name": "Tibal_Pah.city","area_km2": 8.957461,"hist_schema_id": "Elevation0-9000","hist_area_km2": {"0": 3.034746,"25": 3.683376,"50": 0.899926,"75": 0.606925,"100": 0.25114,"125": 0.209282,"150": 0.125569,"175": 0.146497}}}