{"type":"Feature","properties":{"GID_3":"TLS.4.6.2_1","GID_0":"TLS","country":"Timor-Leste","GID_1":"TLS.4_1","province":"Baucau","NL_NAME_1":"NA","GID_2":"TLS.4.6_1","county":"Venilale","NL_NAME_2":"NA","city":"Bahamori","VARNAME_3":"BahaMori","NL_NAME_3":"NA","TYPE_3":"Suco","ENGTYPE_3":"Community","CC_3":"NA","HASC_3":"NA","name":"Bahamori.city"},
"geometry":{"type": "MultiPolygon","coordinates": [[[[126.3441,-8.6269,443.9265],[126.3741,-8.626,740.1566],[126.3937,-8.6202,576.9056],[126.3941,-8.61,531.9204],[126.4022,-8.6036,485.6869],[126.3994,-8.6019,522.9768],[126.396,-8.605,528.5146],[126.3909,-8.6005,628.7695],[126.3804,-8.5989,739.9044],[126.3704,-8.6093,795.6324],[126.3652,-8.6126,704.1097],[126.3622,-8.6174,650.2495],[126.3515,-8.62,502.3412],[126.3468,-8.6227,490.5475],[126.3441,-8.6269,443.9265]]],
[[[126.453,-8.5999,97.5667],[126.4494,-8.6008,99.8652],[126.4488,-8.5991,125.3569],[126.4466,-8.5994,125.334],[126.4438,-8.5939,138.0112],[126.4402,-8.5969,145.9846],[126.4296,-8.5958,220.9927],[126.4278,-8.5937,236.5309],[126.4196,-8.6005,329.4536],[126.4084,-8.6058,420.0712],[126.4126,-8.6091,460.296],[126.4111,-8.6202,591.2653],[126.4455,-8.6208,294.5717],[126.4469,-8.6293,350.2476],[126.4533,-8.6279,265.0969],[126.4605,-8.6211,120.4676],[126.4622,-8.6172,117.0842],[126.4618,-8.612,112.7946],[126.4595,-8.6127,113.4311],[126.4593,-8.61,115.2937],[126.4611,-8.6088,112.1275],[126.4654,-8.6097,109.7864],[126.4662,-8.606,109.217],[126.4625,-8.6046,105.0091],[126.4651,-8.5975,132.0398],[126.4609,-8.595,100.2451],[126.4542,-8.601,95.1034],[126.453,-8.5999,97.5667]]]]}}