{"type": "Feature","bbox": [126.6497,-8.6349,126.6863,-8.6008],"geometry": {"type": "MultiPolygon","coordinates": [[[[126.6498,-8.6258,513.1346],[126.6635,-8.6292,290.9264],[126.6674,-8.6282,239.4031],[126.6704,-8.6306,250.7843],[126.6738,-8.6305,187.3287],[126.677,-8.6349,154.7608],[126.6799,-8.6283,272.6681],[126.6776,-8.625,306.3423],[126.6847,-8.6145,514.309],[126.6863,-8.6063,573.4503],[126.6843,-8.6068,587.1489],[126.6768,-8.6008,365.3383],[126.6744,-8.6045,361.4546],[126.6682,-8.6048,262.9125],[126.6659,-8.608,234.628],[126.6682,-8.6108,232.5702],[126.6652,-8.6106,243.7547],[126.6624,-8.6081,295.3821],[126.6607,-8.609,318.633],[126.6612,-8.6112,327.6028],[126.6591,-8.6134,379.7656],[126.6615,-8.6176,266.5069],[126.6523,-8.6205,401.8518],[126.6497,-8.6233,471.2499],[126.6498,-8.6258,513.1346]]]]}
,"properties": {"GID_3": "TLS.4.1.2_1","GID_0": "TLS","country": "Timor-Leste","GID_1": "TLS.4_1","province": "Baucau","NL_NAME_1": "NA","GID_2": "TLS.4.1_1","county": "Baguia","NL_NAME_2": "NA","city": "AlauaAtas","VARNAME_3": "AlawaLeten","NL_NAME_3": "NA","TYPE_3": "Suco","ENGTYPE_3": "Community","CC_3": "NA","HASC_3": "NA","name": "Alaua_Atas.city","area_km2": 7.672399,"hist_schema_id": "Elevation0-9000","hist_area_km2": {"150": 0.062887,"175": 0.251549,"200": 0.817541,"225": 0.838508,"250": 0.754661,"275": 0.649844,"300": 0.817549,"325": 0.503111,"350": 0.503106,"375": 0.607925,"400": 0.251559,"425": 0.419261,"450": 0.188668,"475": 0.314444,"500": 0.167706,"525": 0.167705,"550": 0.041927,"575": 0.167706,"600": 0.146743}}}