{"type":"Feature","properties":{"GID_2":"TLS.12.4_1","GID_0":"TLS","country":"Timor-Leste","GID_1":"TLS.12_1","province":"Manufahi","NL_NAME_1":"NA","county":"Turiscai","VARNAME_2":"NA","NL_NAME_2":"NA","TYPE_2":"Subdistrito","ENGTYPE_2":"Subdistrict","CC_2":"NA","HASC_2":"NA","name":"Turiscai.county"},
"geometry":{"type": "MultiPolygon","coordinates": [[[[125.6824,-8.896,713.8182],[125.6822,-8.8984,646.6992],[125.7031,-8.9014,988.7345],[125.709,-8.908,759.7586],[125.7213,-8.9105,502.3764],[125.7256,-8.915,455.9479],[125.7252,-8.9089,456.7116],[125.7295,-8.9093,471.5322],[125.732,-8.9068,483.3029],[125.7292,-8.9026,569.9026],[125.7323,-8.8957,550.9648],[125.7441,-8.8914,670.2972],[125.7471,-8.8888,715.2362],[125.7543,-8.888,796.7573],[125.759,-8.8892,858.1531],[125.7634,-8.882,1266.1388],[125.777,-8.884,891.3771],[125.781,-8.8863,871.6578],[125.7943,-8.8874,649.3306],[125.8014,-8.8779,916.4316],[125.799,-8.8661,1047.9075],[125.8014,-8.8546,1178.7861],[125.8144,-8.8514,904.045],[125.8168,-8.8534,713.2267],[125.8193,-8.8508,607.9138],[125.8123,-8.8403,645.0102],[125.8068,-8.8361,671.4227],[125.8086,-8.8326,747.6851],[125.8069,-8.8301,743.4957],[125.8089,-8.8259,1051.4147],[125.8042,-8.8233,921.3539],[125.8028,-8.8178,1201.3665],[125.8002,-8.8146,1298.7573],[125.8005,-8.8128,1283.7256],[125.8038,-8.8111,1310.139],[125.8041,-8.8085,1310.006],[125.8086,-8.8054,1387.7485],[125.8098,-8.7995,1488.962],[125.8158,-8.7904,1644.6414],[125.8202,-8.7802,1544.4867],[125.814,-8.7785,1608.7328],[125.8159,-8.773,1391.2351],[125.8147,-8.7678,1189.7769],[125.8174,-8.7666,1229.7965],[125.8212,-8.7576,1035.7632],[125.8215,-8.7532,846.1483],[125.8194,-8.748,734.0429],[125.8136,-8.7532,1038.9467],[125.8108,-8.7535,1114.0354],[125.8085,-8.7521,1097.1864],[125.8082,-8.7486,1115.2451],[125.8054,-8.745,1110.9348],[125.8007,-8.7487,807.1594],[125.797,-8.7492,704.0585],[125.7935,-8.7481,659.7144],[125.7927,-8.7454,607.2002],[125.7885,-8.7425,561.4862],[125.7856,-8.744,501.8123],[125.7785,-8.7392,464.5456],[125.7697,-8.7393,458.5987],[125.7714,-8.7466,464.5075],[125.7681,-8.7547,451.4518],[125.7637,-8.7568,455.7457],[125.7638,-8.7594,472.5664],[125.7597,-8.7591,485.0247],[125.7577,-8.7632,502.1461],[125.756,-8.7614,495.7655],[125.7541,-8.7618,487.5883],[125.7531,-8.7723,532.7261],[125.7487,-8.7741,527.4476],[125.7453,-8.7801,522.7759],[125.7415,-8.7805,531.8256],[125.7374,-8.7861,532.9223],[125.7233,-8.7822,588.7612],[125.7198,-8.783,667.8872],[125.7183,-8.7855,665.3799],[125.7084,-8.7862,826.9365],[125.6984,-8.7961,863.9855],[125.6892,-8.7986,953.7111],[125.6888,-8.8027,1054.1886],[125.6824,-8.8099,1150.9495],[125.685,-8.8137,1393.5195],[125.6802,-8.8186,1473.587],[125.6854,-8.8281,1143.2493],[125.6836,-8.8299,1199.9281],[125.6833,-8.8376,1244.1523],[125.6889,-8.8409,1090.6233],[125.6828,-8.8441,1194.4196],[125.6826,-8.8464,1195.7791],[125.6893,-8.8472,1061.6384],[125.69,-8.849,1064.9103],[125.6857,-8.8515,1188.7556],[125.6849,-8.8557,1261.2869],[125.6858,-8.8574,1222.8822],[125.6839,-8.862,1071.324],[125.6856,-8.8637,1067.0573],[125.6839,-8.8666,1231.1509],[125.6844,-8.8689,1298.8099],[125.6902,-8.8695,1262.7588],[125.6865,-8.8747,1035.0286],[125.6856,-8.8795,941.8786],[125.6876,-8.8831,882.9996],[125.6872,-8.8892,760.7377],[125.6824,-8.896,713.8182]]]]}}