{"type": "Feature","bbox": [125.1354,-9.416,125.1754,-9.3234],"geometry": {"type": "MultiPolygon","coordinates": [[[[125.1586,-9.3358,79.9486],[125.1547,-9.3341,97.9648],[125.1513,-9.3292,88.9958],[125.1509,-9.3234,94.1044],[125.1457,-9.3238,115.7452],[125.1373,-9.3314,176.2868],[125.1354,-9.3365,243.5683],[125.1366,-9.3439,375.0878],[125.1421,-9.3468,347.9247],[125.1446,-9.3564,250.2275],[125.1448,-9.3637,215.5802],[125.1419,-9.3677,169.3051],[125.1423,-9.3721,142.0683],[125.1444,-9.3745,120.1496],[125.1415,-9.379,90.0823],[125.1444,-9.3814,65.2524],[125.151,-9.3809,69.3906],[125.1508,-9.3837,29.5475],[125.1532,-9.3859,18.3488],[125.1491,-9.406,6.2758],[125.1508,-9.4104,4.7513],[125.1533,-9.4113,7.5577],[125.1518,-9.416,3.2758],[125.1733,-9.4122,3.2643],[125.1715,-9.4124,3.2643],[125.1754,-9.3396,76.6625],[125.1704,-9.3371,75.5231],[125.1586,-9.3358,79.9486]]]]}
,"properties": {"GID_3": "TLS.6.6.2_1","GID_0": "TLS","country": "Timor-Leste","GID_1": "TLS.6_1","province": "Covalima","NL_NAME_1": "NA","GID_2": "TLS.6.6_1","county": "Tilomar","NL_NAME_2": "NA","city": "Halimea","VARNAME_3": "Mau-Demu","NL_NAME_3": "NA","TYPE_3": "Suco","ENGTYPE_3": "Community","CC_3": "NA","HASC_3": "NA","name": "Halimea.city","area_km2": 28.05297,"hist_schema_id": "Elevation0-9000","hist_area_km2": {"0": 5.6686,"25": 6.58943,"50": 1.40161,"75": 1.10877,"100": 1.48534,"125": 2.09205,"150": 1.77824,"175": 1.69455,"200": 1.61089,"225": 1.27617,"250": 0.89959,"275": 0.98327,"300": 0.54394,"325": 0.48118,"350": 0.25105,"375": 0.18829}}}