{"type":"Feature","properties":{"GID_3":"TLS.4.3.8_1","GID_0":"TLS","country":"Timor-Leste","GID_1":"TLS.4_1","province":"Baucau","NL_NAME_1":"NA","GID_2":"TLS.4.3_1","county":"Laga","NL_NAME_2":"NA","city":"Soba","VARNAME_3":"NA","NL_NAME_3":"NA","TYPE_3":"Suco","ENGTYPE_3":"Community","CC_3":"NA","HASC_3":"NA","name":"Soba.city"},
"geometry":{"type": "MultiPolygon","coordinates": [[[[126.6481,-8.4934,311.5341],[126.6442,-8.488,309.1017],[126.6345,-8.4822,252.272],[126.6309,-8.4761,174.8129],[126.6267,-8.4728,142.9603],[126.625,-8.4578,11.0705],[126.6217,-8.4547,1.6284],[126.6082,-8.4604,1.2925],[126.5983,-8.4697,4.9476],[126.5935,-8.4697,2.1053],[126.5937,-8.4727,5.879],[126.6017,-8.4806,36.2909],[126.6021,-8.485,40.8931],[126.615,-8.4886,78.7327],[126.6198,-8.4865,118.9857],[126.6259,-8.4895,126.0103],[126.6332,-8.4897,152.464],[126.644,-8.496,260.2104],[126.6481,-8.4934,311.5341]]]]}}