{"type": "Feature","bbox": [125.5114,-8.8457,125.5835,-8.81],"geometry": {"type": "MultiPolygon","coordinates": [[[[125.5213,-8.8136,1713.4403],[125.5204,-8.8179,1752.2286],[125.5144,-8.8244,1935.4669],[125.5169,-8.834,2028.5985],[125.5125,-8.8401,2245.7324],[125.5114,-8.8452,2291.9531],[125.534,-8.8457,1803.4636],[125.5424,-8.8386,1815.8081],[125.548,-8.8361,1992.2495],[125.5522,-8.837,1986.7412],[125.5572,-8.8408,1943.9623],[125.5631,-8.8403,1889.8746],[125.5659,-8.8385,1816.4077],[125.565,-8.836,1835.3826],[125.5693,-8.8331,1923.9983],[125.5771,-8.8314,1763.3232],[125.5835,-8.8251,1797.5],[125.581,-8.8232,1879.0112],[125.5793,-8.8187,1779.8094],[125.5428,-8.8192,1455.7057],[125.5229,-8.81,1673.0781],[125.5213,-8.8136,1713.4403]]]]}
,"properties": {"GID_3": "TLS.1.1.6_1","GID_0": "TLS","country": "Timor-Leste","GID_1": "TLS.1_1","province": "Aileu","NL_NAME_1": "NA","GID_2": "TLS.1.1_1","county": "Aileu","NL_NAME_2": "NA","city": "FatuBossa","VARNAME_3": "Fatubosa","NL_NAME_3": "NA","TYPE_3": "Suco","ENGTYPE_3": "Community","CC_3": "NA","HASC_3": "NA","name": "Fatu_Bossa.city","area_km2": 17.89213,"hist_schema_id": "Elevation0-9000","hist_area_km2": {"1350": 0.02095,"1375": 0.10476,"1400": 0.14666,"1425": 0.08381,"1450": 0.27237,"1475": 0.31427,"1500": 0.41903,"1525": 0.67045,"1550": 0.83805,"1575": 1.02661,"1600": 0.71234,"1625": 0.87995,"1650": 0.87995,"1675": 1.08945,"1700": 1.0266,"1725": 1.08944,"1750": 1.21515,"1775": 0.90089,"1800": 1.1942,"1825": 0.75423,"1850": 0.50282,"1875": 0.73327,"1900": 0.41901,"1925": 0.37711,"1950": 0.46092,"1975": 0.27236,"2000": 0.35616,"2025": 0.14665,"2050": 0.10475,"2075": 0.10475,"2100": 0.1676,"2125": 0.06285,"2150": 0.10475,"2175": 0.1257,"2200": 0.0838,"2225": 0.0838,"2250": 0.06285,"2300": 0.0838}}}