{"type": "Feature","bbox": [125.5316,-8.6364,125.5605,-8.617],"geometry": {"type": "MultiPolygon","coordinates": [[[[125.5316,-8.6308,427.4094],[125.5394,-8.6346,756.5214],[125.5589,-8.6364,715.3126],[125.5605,-8.6272,296.6801],[125.5572,-8.6242,260.3719],[125.5502,-8.6234,198.1122],[125.5482,-8.6211,247.2451],[125.5442,-8.6224,160.5383],[125.5423,-8.6196,157.6449],[125.5374,-8.617,126.672],[125.5317,-8.6259,291.5418],[125.5316,-8.6308,427.4094]]]]}
,"properties": {"GID_3": "TLS.1.2.3_1","GID_0": "TLS","country": "Timor-Leste","GID_1": "TLS.1_1","province": "Aileu","NL_NAME_1": "NA","GID_2": "TLS.1.2_1","county": "LauLara","NL_NAME_2": "NA","city": "Fucuculao","VARNAME_3": "Tuhumeta","NL_NAME_3": "NA","TYPE_3": "Suco","ENGTYPE_3": "Community","CC_3": "NA","HASC_3": "NA","name": "Fucuculao.city","area_km2": 4.423036,"hist_schema_id": "Elevation0-9000","hist_area_km2": {"125": 0.041926,"150": 0.104813,"175": 0.125776,"200": 0.104813,"225": 0.146738,"250": 0.1677,"275": 0.209625,"300": 0.209625,"325": 0.188662,"350": 0.230586,"375": 0.188661,"400": 0.188661,"425": 0.230585,"450": 0.209622,"475": 0.167698,"500": 0.18866,"525": 0.230584,"550": 0.272508,"575": 0.167697,"600": 0.167696,"625": 0.20962,"650": 0.188658,"675": 0.209619,"700": 0.146733,"725": 0.083848,"750": 0.020962,"775": 0.020962}}}