{"type": "Feature","bbox": [125.5662,-8.7902,125.6548,-8.6584],"geometry": {"type": "MultiPolygon","coordinates": [[[[125.568,-8.7322,917.0159],[125.5672,-8.734,909.4346],[125.5689,-8.7376,930.4904],[125.567,-8.7395,905.5856],[125.5687,-8.7406,922.3927],[125.5662,-8.7421,912.7953],[125.5669,-8.7444,900.1929],[125.5693,-8.7447,949.5685],[125.5672,-8.7478,899.9011],[125.5724,-8.7528,892.3458],[125.5766,-8.7542,892.5577],[125.575,-8.7598,899.5255],[125.5808,-8.7564,882.2747],[125.5917,-8.7551,886.9927],[125.5964,-8.7512,871.7671],[125.5998,-8.7507,870.0992],[125.5998,-8.749,868.2479],[125.6037,-8.7453,884.6766],[125.6107,-8.7417,862.283],[125.6156,-8.745,856.9471],[125.6196,-8.7539,1019.002],[125.6254,-8.7595,1229.5742],[125.6283,-8.7664,1162.5581],[125.6277,-8.7791,990.6133],[125.6247,-8.7858,923.778],[125.6254,-8.7871,920.8834],[125.6278,-8.7883,915.619],[125.6298,-8.786,937.7462],[125.6328,-8.7878,903.461],[125.633,-8.7863,903.461],[125.6353,-8.7859,911.6301],[125.6354,-8.7883,897.1486],[125.6385,-8.7879,904.085],[125.6419,-8.7902,890.6557],[125.6429,-8.788,877.61],[125.6448,-8.7884,886.4653],[125.6443,-8.7847,893.8901],[125.646,-8.7834,866.3444],[125.6467,-8.7772,864.3234],[125.6451,-8.7741,839.2287],[125.6498,-8.7665,828.8684],[125.6548,-8.7633,821.7577],[125.6498,-8.7594,872.9142],[125.644,-8.74,837.3245],[125.6373,-8.7387,849.7973],[125.6289,-8.7446,866.2717],[125.6239,-8.7393,958.5812],[125.623,-8.7355,1056.6039],[125.6235,-8.7327,1105.9111],[125.629,-8.7255,1263.3662],[125.6227,-8.7081,1296.0011],[125.6273,-8.6961,1338.8801],[125.6239,-8.6887,1173.7627],[125.6272,-8.6852,1265.407],[125.6262,-8.6749,1263.1903],[125.6246,-8.6717,1197.8435],[125.6258,-8.6686,1186.1385],[125.6326,-8.6665,1319.2036],[125.6364,-8.6634,1374.3616],[125.6357,-8.6588,1456.4785],[125.6306,-8.6584,1431.495],[125.62,-8.6659,1271.7615],[125.6137,-8.6738,1095.5386],[125.6161,-8.6792,1143.5153],[125.616,-8.6883,1111.9861],[125.6123,-8.6969,1330.3276],[125.6101,-8.6978,1329.7218],[125.6099,-8.7071,1183.4485],[125.6068,-8.7119,1043.8245],[125.595,-8.7174,962.0188],[125.5833,-8.7177,931.8062],[125.5763,-8.7285,916.7264],[125.5727,-8.7278,923.0667],[125.572,-8.7319,916.6032],[125.568,-8.7322,917.0159]]]]}
,"properties": {"GID_3": "TLS.1.1.4_1","GID_0": "TLS","country": "Timor-Leste","GID_1": "TLS.1_1","province": "Aileu","NL_NAME_1": "NA","GID_2": "TLS.1.1_1","county": "Aileu","NL_NAME_2": "NA","city": "Fahiria","VARNAME_3": "NA","NL_NAME_3": "NA","TYPE_3": "Suco","ENGTYPE_3": "Community","CC_3": "NA","HASC_3": "NA","name": "Fahiria.city","area_km2": 43.56822,"hist_schema_id": "Elevation0-9000","hist_area_km2": {"800": 0.02095,"825": 0.33528,"850": 1.1316,"875": 1.92788,"900": 2.64036,"925": 3.45768,"950": 2.78711,"975": 2.8080599999999998,"1000": 2.70327,"1025": 2.26323,"1050": 2.82904,"1075": 2.13752,"1100": 2.59857,"1125": 2.59859,"1150": 2.03278,"1175": 1.96995,"1200": 2.20052,"1225": 2.07484,"1250": 1.52995,"1275": 1.42517,"1300": 1.02696,"1325": 0.56587,"1350": 0.18863,"1375": 0.06288,"1400": 0.1048,"1425": 0.12576,"1450": 0.02096}}}