{"type":"Feature","properties":{"GID_3":"TLS.6.4.4_1","GID_0":"TLS","country":"Timor-Leste","GID_1":"TLS.6_1","province":"Covalima","NL_NAME_1":"NA","GID_2":"TLS.6.4_1","county":"Mape","NL_NAME_2":"NA","city":"Lour","VARNAME_3":"Loore","NL_NAME_3":"NA","TYPE_3":"Suco","ENGTYPE_3":"Community","CC_3":"NA","HASC_3":"NA","name":"Lour.city"},
"geometry":{"type": "MultiPolygon","coordinates": [[[[125.4749,-9.0764,268.9968],[125.4637,-9.071,297.7792],[125.4569,-9.0734,320.5341],[125.4536,-9.0793,390.9511],[125.4447,-9.0866,499.8737],[125.4417,-9.095,375.9655],[125.4342,-9.1016,291.8253],[125.4303,-9.1093,248.3975],[125.4369,-9.1145,232.1283],[125.4422,-9.1255,207.7008],[125.4485,-9.1275,176.4133],[125.4522,-9.131,164.4046],[125.4581,-9.141,134.8048],[125.4635,-9.1413,126.5099],[125.4661,-9.1327,145.1912],[125.4735,-9.1288,153.7342],[125.4736,-9.1242,160.4326],[125.4775,-9.1172,174.0669],[125.481,-9.1061,198.7406],[125.4799,-9.0972,226.2541],[125.4744,-9.0873,239.0104],[125.4765,-9.0822,253.6238],[125.4749,-9.0764,268.9968]]]]}}