{"type": "Feature","bbox": [126.4161,-8.5241,126.5048,-8.4827],"geometry": {"type": "MultiPolygon","coordinates": [[[[126.4161,-8.4934,528.5933],[126.4189,-8.5112,530.0671],[126.44,-8.5118,439.7998],[126.4467,-8.518,335.7386],[126.4581,-8.5241,163.9457],[126.4592,-8.5237,163.9457],[126.4582,-8.5217,184.6653],[126.4592,-8.5192,202.8876],[126.4571,-8.5168,231.2484],[126.4628,-8.5093,237.712],[126.4774,-8.5161,34.1032],[126.4813,-8.51,43.8052],[126.4894,-8.5088,47.691],[126.4955,-8.5037,35.2153],[126.5041,-8.5016,43.8233],[126.5048,-8.4995,23.6003],[126.5006,-8.4999,59.246],[126.4947,-8.497,62.2805],[126.4854,-8.487,165.1018],[126.4787,-8.4827,263.6469],[126.4737,-8.4833,317.323],[126.471,-8.4856,358.0564],[126.4575,-8.4863,459.5385],[126.4543,-8.4918,458.8551],[126.452,-8.4876,467.1653],[126.4422,-8.4841,480.3509],[126.43,-8.4838,512.3651],[126.4161,-8.4934,528.5933]]]]}
,"properties": {"GID_3": "TLS.4.2.3_1","GID_0": "TLS","country": "Timor-Leste","GID_1": "TLS.4_1","province": "Baucau","NL_NAME_1": "NA","GID_2": "TLS.4.2_1","county": "Baucau","NL_NAME_2": "NA","city": "Buibau","VARNAME_3": "NA","NL_NAME_3": "NA","TYPE_3": "Suco","ENGTYPE_3": "Community","CC_3": "NA","HASC_3": "NA","name": "Buibau.city","area_km2": 25.41482,"hist_schema_id": "Elevation0-9000","hist_area_km2": {"25": 0.14678,"50": 0.85973,"75": 1.27912,"100": 1.04846,"125": 0.50326,"150": 0.79683,"175": 0.71296,"200": 0.85973,"225": 1.13234,"250": 0.83877,"275": 1.17427,"300": 1.00653,"325": 0.8807,"350": 1.00652,"375": 0.92265,"400": 0.92265,"425": 1.06944,"450": 1.00653,"475": 2.26471,"500": 4.19392,"525": 2.7889}}}