{"type":"Feature","properties":{"GID_3":"TLS.5.3.15_1","GID_0":"TLS","country":"Timor-Leste","GID_1":"TLS.5_1","province":"Bobonaro","NL_NAME_1":"NA","GID_2":"TLS.5.3_1","county":"Bobonaro","NL_NAME_2":"NA","city":"Sibuni","VARNAME_3":"NA","NL_NAME_3":"NA","TYPE_3":"Suco","ENGTYPE_3":"Community","CC_3":"NA","HASC_3":"NA","name":"Sibuni.city"},
"geometry":{"type": "MultiPolygon","coordinates": [[[[125.3132,-9.0748,788.9369],[125.3082,-9.084,998.2023],[125.2993,-9.0924,1058.4529],[125.2963,-9.1061,514.8901],[125.3259,-9.0905,727.3558],[125.3387,-9.0974,398.9659],[125.3478,-9.093,311.6311],[125.3508,-9.0943,305.4078],[125.3516,-9.0932,305.4078],[125.3476,-9.0825,324.1317],[125.3381,-9.0726,354.5514],[125.3375,-9.0692,336.6177],[125.335,-9.0666,349.3659],[125.3282,-9.0649,369.377],[125.3277,-9.0621,372.2722],[125.3254,-9.0602,379.9286],[125.3168,-9.0687,588.4993],[125.3132,-9.0748,788.9369]]]]}}