{"type":"Feature","properties":{"GID_3":"TLS.6.3.2_1","GID_0":"TLS","country":"Timor-Leste","GID_1":"TLS.6_1","province":"Covalima","NL_NAME_1":"NA","GID_2":"TLS.6.3_1","county":"Fohorem","NL_NAME_2":"NA","city":"Dato-Tolu","VARNAME_3":"DatoTolu","NL_NAME_3":"NA","TYPE_3":"Suco","ENGTYPE_3":"Community","CC_3":"NA","HASC_3":"NA","name":"Dato-Tolu.city"},
"geometry":{"type": "MultiPolygon","coordinates": [[[[125.145,-9.2132,1714.6685],[125.1361,-9.2142,1604.1525],[125.1325,-9.2112,1608.5945],[125.1296,-9.2113,1575.0327],[125.1217,-9.2203,1501.9155],[125.1142,-9.222,1556.5001],[125.1156,-9.2283,1236.4725],[125.1123,-9.2499,791.8316],[125.1159,-9.2595,584.6835],[125.1156,-9.2637,503.2767],[125.1204,-9.2713,251.3401],[125.1305,-9.2676,300.7834],[125.1349,-9.2707,465.6396],[125.1502,-9.2682,686.0291],[125.1529,-9.2727,539.3721],[125.1647,-9.2789,260.1413],[125.1682,-9.2817,204.8327],[125.17,-9.2856,185.7053],[125.1744,-9.2868,160.1407],[125.1739,-9.2791,167.5503],[125.1805,-9.276,180.2838],[125.1933,-9.2586,231.1554],[125.1821,-9.2501,242.789],[125.1811,-9.2468,276.7404],[125.183,-9.2381,282.9071],[125.1764,-9.2311,532.2727],[125.1705,-9.2276,699.742],[125.1653,-9.2162,1038.0604],[125.1596,-9.2136,1180.2338],[125.149,-9.2159,1480.8193],[125.1478,-9.2137,1678.7986],[125.145,-9.2132,1714.6685]]]]}}