{"type": "Feature","bbox": [124.045,-9.5047,124.4829,-9.1669],"geometry": {"type": "MultiPolygon","coordinates": [[[[124.3557,-9.4833,779.4857],[124.3553,-9.4766,680.8843],[124.3569,-9.4718,615.0366],[124.3549,-9.4693,580.1461],[124.3565,-9.4642,525.5289],[124.3651,-9.4596,498.6202],[124.3621,-9.4461,781.5658],[124.359,-9.4434,831.5195],[124.3524,-9.4412,824.4169],[124.3482,-9.434,903.1468],[124.3496,-9.4286,810.369],[124.3541,-9.424,697.1736],[124.3625,-9.4192,571.1063],[124.3668,-9.4195,524.9684],[124.3726,-9.4147,416.0994],[124.3739,-9.4087,429.2219],[124.3716,-9.406,398.6895],[124.3734,-9.4051,385.8827],[124.3745,-9.4063,402.3129],[124.3772,-9.4037,375.9612],[124.3725,-9.4011,388.5979],[124.3766,-9.4,364.278],[124.3804,-9.3968,324.3632],[124.3793,-9.3933,306.0515],[124.3819,-9.3895,299.4288],[124.3787,-9.3798,293.0186],[124.3741,-9.3766,288.6967],[124.3783,-9.3704,345.6388],[124.3779,-9.3653,415.2132],[124.3801,-9.3632,438.3856],[124.38,-9.3568,414.2661],[124.3896,-9.3606,485.3052],[124.4011,-9.3522,381.68],[124.4021,-9.3455,295.7766],[124.4042,-9.3428,275.3145],[124.4035,-9.34,222.5478],[124.4094,-9.3369,232.6223],[124.412,-9.3383,253.5967],[124.4149,-9.3356,253.3435],[124.4219,-9.3363,277.5439],[124.4265,-9.3318,293.7],[124.4311,-9.3339,303.9025],[124.4336,-9.3314,293.5053],[124.4349,-9.3347,337.7574],[124.4383,-9.3339,319.2844],[124.4402,-9.3145,573.631],[124.4435,-9.3127,707.3199],[124.4468,-9.3064,926.9284],[124.4546,-9.3086,1012.7574],[124.4564,-9.3059,980.7764],[124.4594,-9.3048,985.5037],[124.4626,-9.2995,954.3306],[124.462,-9.2935,889.644],[124.4555,-9.2836,727.9961],[124.4561,-9.2751,623.6204],[124.4547,-9.2669,623.5914],[124.4609,-9.2568,768.4888],[124.462,-9.2508,1040.4169],[124.4661,-9.2498,1071.8704],[124.4645,-9.2424,568.2554],[124.4673,-9.2383,446.9421],[124.4658,-9.2314,353.614],[124.4685,-9.2281,294.3817],[124.4661,-9.224,274.4608],[124.4685,-9.2083,80.325],[124.476,-9.2034,112.1066],[124.4776,-9.2,64.0575],[124.4829,-9.1978,135.6933],[124.4795,-9.1956,60.0166],[124.4804,-9.1893,28.8461],[124.4781,-9.1762,7.4879],[124.476,-9.174,2.9958],[124.4725,-9.1741,1.2927],[124.4688,-9.1721,2.2887],[124.4663,-9.173,3.3944],[124.4481,-9.1669,2.9088],[124.4397,-9.1688,2.6079],[124.4276,-9.1672,0.0],[124.4152,-9.1728,0.0],[124.412,-9.1727,0.0],[124.4037,-9.1825,2.7054],[124.4006,-9.1841,0.0],[124.3988,-9.1877,1.5361],[124.3906,-9.1873,0.0],[124.3856,-9.1926,5.2627],[124.3766,-9.1948,0.8182],[124.3696,-9.1984,4.4451],[124.3552,-9.1983,2.441],[124.3426,-9.1958,0.0],[124.3308,-9.1963,2.1508],[124.3194,-9.2003,0.766],[124.3112,-9.1983,0.8673],[124.3058,-9.2017,0.0],[124.3033,-9.2103,3.8197],[124.3014,-9.2117,5.1571],[124.2934,-9.2155,2.2323],[124.2877,-9.216,0.0],[124.2747,-9.2231,5.3701],[124.2622,-9.2253,1.9814],[124.2551,-9.2365,5.9297],[124.2386,-9.2349,1.9715],[124.2329,-9.2372,1.2101],[124.2229,-9.2377,0.0],[124.214,-9.2448,4.2388],[124.2038,-9.244,0.0],[124.2005,-9.2463,23.0904],[124.1856,-9.2497,1.1793],[124.173,-9.2782,0.0],[124.1676,-9.2836,2.8752],[124.1641,-9.2904,1.8941],[124.1567,-9.2956,0.0],[124.137,-9.2973,0.4613],[124.1306,-9.305,8.88],[124.1231,-9.3094,1.6052],[124.1106,-9.3104,6.004],[124.0998,-9.3195,1.8516],[124.0965,-9.3241,2.2867],[124.0843,-9.3276,0.0],[124.08,-9.3251,0.0],[124.0737,-9.3246,7.0925],[124.0621,-9.333,11.9368],[124.0556,-9.3342,0.6376],[124.0531,-9.3319,0.0],[124.0511,-9.3342,0.0],[124.045,-9.3359,0.0],[124.045,-9.3436,9.1684],[124.0491,-9.3501,17.8957],[124.0537,-9.3519,17.2921],[124.0617,-9.3605,23.3807],[124.0643,-9.3674,26.1333],[124.0702,-9.3697,28.0711],[124.0752,-9.3799,38.1261],[124.0883,-9.3949,55.6921],[124.0968,-9.4081,74.487],[124.1105,-9.4101,99.4219],[124.1131,-9.4067,93.1888],[124.1164,-9.41,131.9772],[124.1182,-9.4071,117.811],[124.1201,-9.4068,125.1684],[124.1249,-9.4109,138.5244],[124.1264,-9.4162,134.631],[124.1284,-9.4167,128.0363],[124.1352,-9.4269,121.7779],[124.1396,-9.4245,127.8691],[124.1438,-9.4242,130.5345],[124.15,-9.4273,127.9115],[124.1501,-9.4219,136.3106],[124.1547,-9.4225,143.5702],[124.1616,-9.4197,154.209],[124.1627,-9.4177,147.5537],[124.1612,-9.4125,154.3942],[124.1719,-9.4003,174.8831],[124.1681,-9.3967,172.2195],[124.1682,-9.3945,193.5526],[124.1722,-9.3932,226.8842],[124.1737,-9.3905,195.5331],[124.1857,-9.3873,212.5679],[124.1901,-9.3839,219.6152],[124.1925,-9.3778,241.3585],[124.197,-9.3789,235.3148],[124.2034,-9.3776,240.9741],[124.2048,-9.3711,252.3884],[124.2064,-9.3697,252.3884],[124.2109,-9.3701,273.7168],[124.2121,-9.3678,264.6532],[124.2167,-9.3656,268.6949],[124.2306,-9.3759,284.4232],[124.235,-9.3744,302.7682],[124.239,-9.3817,329.0116],[124.2446,-9.384,300.5303],[124.2521,-9.3923,312.6957],[124.2614,-9.3963,324.3569],[124.2628,-9.4037,337.1591],[124.2667,-9.407,346.1893],[124.2678,-9.4124,363.0437],[124.2698,-9.4112,361.9463],[124.2716,-9.4124,359.1027],[124.2711,-9.4146,382.0165],[124.274,-9.4204,379.3514],[124.2733,-9.424,389.0894],[124.2756,-9.4248,392.292],[124.2765,-9.4291,414.0624],[124.2742,-9.4341,427.6252],[124.2813,-9.4407,474.7155],[124.287,-9.4512,524.5771],[124.2836,-9.4584,655.5936],[124.2846,-9.4628,705.2134],[124.287,-9.4646,778.0548],[124.2865,-9.4687,837.8038],[124.2882,-9.4724,867.8491],[124.2849,-9.476,919.8352],[124.2824,-9.4853,1147.219],[124.2794,-9.4889,1257.1062],[124.2788,-9.5033,1530.3545],[124.2851,-9.5029,1330.4851],[124.2878,-9.5047,1297.7783],[124.2927,-9.5017,1139.5277],[124.2968,-9.5027,1067.7557],[124.3016,-9.4934,1155.0386],[124.3162,-9.4959,1112.8491],[124.3322,-9.4856,981.9531],[124.3383,-9.4866,865.7831],[124.3422,-9.4828,831.0628],[124.3497,-9.4856,835.0885],[124.3548,-9.4852,797.1088],[124.3557,-9.4833,779.4857]]]]}
,"properties": {"GID_1": "TLS.3_1","GID_0": "TLS","country": "Timor-Leste","province": "Ambeno","VARNAME_1": "Oecussi","NL_NAME_1": "NA","TYPE_1": "Distrito","ENGTYPE_1": "District","CC_1": "NA","HASC_1": "TP.AM","ISO_1": "NA","name": "Ambeno.province","area_km2": 818.8811,"hist_schema_id": "Elevation0-9000","hist_area_km2": {"0": 30.7841,"25": 49.3639,"50": 30.1542,"75": 25.6125,"100": 23.1845,"125": 22.9122,"150": 24.4601,"175": 25.6108,"200": 26.4263,"225": 26.3841,"250": 26.5303,"275": 26.4045,"300": 26.6969,"325": 27.9519,"350": 26.717,"375": 27.6377,"400": 26.1938,"425": 26.0474,"450": 24.0178,"475": 22.5324,"500": 22.1556,"525": 21.5698,"550": 20.9003,"575": 20.628,"600": 19.5192,"625": 18.0967,"650": 16.9876,"675": 15.0418,"700": 13.9328,"725": 12.5727,"750": 11.8405,"775": 10.2298,"800": 9.5183,"825": 9.2045,"850": 7.4682,"875": 6.4849,"900": 6.1712,"925": 5.5434,"950": 5.0833,"975": 4.4556,"1000": 3.4933,"1025": 2.8031,"1050": 1.6524,"1075": 1.4015,"1100": 1.2759,"1125": 0.9412,"1150": 0.753,"1175": 0.8784,"1200": 0.5856,"1225": 0.3346,"1250": 0.2509,"1275": 0.2509,"1300": 0.2719,"1325": 0.23,"1350": 0.2091,"1375": 0.1464,"1400": 0.1255,"1425": 0.0836,"1450": 0.0836,"1475": 0.0627,"1500": 0.0209}}}