{"type": "Feature","id": "543","bbox": [124.03004,-9.50123,124.4515,-9.18019],"geometry": {"type": "Polygon","coordinates": [[[124.25751,-9.50123,1292.0255],[124.26159,-9.49792,1149.6746],[124.27384,-9.49492,1272.3748],[124.29306,-9.49306,1203.4604],[124.31007,-9.48872,986.806],[124.32355,-9.48035,864.535],[124.33234,-9.4666,642.5077],[124.33337,-9.4572,636.0157],[124.32882,-9.43984,851.4103],[124.32862,-9.43301,801.9766],[124.33208,-9.42547,678.6453],[124.34174,-9.41183,703.3812],[124.34541,-9.40418,502.7857],[124.34789,-9.37462,519.9596],[124.35456,-9.36418,199.8625],[124.35807,-9.36222,190.9958],[124.36262,-9.36201,297.6392],[124.37187,-9.35705,394.999],[124.40169,-9.33183,345.1521],[124.42091,-9.30692,876.0375],[124.42479,-9.30351,921.5146],[124.42794,-9.29948,765.4231],[124.43182,-9.2908,530.0818],[124.43662,-9.25587,616.7917],[124.4515,-9.20057,444.2724],[124.45053,-9.18019,129.6296],[124.45021,-9.18027,129.6296],[124.42514,-9.18157,105.4722],[124.40528,-9.18532,54.3161],[124.39682,-9.19647,116.2357],[124.38575,-9.20233,37.7532],[124.28777,-9.2208,23.1422],[124.2212,-9.24114,4.8236],[124.19077,-9.25514,71.5905],[124.18133,-9.26539,25.2388],[124.15935,-9.29648,99.199],[124.14674,-9.30291,104.2247],[124.12916,-9.30495,0.0],[124.04835,-9.33701,12.1335],[124.03004,-9.34197,0.0],[124.06269,-9.39787,211.7111],[124.09029,-9.42154,173.6523],[124.12108,-9.42692,414.1671],[124.13375,-9.41927,364.8587],[124.1538,-9.39188,559.7228],[124.16723,-9.38061,563.539],[124.18361,-9.3739,414.1508],[124.19746,-9.37317,316.5266],[124.21069,-9.37886,377.0105],[124.22578,-9.39157,597.9252],[124.23715,-9.40521,662.686],[124.24687,-9.42154,404.6205],[124.254,-9.4387,444.8093],[124.25751,-9.45544,710.5022],[124.25689,-9.46288,742.7312],[124.25338,-9.48056,889.7542],[124.25338,-9.48645,1011.1238],[124.25658,-9.49937,1273.6417],[124.25751,-9.50123,1292.0255]]]}
,"properties": {"ISO3166-1-Alpha-3": "TLS","country": "East Timor","fill": "#F0F","name": "Ambeno","area_km2": 742.4752,"hist_schema_id": "Elevation0-9000","hist_area_km2": {"0": 17.7438,"25": 45.6994,"50": 29.5663,"75": 26.0716,"100": 23.8532,"125": 23.1834,"150": 24.857,"175": 25.422,"200": 25.7566,"225": 25.045,"250": 24.438,"275": 24.8143,"300": 24.4373,"325": 25.9223,"350": 25.0431,"375": 26.1728,"400": 24.687,"425": 24.2267,"450": 22.6155,"475": 21.5485,"500": 20.5442,"525": 20.0421,"550": 18.6824,"575": 17.6781,"600": 15.8161,"625": 14.4982,"650": 14.3933,"675": 12.4477,"700": 11.2967,"725": 10.0414,"750": 9.4347,"775": 8.4513,"800": 7.4681,"825": 7.0078,"850": 5.7526,"875": 5.2922,"900": 4.3929,"925": 4.3926,"950": 4.2461,"975": 3.7859,"1000": 3.3048,"1025": 2.6145,"1050": 1.7987,"1075": 1.694,"1100": 1.4221,"1125": 1.1921,"1150": 0.9411,"1175": 0.5228,"1200": 0.7319,"1225": 0.481,"1250": 0.3764,"1275": 0.1255,"1300": 0.23,"1325": 0.0836,"1350": 0.1255,"1375": 0.0418,"1400": 0.0209}}}