{"type":"Feature","properties":{"GID_1":"TLS.11_1","GID_0":"TLS","country":"Timor-Leste","province":"Manatuto","VARNAME_1":"NA","NL_NAME_1":"NA","TYPE_1":"Distrito","ENGTYPE_1":"District","CC_1":"NA","HASC_1":"TP.MT","ISO_1":"NA","name":"Manatuto.province"},
"geometry":{"type": "MultiPolygon","coordinates": [[[[126.0869,-9.0317,10.8299],[126.0976,-9.0218,2.0987],[126.1005,-9.0217,0.0],[126.126,-9.0031,2.7114],[126.1433,-8.9942,7.4698],[126.1547,-8.9904,1.8407],[126.1506,-8.9896,10.3322],[126.1492,-8.9868,15.7201],[126.1503,-8.9851,21.5021],[126.1479,-8.9831,20.9734],[126.1438,-8.9831,24.2291],[126.1428,-8.9779,32.2483],[126.1443,-8.9766,32.2483],[126.1427,-8.9733,35.0128],[126.1448,-8.9697,24.8414],[126.1416,-8.9689,26.8331],[126.142,-8.9663,30.2369],[126.1385,-8.9666,37.995],[126.1367,-8.9619,25.0017],[126.1321,-8.962,30.4952],[126.1253,-8.9527,34.676],[126.1199,-8.9516,35.8778],[126.1177,-8.9487,36.8551],[126.1086,-8.947,40.0372],[126.1044,-8.9412,44.6954],[126.1006,-8.9225,56.4329],[126.1002,-8.9098,89.1798],[126.0976,-8.9032,117.0134],[126.0923,-8.8972,87.5347],[126.0925,-8.8923,81.5855],[126.0878,-8.8879,98.403],[126.0881,-8.8844,210.6455],[126.0847,-8.8845,95.4918],[126.0878,-8.8769,120.0634],[126.092,-8.8728,109.4364],[126.0886,-8.8628,124.0744],[126.0931,-8.8571,137.5188],[126.0945,-8.849,148.1383],[126.089,-8.8411,151.6391],[126.079,-8.837,177.6071],[126.0748,-8.8324,195.7163],[126.0754,-8.8236,189.5669],[126.073,-8.8174,215.3457],[126.0594,-8.8068,243.7671],[126.0581,-8.8036,237.7333],[126.0555,-8.8043,241.0709],[126.0549,-8.7997,248.1838],[126.0479,-8.7956,273.3408],[126.0518,-8.7873,303.5907],[126.0463,-8.7774,339.0436],[126.0466,-8.774,406.4196],[126.0479,-8.7697,491.2754],[126.0509,-8.7667,659.2795],[126.0513,-8.763,688.9285],[126.0495,-8.7606,765.672],[126.0564,-8.7569,687.1974],[126.0615,-8.7571,550.8483],[126.0711,-8.7473,674.8789],[126.0764,-8.7455,588.6882],[126.0882,-8.7336,525.2086],[126.0915,-8.7275,422.9906],[126.0909,-8.7261,424.2915],[126.0974,-8.7216,395.7422],[126.0968,-8.7127,345.5213],[126.0947,-8.7077,377.5888],[126.0978,-8.7055,318.0516],[126.0968,-8.7037,305.6466],[126.0991,-8.7021,298.6906],[126.0981,-8.6991,308.2939],[126.0966,-8.6991,286.499],[126.0972,-8.6951,273.4531],[126.0956,-8.6939,258.8352],[126.0985,-8.6922,260.3531],[126.0974,-8.6897,257.5604],[126.0984,-8.6871,246.9034],[126.1045,-8.6821,233.554],[126.1084,-8.6735,203.5576],[126.1122,-8.6723,209.152],[126.1117,-8.6689,210.1314],[126.1177,-8.6706,186.1835],[126.125,-8.6669,169.9585],[126.1295,-8.6678,188.2308],[126.1319,-8.67,161.5885],[126.1425,-8.6672,138.5478],[126.1495,-8.6729,163.4218],[126.152,-8.667,263.4637],[126.1654,-8.6569,378.1833],[126.1661,-8.6548,399.1763],[126.1799,-8.649,472.3406],[126.1811,-8.6434,519.39],[126.1835,-8.643,509.4332],[126.1853,-8.6395,469.0344],[126.1881,-8.638,437.0987],[126.1945,-8.6275,346.4257],[126.1936,-8.6172,262.5476],[126.1905,-8.6116,282.6849],[126.1964,-8.6056,265.7798],[126.192,-8.5986,304.8521],[126.197,-8.5798,340.1601],[126.1856,-8.5656,233.168],[126.1825,-8.5352,44.7008],[126.1826,-8.5304,38.9201],[126.185,-8.5283,27.9263],[126.1848,-8.5263,25.7451],[126.1681,-8.5122,9.7539],[126.164,-8.5062,7.7492],[126.161,-8.496,0.0],[126.1571,-8.5005,1.0417],[126.1433,-8.5014,7.0674],[126.1358,-8.5078,0.0],[126.1278,-8.5033,1.7752],[126.1217,-8.5039,0.0],[126.1125,-8.5101,3.5013],[126.1063,-8.5095,0.0],[126.1002,-8.5126,0.9427],[126.0922,-8.5197,5.0533],[126.0743,-8.5173,0.0],[126.0689,-8.5229,5.1416],[126.0677,-8.5225,2.4679],[126.0683,-8.5156,11.715],[126.0639,-8.5125,0.0],[126.0564,-8.5136,1.8119],[126.0512,-8.5169,1.6007],[126.0419,-8.5117,3.2417],[126.0283,-8.5128,0.0],[126.0255,-8.5109,0.0],[126.0194,-8.5114,5.0288],[126.0137,-8.5083,3.4793],[126.0097,-8.5026,0.0],[125.9958,-8.4978,0.7364],[125.9869,-8.4877,0.0],[125.9783,-8.4842,0.0],[125.9742,-8.4878,3.4172],[125.9647,-8.4844,0.0],[125.9572,-8.4849,16.0927],[125.9521,-8.4797,9.2276],[125.9406,-8.4761,0.0],[125.9375,-8.4782,34.4756],[125.9247,-8.4804,6.4678],[125.9177,-8.4784,5.0381],[125.9086,-8.4783,11.5736],[125.9047,-8.475,5.7473],[125.8939,-8.4753,6.8916],[125.89,-8.4775,0.0],[125.8834,-8.4751,0.0],[125.8816,-8.4764,9.9567],[125.8689,-8.4764,10.5791],[125.8506,-8.4742,0.0],[125.8489,-8.4767,2.5302],[125.8348,-8.4858,2.3534],[125.8445,-8.4928,82.0573],[125.8523,-8.5044,385.6249],[125.8602,-8.5093,767.5361],[125.8571,-8.5146,657.8289],[125.8568,-8.5185,622.3353],[125.8585,-8.5226,649.1732],[125.856,-8.5232,714.3118],[125.8471,-8.5326,572.2614],[125.8449,-8.5305,615.1095],[125.8414,-8.5324,610.5966],[125.8361,-8.539,408.0578],[125.8339,-8.5392,411.8568],[125.8291,-8.5349,547.1663],[125.823,-8.5391,512.2306],[125.8157,-8.5407,539.8231],[125.8087,-8.5402,316.425],[125.8057,-8.544,464.1138],[125.8001,-8.5471,429.2947],[125.7943,-8.5462,195.6488],[125.793,-8.5433,180.7283],[125.7843,-8.5421,141.6148],[125.7814,-8.5455,172.0389],[125.7807,-8.5551,331.203],[125.7775,-8.5589,521.3949],[125.7753,-8.5666,754.4128],[125.7732,-8.5688,751.041],[125.7661,-8.571,893.4053],[125.7702,-8.5877,425.366],[125.7675,-8.5953,602.6935],[125.7655,-8.5975,691.0164],[125.7601,-8.5991,795.8053],[125.7583,-8.604,868.5867],[125.7641,-8.6114,1014.9031],[125.7668,-8.6124,960.6668],[125.7674,-8.6171,1069.8097],[125.7732,-8.6227,905.1304],[125.7778,-8.6235,816.7173],[125.7756,-8.6259,896.0624],[125.7741,-8.6356,722.8688],[125.778,-8.6397,630.9305],[125.7812,-8.6485,492.1129],[125.7857,-8.6501,474.8073],[125.7886,-8.6491,472.5776],[125.7866,-8.6577,610.7234],[125.7884,-8.664,867.3587],[125.7916,-8.6652,927.3088],[125.7939,-8.6732,641.6484],[125.8046,-8.6774,350.1853],[125.8085,-8.6767,295.4579],[125.8141,-8.6847,275.0384],[125.812,-8.695,304.1796],[125.8125,-8.7081,315.8904],[125.8101,-8.7135,338.9473],[125.8179,-8.7288,484.2072],[125.8073,-8.7373,993.7484],[125.8054,-8.745,1110.9348],[125.8082,-8.7486,1115.2451],[125.8085,-8.7521,1097.1864],[125.8108,-8.7535,1114.0354],[125.8136,-8.7532,1038.9467],[125.8194,-8.748,734.0429],[125.8215,-8.7532,846.1483],[125.8212,-8.7576,1035.7632],[125.8174,-8.7666,1229.7965],[125.8147,-8.7678,1189.7769],[125.8159,-8.773,1391.2351],[125.814,-8.7785,1608.7328],[125.8202,-8.7802,1544.4867],[125.8158,-8.7904,1644.6414],[125.8098,-8.7995,1488.962],[125.8086,-8.8054,1387.7485],[125.8005,-8.8128,1283.7256],[125.8042,-8.8233,921.3539],[125.8089,-8.8259,1051.4147],[125.8069,-8.8301,743.4957],[125.8086,-8.8326,747.6851],[125.8068,-8.8361,671.4227],[125.8123,-8.8403,645.0102],[125.8187,-8.8503,607.9138],[125.8229,-8.8529,597.0132],[125.826,-8.8593,570.9272],[125.8287,-8.8597,564.1255],[125.8307,-8.8686,542.3037],[125.8284,-8.8723,540.678],[125.83,-8.8715,524.8734],[125.8307,-8.8726,524.8734],[125.8282,-8.877,472.7813],[125.8309,-8.881,463.6884],[125.8358,-8.8821,446.9704],[125.8385,-8.878,619.6182],[125.8411,-8.8773,660.9509],[125.8436,-8.8788,756.9623],[125.8586,-8.8808,504.7946],[125.868,-8.8845,551.2913],[125.8778,-8.8834,681.7558],[125.8877,-8.8881,707.3647],[125.8949,-8.8872,598.21],[125.904,-8.8907,455.1922],[125.9076,-8.8956,387.7802],[125.9139,-8.8973,336.5719],[125.9234,-8.9049,263.981],[125.9273,-8.9053,266.2291],[125.9274,-8.9076,255.8922],[125.9311,-8.908,227.9963],[125.9344,-8.912,204.5465],[125.9282,-8.9242,191.6218],[125.937,-8.933,219.1212],[125.9367,-8.938,181.515],[125.9399,-8.9391,176.3157],[125.9438,-8.9382,166.7219],[125.9473,-8.951,156.2697],[125.9566,-8.9607,139.2113],[125.9715,-8.9682,116.8413],[125.9758,-8.9684,102.1968],[125.9798,-8.9707,101.2468],[125.996,-8.9823,75.3936],[125.9987,-8.9862,72.9337],[126.0112,-8.9918,56.6649],[126.0164,-8.9908,54.55],[126.0209,-8.9954,47.0361],[126.026,-8.9979,41.6776],[126.0276,-9.0025,41.6074],[126.0336,-9.0097,32.9753],[126.035,-9.0151,24.5],[126.043,-9.0162,32.787],[126.0494,-9.0336,18.4088],[126.0548,-9.036,25.8098],[126.0541,-9.0421,14.4621],[126.0575,-9.0424,17.5922],[126.0586,-9.0507,5.3188],[126.0609,-9.0527,17.3161],[126.0615,-9.0569,1.3071],[126.0673,-9.0541,5.5643],[126.0869,-9.0317,10.8299]]]]}}