{"type":"Feature","properties":{"ISO3166-1-Alpha-3":"TLS","country":"East Timor","fill":"#00F","id":"550","name":"Manatuto"},
"geometry":{"type": "Polygon","coordinates": [[[126.14188,-8.50286,0.7378],[126.14186,-8.50286,0.7378],[126.13347,-8.504,0.0],[126.09108,-8.51719,0.0],[126.0691,-8.52158,5.1416],[126.04225,-8.51881,2.6351],[126.00221,-8.49944,0.0],[125.89772,-8.48113,144.4743],[125.8506,-8.48382,177.5386],[125.82854,-8.49091,0.7777],[125.82858,-8.49095,0.7777],[125.84599,-8.51354,466.273],[125.83028,-8.53441,537.689],[125.81085,-8.54888,494.7254],[125.78894,-8.57576,410.3998],[125.76367,-8.58283,625.7725],[125.75752,-8.6171,1066.9198],[125.77158,-8.64914,608.2703],[125.78564,-8.67001,852.6525],[125.80114,-8.70557,579.3682],[125.80522,-8.75316,891.5566],[125.80548,-8.756,1002.7576],[125.79866,-8.81202,1182.0217],[125.81044,-8.85688,1052.8518],[125.84103,-8.88189,700.1521],[125.87162,-8.89822,650.1586],[125.90614,-8.91496,487.8981],[125.9295,-8.94286,313.1843],[125.94501,-8.96705,302.0061],[125.98903,-8.99247,197.0987],[126.03203,-9.02265,37.7258],[126.04526,-9.04539,10.8704],[126.04754,-9.05731,13.2974],[126.12192,-9.00652,1.9199],[126.13795,-8.99993,0.0],[126.13802,-8.99991,0.0],[126.13766,-8.99868,0.0],[126.1114,-8.96602,27.8203],[126.09425,-8.94121,46.3065],[126.08329,-8.91145,93.3336],[126.07895,-8.88995,266.6781],[126.07833,-8.86845,241.9835],[126.05725,-8.83,370.4822],[126.03368,-8.79404,431.5064],[126.03699,-8.77461,539.1465],[126.05022,-8.75766,708.5092],[126.06882,-8.74546,681.1613],[126.07998,-8.71962,616.0276],[126.09197,-8.688,377.908],[126.1114,-8.67497,247.3347],[126.13125,-8.67807,270.007],[126.14003,-8.68107,255.7979],[126.16101,-8.66174,349.3611],[126.17259,-8.64583,379.257],[126.1792,-8.62371,227.8387],[126.17734,-8.59105,96.6628],[126.17424,-8.56087,62.1745],[126.17135,-8.53751,23.6449],[126.16101,-8.51788,39.8025],[126.14188,-8.50286,0.7378]]]}}