{"type":"Feature","properties":{"GID_3":"TLS.5.6.1_1","GID_0":"TLS","country":"Timor-Leste","GID_1":"TLS.5_1","province":"Bobonaro","NL_NAME_1":"NA","GID_2":"TLS.5.6_1","county":"Maliana","NL_NAME_2":"NA","city":"Holsa","VARNAME_3":"NA","NL_NAME_3":"NA","TYPE_3":"Suco","ENGTYPE_3":"Community","CC_3":"NA","HASC_3":"NA","name":"Holsa.city"},
"geometry":{"type": "MultiPolygon","coordinates": [[[[125.219,-8.9914,254.3609],[125.2144,-8.9889,235.9749],[125.1943,-8.9921,195.9908],[125.1983,-8.9975,203.7288],[125.1976,-8.999,202.7493],[125.2069,-9.0056,255.4665],[125.2121,-9.0154,445.7923],[125.2164,-9.018,499.7614],[125.2363,-9.0171,673.4603],[125.2312,-9.0123,562.468],[125.2288,-9.0078,454.078],[125.229,-9.0032,408.3291],[125.2263,-8.9993,345.5825],[125.2282,-8.9937,281.2229],[125.219,-8.9914,254.3609]]]]}}