{"type":"Feature","properties":{"GID_2":"TLS.3.3_1","GID_0":"TLS","country":"Timor-Leste","GID_1":"TLS.3_1","province":"Ambeno","NL_NAME_1":"NA","county":"PanteMacassar","VARNAME_2":"NA","NL_NAME_2":"NA","TYPE_2":"Subdistrito","ENGTYPE_2":"Subdistrict","CC_2":"NA","HASC_2":"NA","name":"Pante_Macassar.county"},
"geometry":{"type": "MultiPolygon","coordinates": [[[[124.2773,-9.3182,490.2377],[124.2797,-9.3186,415.2465],[124.2855,-9.3239,257.9276],[124.2892,-9.3298,365.2144],[124.2889,-9.3413,395.3113],[124.2848,-9.3477,537.2842],[124.2862,-9.3561,653.3593],[124.2998,-9.3647,291.549],[124.3082,-9.3726,188.8043],[124.3092,-9.3712,187.314],[124.3084,-9.3653,196.5904],[124.3116,-9.3605,183.8837],[124.3111,-9.3577,194.5519],[124.3126,-9.3552,172.9301],[124.3119,-9.3458,160.5926],[124.3043,-9.341,160.5672],[124.3036,-9.3346,145.3548],[124.3005,-9.3317,142.2185],[124.3026,-9.3225,158.2151],[124.3035,-9.321,127.0534],[124.3094,-9.3199,119.9466],[124.3137,-9.3253,161.9018],[124.3165,-9.3223,106.9349],[124.3276,-9.3216,96.1389],[124.3313,-9.3189,92.2118],[124.3327,-9.3118,142.7962],[124.3312,-9.3046,80.5842],[124.3271,-9.3018,78.0933],[124.3278,-9.2931,73.1081],[124.3386,-9.2907,65.1715],[124.3399,-9.2854,63.9056],[124.3425,-9.2862,63.6617],[124.3436,-9.2951,85.3227],[124.3485,-9.2995,79.6696],[124.358,-9.2981,90.822],[124.3672,-9.3082,118.4838],[124.3753,-9.309,125.301],[124.3805,-9.3141,142.2729],[124.3842,-9.3141,140.5307],[124.3854,-9.3183,187.4741],[124.3833,-9.3237,174.5168],[124.3852,-9.327,175.353],[124.3891,-9.3284,164.8522],[124.3906,-9.3317,190.0342],[124.3946,-9.3307,203.0874],[124.3969,-9.3362,192.4048],[124.4009,-9.3366,218.4473],[124.403,-9.3399,222.5478],[124.4095,-9.3369,232.6223],[124.412,-9.3383,253.5967],[124.4149,-9.3356,253.3435],[124.4219,-9.3363,277.5439],[124.4265,-9.3318,293.7],[124.4311,-9.3339,303.9025],[124.4336,-9.3314,293.5053],[124.4349,-9.3347,337.7574],[124.4383,-9.3339,319.2844],[124.4402,-9.3145,573.631],[124.4435,-9.3127,707.3199],[124.4468,-9.3064,926.9284],[124.4546,-9.3086,1012.7574],[124.4564,-9.3059,980.7764],[124.4594,-9.3048,985.5037],[124.4626,-9.2995,954.3306],[124.462,-9.2935,889.644],[124.4555,-9.2836,727.9961],[124.4561,-9.2751,623.6204],[124.4547,-9.2669,623.5914],[124.4609,-9.2568,768.4888],[124.462,-9.2508,1040.4169],[124.4661,-9.2498,1071.8704],[124.4645,-9.2424,568.2554],[124.4673,-9.2383,446.9421],[124.4658,-9.2314,353.614],[124.4685,-9.2281,294.3817],[124.4661,-9.224,274.4608],[124.4685,-9.2083,80.325],[124.476,-9.2034,112.1066],[124.4776,-9.2,64.0575],[124.4829,-9.1978,135.6933],[124.4795,-9.1956,60.0166],[124.4808,-9.1925,38.2139],[124.4779,-9.1756,6.883],[124.476,-9.174,2.9958],[124.4725,-9.1741,1.2927],[124.4688,-9.1721,2.2887],[124.4663,-9.173,3.3944],[124.4481,-9.1669,2.9088],[124.4397,-9.1688,2.6079],[124.4259,-9.1675,0.0],[124.4152,-9.1728,0.0],[124.412,-9.1727,0.0],[124.4037,-9.1825,2.7054],[124.4006,-9.1841,0.0],[124.3988,-9.1877,1.5361],[124.3906,-9.1873,0.0],[124.3856,-9.1926,5.2627],[124.3766,-9.1948,0.8182],[124.3696,-9.1984,4.4451],[124.3552,-9.1983,2.441],[124.3426,-9.1958,0.0],[124.3308,-9.1963,2.1508],[124.3194,-9.2003,0.766],[124.3112,-9.1983,0.8673],[124.3058,-9.2017,0.0],[124.3033,-9.2103,3.8197],[124.3014,-9.2117,5.1571],[124.2934,-9.2155,2.2323],[124.2877,-9.216,0.0],[124.2747,-9.2231,5.3701],[124.2622,-9.2253,1.9814],[124.2551,-9.2365,5.9297],[124.2386,-9.2349,1.9715],[124.2329,-9.2372,1.2101],[124.2214,-9.2383,2.9801],[124.2195,-9.2405,2.7596],[124.2249,-9.2448,8.5911],[124.228,-9.2514,13.9144],[124.2261,-9.2569,39.4351],[124.2286,-9.2609,21.0708],[124.2277,-9.2668,41.3256],[124.2305,-9.2725,57.0318],[124.2366,-9.2792,79.4378],[124.2367,-9.2833,120.1371],[124.2411,-9.2904,151.8671],[124.2413,-9.2988,250.2648],[124.2392,-9.3032,283.1416],[124.2425,-9.3065,298.217],[124.2247,-9.3153,608.0012],[124.2186,-9.3315,905.451],[124.2338,-9.3332,643.8815],[124.2365,-9.3309,614.9932],[124.2405,-9.3316,533.6852],[124.2458,-9.3283,485.5364],[124.2491,-9.321,382.0365],[124.2569,-9.3286,558.249],[124.2609,-9.3369,692.7324],[124.2633,-9.3371,707.6099],[124.2695,-9.319,676.9316],[124.2715,-9.3169,660.5092],[124.2773,-9.3182,490.2377]]]]}}