{"type":"Feature","properties":{"GID_3":"TLS.1.4.3_1","GID_0":"TLS","country":"Timor-Leste","GID_1":"TLS.1_1","province":"Aileu","NL_NAME_1":"NA","GID_2":"TLS.1.4_1","county":"Remexio","NL_NAME_2":"NA","city":"Fadabloko","VARNAME_3":"FadaBloko","NL_NAME_3":"NA","TYPE_3":"Suco","ENGTYPE_3":"Community","CC_3":"NA","HASC_3":"NA","name":"Fadabloko.city"},
"geometry":{"type": "MultiPolygon","coordinates": [[[[125.7238,-8.6883,515.2639],[125.7214,-8.6784,574.0352],[125.7136,-8.6728,622.0413],[125.7116,-8.6648,619.1448],[125.7066,-8.6625,686.9283],[125.7044,-8.6554,683.5382],[125.7012,-8.6549,678.8295],[125.7019,-8.6523,700.4857],[125.7031,-8.6528,709.5674],[125.7042,-8.6437,762.19],[125.6991,-8.6446,809.9975],[125.6981,-8.6438,809.5917],[125.6995,-8.6415,775.8859],[125.6893,-8.6395,822.2247],[125.6893,-8.6369,817.3813],[125.6873,-8.638,845.6748],[125.6827,-8.6349,833.1241],[125.6789,-8.6348,851.4269],[125.6745,-8.6401,885.2373],[125.6715,-8.6396,875.8583],[125.6692,-8.6411,907.1666],[125.6649,-8.6538,963.8993],[125.6656,-8.6566,899.9445],[125.6704,-8.6587,852.1245],[125.6706,-8.6567,849.3068],[125.6765,-8.6561,815.3587],[125.679,-8.6536,819.3016],[125.6815,-8.6531,802.7076],[125.6831,-8.6548,818.1293],[125.6844,-8.653,766.8837],[125.6856,-8.6549,796.2507],[125.6803,-8.6703,997.4686],[125.6821,-8.6764,1060.6058],[125.6915,-8.6806,852.8254],[125.7047,-8.68,656.9222],[125.7107,-8.6841,674.4156],[125.7144,-8.6916,555.5482],[125.7238,-8.6883,515.2639]]]]}}