{"type":"Feature","properties":{"GID_3":"TLS.6.4.9_1","GID_0":"TLS","country":"Timor-Leste","GID_1":"TLS.6_1","province":"Covalima","NL_NAME_1":"NA","GID_2":"TLS.6.4_1","county":"Mape","NL_NAME_2":"NA","city":"Zulo","VARNAME_3":"NA","NL_NAME_3":"NA","TYPE_3":"Suco","ENGTYPE_3":"Community","CC_3":"NA","HASC_3":"NA","name":"Zulo.city"},
"geometry":{"type": "MultiPolygon","coordinates": [[[[125.4431,-9.1698,75.1056],[125.447,-9.1655,74.1565],[125.4469,-9.1633,79.72],[125.4534,-9.1513,145.004],[125.4565,-9.1373,147.6111],[125.4485,-9.1275,176.4133],[125.4411,-9.1244,197.6067],[125.4369,-9.1145,232.1283],[125.4313,-9.1102,241.1775],[125.4237,-9.1288,333.6443],[125.4166,-9.1389,356.4889],[125.4241,-9.1488,170.0562],[125.4199,-9.1565,153.7879],[125.4198,-9.1628,132.3434],[125.4216,-9.1657,114.285],[125.4265,-9.1665,101.9624],[125.4281,-9.1717,110.5943],[125.4314,-9.172,79.896],[125.432,-9.1742,73.5815],[125.4366,-9.17,148.9108],[125.4431,-9.1698,75.1056]]]]}}