{"type":"Feature","properties":{"GID_2":"TLS.7.1_1","GID_0":"TLS","country":"Timor-Leste","GID_1":"TLS.7_1","province":"Dili","NL_NAME_1":"NA","county":"Atauro","VARNAME_2":"NA","NL_NAME_2":"NA","TYPE_2":"Subdistrito","ENGTYPE_2":"Subdistrict","CC_2":"NA","HASC_2":"NA","name":"Atauro.county"},
"geometry":{"type": "MultiPolygon","coordinates": [[[[125.5981,-8.2872,0.445],[125.6,-8.2847,0.0],[125.6028,-8.2736,31.0419],[125.605,-8.2711,2.0829],[125.6061,-8.2631,0.0],[125.6097,-8.2567,3.1361],[125.6069,-8.2464,1.1856],[125.6072,-8.2331,1.7503],[125.6094,-8.2292,2.7616],[125.61,-8.2214,0.0],[125.6175,-8.2092,9.9831],[125.6217,-8.2069,21.7044],[125.6258,-8.1998,18.1273],[125.6342,-8.1922,0.0],[125.635,-8.1825,0.0],[125.64,-8.1753,0.0],[125.6411,-8.1658,0.0],[125.6444,-8.1633,4.3611],[125.6403,-8.1533,2.4694],[125.6417,-8.1431,0.0],[125.6383,-8.1375,39.6392],[125.639,-8.1328,0.0],[125.6367,-8.1269,1.0708],[125.6331,-8.1271,9.175],[125.6191,-8.1328,0.0],[125.6075,-8.1488,0.0],[125.5972,-8.159,0.0],[125.5911,-8.1608,0.0],[125.5846,-8.1758,0.0],[125.5775,-8.1811,0.0],[125.5675,-8.1925,0.0],[125.5667,-8.1953,1.7097],[125.5619,-8.1978,0.0],[125.5594,-8.2063,2.5337],[125.5557,-8.2081,0.0],[125.5489,-8.22,0.7585],[125.5362,-8.2199,0.0],[125.5232,-8.227,0.0],[125.5206,-8.2433,1.1209],[125.5178,-8.2475,2.6832],[125.5033,-8.2589,7.4142],[125.5006,-8.2633,0.0],[125.5003,-8.2658,0.0],[125.5058,-8.2756,0.0],[125.5289,-8.2969,0.0],[125.5531,-8.2978,4.8017],[125.5564,-8.3028,33.018],[125.5606,-8.3031,40.1292],[125.5611,-8.3067,0.0],[125.572,-8.3065,0.0],[125.5785,-8.309,7.7917],[125.579,-8.3069,36.4635],[125.5836,-8.3062,42.1104],[125.5836,-8.3036,55.7221],[125.5872,-8.3031,0.0],[125.5944,-8.29,3.687],[125.5981,-8.2872,0.445]]]]}}