{"type":"Feature","properties":{"GID_3":"TLS.8.1.9_1","GID_0":"TLS","country":"Timor-Leste","GID_1":"TLS.8_1","province":"Ermera","NL_NAME_1":"NA","GID_2":"TLS.8.1_1","county":"Atsabe","NL_NAME_2":"NA","city":"Malabe","VARNAME_3":"NA","NL_NAME_3":"NA","TYPE_3":"Suco","ENGTYPE_3":"Community","CC_3":"NA","HASC_3":"NA","name":"Malabe.city"},
"geometry":{"type": "MultiPolygon","coordinates": [[[[125.4541,-8.952,2508.7922],[125.438,-8.9431,2134.7148],[125.4262,-8.9417,1789.8577],[125.4164,-8.9428,1494.1722],[125.4112,-8.9396,1356.9294],[125.4083,-8.9407,1332.1381],[125.4054,-8.9384,1273.1272],[125.4022,-8.9394,1260.2886],[125.3923,-8.9251,1108.7844],[125.391,-8.9131,953.1271],[125.3777,-8.9048,673.1187],[125.3784,-8.9075,698.1326],[125.3823,-8.9103,795.087],[125.3857,-8.9198,1074.8177],[125.3761,-8.9307,758.0039],[125.3759,-8.933,798.1934],[125.3801,-8.9375,917.3459],[125.3866,-8.9402,1031.3917],[125.3878,-8.9432,1028.2944],[125.3921,-8.9437,1049.6787],[125.4045,-8.95,1341.1431],[125.4266,-8.9555,1624.5078],[125.4327,-8.9592,1728.1912],[125.4355,-8.9662,1857.7383],[125.4453,-8.9687,1971.0115],[125.451,-8.973,2204.6824],[125.4508,-8.9702,2173.356],[125.4564,-8.9649,2291.6401],[125.4519,-8.9545,2507.6489],[125.4541,-8.952,2508.7922]]]]}}