{"type":"Feature","properties":{"GID_3":"TLS.5.4.7_1","GID_0":"TLS","country":"Timor-Leste","GID_1":"TLS.5_1","province":"Bobonaro","NL_NAME_1":"NA","GID_2":"TLS.5.4_1","county":"Cailaco","NL_NAME_2":"NA","city":"Purugoa","VARNAME_3":"NA","NL_NAME_3":"NA","TYPE_3":"Suco","ENGTYPE_3":"Community","CC_3":"NA","HASC_3":"NA","name":"Purugoa.city"},
"geometry":{"type": "MultiPolygon","coordinates": [[[[125.2054,-8.8423,54.7564],[125.2032,-8.8454,53.5993],[125.2055,-8.8476,57.1471],[125.2066,-8.8547,63.4749],[125.2088,-8.8547,62.1534],[125.2084,-8.8561,63.4749],[125.2111,-8.8565,73.782],[125.2144,-8.8597,78.8651],[125.2213,-8.8616,105.4108],[125.2249,-8.8601,114.12],[125.2285,-8.8615,136.6912],[125.2347,-8.8602,156.4896],[125.2435,-8.8624,207.6398],[125.2529,-8.8591,376.7714],[125.2591,-8.8634,427.1719],[125.263,-8.8603,391.024],[125.2719,-8.8599,242.0036],[125.2742,-8.8644,209.418],[125.2775,-8.8659,196.6914],[125.2808,-8.8633,173.4405],[125.2868,-8.8642,160.5933],[125.2871,-8.8591,165.2015],[125.2889,-8.8569,150.4948],[125.2827,-8.8508,141.6517],[125.2814,-8.8322,123.4874],[125.2792,-8.8236,117.9999],[125.258,-8.7902,81.2892],[125.2498,-8.7809,72.7822],[125.2457,-8.779,70.1351],[125.2407,-8.7722,62.4154],[125.2326,-8.767,56.0244],[125.2106,-8.7655,43.4713],[125.202,-8.7681,40.2104],[125.2026,-8.7716,39.8753],[125.2085,-8.774,39.1632],[125.2071,-8.782,44.1757],[125.2101,-8.789,48.2479],[125.215,-8.7915,43.0977],[125.2166,-8.8,45.7529],[125.2203,-8.8047,49.8913],[125.2117,-8.8125,46.8944],[125.209,-8.8218,49.4569],[125.2101,-8.8296,51.0254],[125.2047,-8.8381,52.9025],[125.2054,-8.8423,54.7564]]]]}}