{"type": "Feature","bbox": [125.2561,-9.3123,125.2829,-9.2895],"geometry": {"type": "MultiPolygon","coordinates": [[[[125.2754,-9.3119,24.7735],[125.278,-9.3082,26.2247],[125.2829,-9.3061,18.2105],[125.2697,-9.2895,139.1194],[125.2561,-9.303,48.1618],[125.2625,-9.3046,40.1223],[125.2646,-9.3076,36.5198],[125.2684,-9.3082,33.9584],[125.2725,-9.3123,27.3092],[125.2754,-9.3119,24.7735]]]]}
,"properties": {"GID_3": "TLS.6.5.12_1","GID_0": "TLS","country": "Timor-Leste","GID_1": "TLS.6_1","province": "Covalima","NL_NAME_1": "NA","GID_2": "TLS.6.5_1","county": "SuaiKota","NL_NAME_2": "NA","city": "Matai","VARNAME_3": "NA","NL_NAME_3": "NA","TYPE_3": "Suco","ENGTYPE_3": "Community","CC_3": "NA","HASC_3": "NA","name": "Matai.city","area_km2": 3.49421,"hist_schema_id": "Elevation0-9000","hist_area_km2": {"25": 1.569241,"50": 1.380949,"75": 0.251085,"100": 0.167391,"125": 0.062772,"150": 0.062772}}}