{"type":"Feature","properties":{"GID_3":"TLS.9.1.2_1","GID_0":"TLS","country":"Timor-Leste","GID_1":"TLS.9_1","province":"Lautém","NL_NAME_1":"NA","GID_2":"TLS.9.1_1","county":"Iliomar","NL_NAME_2":"NA","city":"Cainliu","VARNAME_3":"KanLiu","NL_NAME_3":"NA","TYPE_3":"Suco","ENGTYPE_3":"Community","CC_3":"NA","HASC_3":"NA","name":"Cainliu.city"},
"geometry":{"type": "MultiPolygon","coordinates": [[[[126.7299,-8.6871,33.3144],[126.73,-8.696,39.7256],[126.7277,-8.6989,43.4418],[126.7302,-8.7009,40.3841],[126.73,-8.7029,40.9438],[126.7326,-8.7065,37.8189],[126.7344,-8.7057,34.5718],[126.7364,-8.6955,48.4722],[126.738,-8.6943,65.338],[126.7501,-8.6929,76.0882],[126.7515,-8.6952,68.5846],[126.7558,-8.6968,83.5488],[126.7593,-8.6952,110.571],[126.7635,-8.6961,138.6957],[126.7677,-8.6924,141.2139],[126.7758,-8.6893,188.5419],[126.778,-8.6899,191.9665],[126.7802,-8.6874,260.1129],[126.7857,-8.6865,375.7196],[126.7963,-8.6799,606.253],[126.8083,-8.6832,457.2903],[126.8133,-8.687,346.9877],[126.8182,-8.6963,277.7076],[126.8267,-8.6979,304.6476],[126.8286,-8.7,343.0722],[126.8326,-8.693,279.9071],[126.8297,-8.6884,414.9826],[126.8374,-8.6801,532.8614],[126.8372,-8.6732,651.6765],[126.8349,-8.6699,691.1411],[126.837,-8.6688,676.4562],[126.8362,-8.6662,789.6701],[126.8389,-8.6634,694.9898],[126.8326,-8.6589,667.5073],[126.8338,-8.6565,640.6244],[126.832,-8.656,637.1321],[126.832,-8.6544,560.6152],[126.8338,-8.6536,517.7969],[126.8298,-8.6519,547.5313],[126.8285,-8.646,538.8766],[126.831,-8.6435,526.276],[126.8334,-8.6364,527.5739],[126.8431,-8.632,412.267],[126.8437,-8.629,372.2913],[126.8416,-8.6266,397.3584],[126.8403,-8.6193,386.7635],[126.8444,-8.616,408.366],[126.8471,-8.6063,450.458],[126.8384,-8.6119,277.1725],[126.8326,-8.6131,244.5801],[126.8309,-8.608,242.4518],[126.8265,-8.6028,303.8605],[126.8182,-8.6017,344.7083],[126.8139,-8.5992,271.2817],[126.8089,-8.6003,187.6247],[126.8104,-8.6045,192.0892],[126.8092,-8.6071,175.7079],[126.8122,-8.613,168.683],[126.8084,-8.6166,166.5871],[126.8103,-8.6174,179.8055],[126.8103,-8.6216,152.0017],[126.8063,-8.6199,169.4652],[126.7972,-8.6229,168.2827],[126.7925,-8.6222,147.1389],[126.7867,-8.6234,182.6799],[126.7814,-8.6271,112.7388],[126.7747,-8.6394,94.2032],[126.766,-8.6464,80.7775],[126.7661,-8.6504,80.5018],[126.7638,-8.6531,90.5387],[126.765,-8.6557,73.8758],[126.7596,-8.6577,81.3605],[126.7548,-8.6568,72.2657],[126.7475,-8.6655,78.3005],[126.7456,-8.6734,56.8911],[126.7413,-8.6775,47.462],[126.7417,-8.6799,72.9467],[126.739,-8.6815,41.8097],[126.7364,-8.6863,44.4894],[126.734,-8.6853,36.7279],[126.7299,-8.6871,33.3144]]]]}}