{"type":"Feature","properties":{"GID_3":"TLS.6.6.5_1","GID_0":"TLS","country":"Timor-Leste","GID_1":"TLS.6_1","province":"Covalima","NL_NAME_1":"NA","GID_2":"TLS.6.6_1","county":"Tilomar","NL_NAME_2":"NA","city":"Maudema","VARNAME_3":"Mau-Demu","NL_NAME_3":"NA","TYPE_3":"Suco","ENGTYPE_3":"Community","CC_3":"NA","HASC_3":"NA","name":"Maudema.city"},
"geometry":{"type": "MultiPolygon","coordinates": [[[[125.1754,-9.3396,76.6625],[125.1715,-9.4124,3.2643],[125.1928,-9.4092,5.0113],[125.202,-9.4103,0.0],[125.2069,-9.3876,15.5333],[125.21,-9.357,28.8232],[125.1891,-9.3543,45.5035],[125.1854,-9.3508,49.9278],[125.1826,-9.3412,57.6684],[125.1754,-9.3396,76.6625]]]]}}