{"type": "Feature","bbox": [126.2911,-8.6839,126.3764,-8.6272],"geometry": {"type": "MultiPolygon","coordinates": [[[[126.3338,-8.6382,435.2959],[126.3245,-8.65,883.2816],[126.3195,-8.6505,977.8622],[126.3185,-8.6542,840.8912],[126.3065,-8.6643,590.5729],[126.2953,-8.67,481.2682],[126.2911,-8.6693,460.6482],[126.3091,-8.6817,664.4174],[126.3173,-8.6811,789.967],[126.3227,-8.6785,855.7509],[126.324,-8.6757,871.4071],[126.3328,-8.6726,887.4645],[126.335,-8.6738,893.1376],[126.3382,-8.6809,937.5828],[126.3429,-8.6839,801.2241],[126.3518,-8.6806,756.6323],[126.3546,-8.6769,747.1072],[126.3581,-8.6773,734.8432],[126.357,-8.6717,726.5751],[126.3593,-8.6724,733.398],[126.3605,-8.6699,716.9662],[126.3711,-8.6652,714.0894],[126.3725,-8.6606,747.9482],[126.369,-8.6577,797.1697],[126.371,-8.6564,765.4175],[126.3728,-8.6478,819.7095],[126.3764,-8.6439,825.0377],[126.3753,-8.6417,815.8071],[126.3675,-8.6396,805.4122],[126.3581,-8.6313,571.7026],[126.3561,-8.6312,538.0497],[126.3551,-8.6272,519.6201],[126.3436,-8.6275,443.9265],[126.3338,-8.6382,435.2959]]]]}
,"properties": {"GID_3": "TLS.4.6.6_1","GID_0": "TLS","country": "Timor-Leste","GID_1": "TLS.4_1","province": "Baucau","NL_NAME_1": "NA","GID_2": "TLS.4.6_1","county": "Venilale","NL_NAME_2": "NA","city": "Uatolia","VARNAME_3": "Fatulia","NL_NAME_3": "NA","TYPE_3": "Suco","ENGTYPE_3": "Community","CC_3": "NA","HASC_3": "NA","name": "Uatolia.city","area_km2": 30.05752,"hist_schema_id": "Elevation0-9000","hist_area_km2": {"450": 0.37731,"475": 0.62885,"500": 0.79654,"525": 0.90135,"550": 1.36248,"575": 0.94326,"600": 1.11093,"625": 1.17382,"650": 1.73975,"675": 1.40436,"700": 1.80261,"725": 2.0122,"750": 2.41044,"775": 2.59908,"800": 2.64101,"825": 2.9135,"850": 2.24276,"875": 1.21568,"900": 1.63487,"925": 0.06288,"950": 0.02096,"975": 0.06288}}}