{"type": "Feature","bbox": [125.3118,-8.9755,125.356,-8.8977],"geometry": {"type": "MultiPolygon","coordinates": [[[[125.3398,-8.9755,442.083],[125.3485,-8.966,867.8474],[125.3493,-8.9608,730.5906],[125.3516,-8.9575,775.9152],[125.3507,-8.9517,687.9744],[125.3519,-8.9453,623.1586],[125.3559,-8.9404,629.1233],[125.3548,-8.9347,558.1153],[125.356,-8.9283,458.8814],[125.3515,-8.9224,360.8168],[125.3518,-8.9182,320.3026],[125.3467,-8.9176,294.9326],[125.3454,-8.9151,289.1857],[125.3414,-8.9132,276.0002],[125.3409,-8.9041,254.6562],[125.3362,-8.905,240.0104],[125.3334,-8.9082,238.7676],[125.3198,-8.9057,217.9303],[125.3118,-8.8977,223.1937],[125.314,-8.9006,205.1661],[125.3143,-8.911,216.2866],[125.3192,-8.9127,228.1841],[125.329,-8.9275,248.6927],[125.3275,-8.9299,253.77],[125.3223,-8.9317,257.4769],[125.3153,-8.9467,352.6725],[125.3203,-8.9461,294.4826],[125.3219,-8.9489,293.4963],[125.3211,-8.9503,335.5852],[125.3231,-8.9509,298.1551],[125.3221,-8.9538,309.1527],[125.3201,-8.9541,319.5104],[125.3204,-8.9555,320.3825],[125.3265,-8.9551,323.8292],[125.3274,-8.9626,341.6631],[125.3381,-8.9703,398.1434],[125.3398,-8.9755,442.083]]]]}
,"properties": {"GID_3": "TLS.8.1.8_1","GID_0": "TLS","country": "Timor-Leste","GID_1": "TLS.8_1","province": "Ermera","NL_NAME_1": "NA","GID_2": "TLS.8.1_1","county": "Atsabe","NL_NAME_2": "NA","city": "Laubonu","VARNAME_3": "LauBanu","NL_NAME_3": "NA","TYPE_3": "Suco","ENGTYPE_3": "Community","CC_3": "NA","HASC_3": "NA","name": "Laubonu.city","area_km2": 21.69884,"hist_schema_id": "Elevation0-9000","hist_area_km2": {"200": 0.25136,"225": 0.77501,"250": 1.55,"275": 1.57093,"300": 1.54996,"325": 1.78032,"350": 1.82219,"375": 1.57087,"400": 1.82219,"425": 1.38234,"450": 1.21478,"475": 1.17289,"500": 0.94249,"525": 0.79588,"550": 0.87965,"575": 0.75398,"600": 0.5236,"625": 0.5236,"650": 0.29321,"675": 0.12566,"700": 0.18849,"725": 0.04189,"750": 0.10472,"775": 0.02094,"800": 0.04189}}}