{"type": "Feature","bbox": [125.1854,-8.9824,125.3288,-8.7655],"geometry": {"type": "MultiPolygon","coordinates": [[[[125.3212,-8.9672,335.7014],[125.321,-8.962,345.1919],[125.324,-8.9575,366.6389],[125.3216,-8.9568,364.52],[125.3201,-8.9541,319.5104],[125.3221,-8.9538,309.1527],[125.3231,-8.9509,298.1551],[125.3211,-8.9503,335.5852],[125.3217,-8.9482,305.4724],[125.3198,-8.9457,294.4826],[125.3168,-8.9473,292.6385],[125.3154,-8.9456,390.7194],[125.3223,-8.9317,257.4769],[125.3275,-8.9299,253.77],[125.3288,-8.9263,248.6927],[125.3192,-8.9127,228.1841],[125.3143,-8.911,216.2866],[125.3138,-8.8998,205.1661],[125.3118,-8.8977,223.1937],[125.3002,-8.8942,189.0349],[125.296,-8.8895,181.6176],[125.2934,-8.8798,176.3417],[125.2953,-8.8651,163.736],[125.2827,-8.8508,141.6517],[125.2814,-8.8322,123.4874],[125.2792,-8.8236,117.9999],[125.258,-8.7902,81.2892],[125.2498,-8.7809,72.7822],[125.2457,-8.779,70.1351],[125.2407,-8.7722,62.4154],[125.2348,-8.7678,56.0071],[125.2106,-8.7655,43.4713],[125.202,-8.7681,40.2104],[125.2026,-8.7716,39.8753],[125.2085,-8.774,39.1632],[125.2071,-8.782,44.1757],[125.2101,-8.789,48.2479],[125.215,-8.7915,43.0977],[125.2166,-8.8,45.7529],[125.2203,-8.8047,49.8913],[125.2117,-8.8125,46.8944],[125.209,-8.8218,49.4569],[125.2101,-8.8296,51.0254],[125.2047,-8.8381,52.9025],[125.2051,-8.844,54.9029],[125.195,-8.8515,56.575],[125.1945,-8.8621,59.6977],[125.1854,-8.878,63.6917],[125.1856,-8.8793,63.6917],[125.1951,-8.8794,69.2605],[125.2024,-8.8844,76.5885],[125.2099,-8.8957,87.0369],[125.209,-8.9046,100.7464],[125.2143,-8.9143,111.409],[125.2132,-8.9285,138.4053],[125.2178,-8.9337,165.8793],[125.217,-8.9376,167.434],[125.2198,-8.948,154.384],[125.2194,-8.9571,166.6798],[125.2211,-8.967,182.0188],[125.2232,-8.9686,189.8277],[125.2338,-8.9705,338.5159],[125.2395,-8.9675,461.1181],[125.244,-8.9677,515.2209],[125.2514,-8.9615,709.6544],[125.2574,-8.9603,934.6548],[125.2621,-8.9614,1214.0388],[125.27,-8.9672,1277.9458],[125.2818,-8.9688,983.6064],[125.2899,-8.9786,642.3704],[125.2945,-8.9803,592.6033],[125.2966,-8.9784,545.9352],[125.2999,-8.9783,493.7466],[125.3018,-8.982,419.1445],[125.304,-8.9824,417.4175],[125.3068,-8.9766,378.1615],[125.3132,-8.9766,365.5678],[125.3136,-8.973,355.5957],[125.3171,-8.9683,348.3559],[125.3212,-8.9672,335.7014]]]]}
,"properties": {"GID_2": "TLS.5.4_1","GID_0": "TLS","country": "Timor-Leste","GID_1": "TLS.5_1","province": "Bobonaro","NL_NAME_1": "NA","county": "Cailaco","VARNAME_2": "NA","NL_NAME_2": "NA","TYPE_2": "Subdistrito","ENGTYPE_2": "Subdistrict","CC_2": "NA","HASC_2": "NA","name": "Cailaco.county","area_km2": 206.9227,"hist_schema_id": "Elevation0-9000","hist_area_km2": {"25": 0.021,"50": 17.118,"75": 16.2576,"100": 11.1452,"125": 11.6896,"150": 9.6993,"175": 9.0289,"200": 8.7147,"225": 8.505,"250": 8.861,"275": 9.3009,"300": 8.2743,"325": 7.4574,"350": 6.7869,"375": 6.703,"400": 5.1529,"425": 5.3414,"450": 4.3568,"475": 4.3777,"500": 4.0425,"525": 3.2046,"550": 2.7438,"575": 2.8066,"600": 2.1154,"625": 1.9269,"650": 2.1992,"675": 1.885,"700": 1.8222,"725": 1.529,"750": 1.5918,"775": 1.8222,"800": 1.6128,"825": 1.5499,"850": 1.2776,"875": 1.2567,"900": 1.4033,"925": 1.2986,"950": 0.9844,"975": 0.6912,"1000": 1.152,"1025": 0.8587,"1050": 0.8378,"1075": 0.6702,"1100": 0.6074,"1125": 0.398,"1150": 0.377,"1175": 0.3351,"1200": 0.3561,"1225": 0.4189,"1250": 0.4398,"1275": 0.4189,"1300": 0.3142,"1325": 0.3142,"1350": 0.2513,"1375": 0.4817,"1400": 0.1885,"1425": 0.1675,"1450": 0.1466,"1475": 0.1257,"1500": 0.1885,"1525": 0.1257,"1550": 0.1675,"1575": 0.1466,"1600": 0.1257,"1625": 0.1257,"1650": 0.0838,"1675": 0.0838,"1700": 0.1257,"1725": 0.0838,"1750": 0.0628,"1775": 0.0628,"1800": 0.0628,"1825": 0.0419,"1850": 0.0209}}}