{"type": "Feature","bbox": [125.552,-8.8251,125.5983,-8.7806],"geometry": {"type": "MultiPolygon","coordinates": [[[[125.5552,-8.7864,1133.2059],[125.552,-8.7912,1212.1895],[125.5526,-8.7961,1165.2493],[125.5629,-8.7939,1090.7072],[125.5675,-8.7991,1204.2924],[125.5687,-8.8034,1312.8689],[125.5736,-8.8081,1419.0436],[125.5741,-8.8113,1532.7495],[125.5801,-8.8193,1779.8094],[125.5814,-8.8236,1879.0112],[125.5835,-8.8251,1797.5],[125.5937,-8.8232,1733.6865],[125.5941,-8.8108,1514.5071],[125.5967,-8.806,1385.4729],[125.5965,-8.8001,1189.7771],[125.5983,-8.7966,1105.937],[125.5975,-8.7907,990.7897],[125.5828,-8.7832,1209.9323],[125.573,-8.7839,1127.1285],[125.563,-8.7806,1213.7693],[125.5584,-8.7806,1192.4258],[125.5552,-8.7864,1133.2059]]]]}
,"properties": {"GID_3": "TLS.1.1.11_1","GID_0": "TLS","country": "Timor-Leste","GID_1": "TLS.1_1","province": "Aileu","NL_NAME_1": "NA","GID_2": "TLS.1.1_1","county": "Aileu","NL_NAME_2": "NA","city": "Lahae","VARNAME_3": "NA","NL_NAME_3": "NA","TYPE_3": "Suco","ENGTYPE_3": "Community","CC_3": "NA","HASC_3": "NA","name": "Lahae.city","area_km2": 13.61923,"hist_schema_id": "Elevation0-9000","hist_area_km2": {"975": 0.12572,"1000": 0.20953,"1025": 0.3143,"1050": 0.37716,"1075": 0.96384,"1100": 1.11052,"1125": 1.06861,"1150": 1.17338,"1175": 1.06861,"1200": 0.75431,"1225": 0.50287,"1250": 0.3981,"1275": 0.29334,"1300": 0.41905,"1325": 0.29333,"1350": 0.27238,"1375": 0.29333,"1400": 0.25143,"1425": 0.23047,"1450": 0.18857,"1475": 0.29333,"1500": 0.14666,"1525": 0.20952,"1550": 0.12571,"1575": 0.43999,"1600": 0.16762,"1625": 0.29333,"1650": 0.16761,"1675": 0.25142,"1700": 0.16761,"1725": 0.14666,"1750": 0.12571,"1775": 0.23047,"1800": 0.12571,"1825": 0.10476,"1850": 0.10476,"1875": 0.12571,"1900": 0.08381}}}