{"type":"Feature","properties":{"GID_3":"TLS.2.1.2_1","GID_0":"TLS","country":"Timor-Leste","GID_1":"TLS.2_1","province":"Ainaro","NL_NAME_1":"NA","GID_2":"TLS.2.1_1","county":"Ainaro","NL_NAME_2":"NA","city":"Kassa","VARNAME_3":"Cassa","NL_NAME_3":"NA","TYPE_3":"Suco","ENGTYPE_3":"Community","CC_3":"NA","HASC_3":"NA","name":"Kassa.city"},
"geometry":{"type": "MultiPolygon","coordinates": [[[[125.5072,-9.0488,370.9968],[125.5028,-9.0472,388.2372],[125.492,-9.0518,574.7333],[125.4808,-9.0515,490.7288],[125.4744,-9.0546,348.0735],[125.4725,-9.0573,338.4383],[125.4723,-9.0617,371.2673],[125.4704,-9.064,298.2296],[125.4754,-9.0692,288.2665],[125.4747,-9.0723,273.3375],[125.4763,-9.0746,312.0924],[125.4749,-9.0764,268.9968],[125.4765,-9.0822,253.6238],[125.4744,-9.0873,239.0104],[125.4797,-9.0965,226.2541],[125.4811,-9.1055,198.7406],[125.4775,-9.1172,174.0669],[125.4736,-9.1242,160.4326],[125.4739,-9.1274,154.2733],[125.4812,-9.132,319.5366],[125.4857,-9.1321,191.9633],[125.488,-9.1359,174.5208],[125.4941,-9.1385,129.6277],[125.4946,-9.1428,110.3303],[125.4966,-9.1437,114.5369],[125.5209,-9.1421,285.2321],[125.525,-9.1468,257.8378],[125.5251,-9.1519,282.2457],[125.5298,-9.1593,148.5718],[125.54,-9.163,64.5238],[125.5441,-9.1456,90.5555],[125.5498,-9.1331,105.6577],[125.5503,-9.1252,118.9399],[125.548,-9.1238,124.7687],[125.5412,-9.1125,150.7516],[125.5319,-9.1035,174.2424],[125.5315,-9.0991,185.6688],[125.5376,-9.0784,230.0524],[125.5368,-9.074,243.5656],[125.5337,-9.0651,263.175],[125.5314,-9.0631,278.9212],[125.5275,-9.0611,281.2725],[125.523,-9.0614,356.8707],[125.5186,-9.0578,316.6309],[125.5153,-9.0573,321.7129],[125.5103,-9.0535,347.5367],[125.5102,-9.0511,379.0713],[125.5072,-9.0488,370.9968]]]]}}