{"type":"Feature","properties":{"GID_2":"TLS.1.1_1","GID_0":"TLS","country":"Timor-Leste","GID_1":"TLS.1_1","province":"Aileu","NL_NAME_1":"NA","county":"Aileu","VARNAME_2":"NA","NL_NAME_2":"NA","TYPE_2":"Subdistrito","ENGTYPE_2":"Subdistrict","CC_2":"NA","HASC_2":"NA","name":"Aileu.county"},
"geometry":{"type": "MultiPolygon","coordinates": [[[[125.5827,-8.8255,1826.4698],[125.5937,-8.8232,1733.6865],[125.5975,-8.8244,1638.1697],[125.6093,-8.8197,1545.8588],[125.6099,-8.8142,1333.8447],[125.6071,-8.8084,1236.4841],[125.6089,-8.8028,1095.8079],[125.6052,-8.7949,1009.0361],[125.6068,-8.7895,952.7867],[125.6083,-8.788,946.46489999999994],[125.6133,-8.7886,937.4572],[125.624,-8.7854,916.7383],[125.6274,-8.7883,915.619],[125.6295,-8.786,937.7462],[125.6321,-8.7879,905.2104],[125.6353,-8.7859,911.6301],[125.6354,-8.7883,897.1486],[125.6385,-8.7879,904.085],[125.6426,-8.79,890.6557],[125.6429,-8.788,877.61],[125.645,-8.7881,886.4653],[125.6443,-8.7847,893.8901],[125.6462,-8.7828,894.639],[125.6467,-8.7767,864.3234],[125.645,-8.7747,848.5389],[125.6469,-8.7728,829.9563],[125.6468,-8.7705,844.3129],[125.6506,-8.7657,822.2781],[125.6551,-8.7643,816.0432],[125.6498,-8.7594,872.9142],[125.644,-8.74,837.3245],[125.6373,-8.7387,849.7973],[125.6294,-8.7447,866.2717],[125.6236,-8.7387,958.5812],[125.6233,-8.7331,1105.3378],[125.629,-8.7255,1263.3662],[125.6227,-8.7081,1296.0011],[125.6273,-8.6961,1338.8801],[125.6239,-8.6887,1173.7627],[125.6272,-8.6852,1265.407],[125.6262,-8.6749,1263.1903],[125.6246,-8.6717,1197.8435],[125.6258,-8.6686,1186.1385],[125.6326,-8.6665,1319.2036],[125.6367,-8.6627,1397.6052],[125.6353,-8.6574,1444.1356],[125.6318,-8.6545,1289.9492],[125.6286,-8.6462,1187.7687],[125.632,-8.6328,1146.4623],[125.6286,-8.6283,1224.2964],[125.6184,-8.6312,1252.4236],[125.6141,-8.6373,1206.6841],[125.6001,-8.6382,1310.4236],[125.5963,-8.6417,1337.1237],[125.5903,-8.6437,1287.6589],[125.5841,-8.6508,1121.9187],[125.569,-8.6515,1370.3943],[125.5652,-8.6568,1163.6351],[125.5668,-8.6669,1056.358],[125.5597,-8.6764,1187.6941],[125.5564,-8.6872,1056.2095],[125.5466,-8.6925,1159.7491],[125.5437,-8.7054,1190.3734],[125.5465,-8.7072,1201.1688],[125.5398,-8.7134,1168.9561],[125.534,-8.7138,1182.7566],[125.5328,-8.7216,1183.5363],[125.5232,-8.7258,1248.1667],[125.5223,-8.728,1287.0389],[125.5166,-8.7317,1236.1437],[125.504,-8.7311,1140.2297],[125.4948,-8.7338,1057.2739],[125.4892,-8.7401,1005.5338],[125.4758,-8.7437,828.8544],[125.4733,-8.7504,863.36],[125.47,-8.7535,904.7035],[125.4695,-8.7557,975.5422],[125.4718,-8.76,1008.5966],[125.471,-8.7623,1006.6827],[125.468,-8.7651,1074.4011],[125.464,-8.7655,1071.8663],[125.4648,-8.7668,1130.4006],[125.4615,-8.7733,1182.7749],[125.4538,-8.7805,1203.347],[125.4593,-8.7863,1281.8999],[125.4605,-8.7963,1313.4001],[125.4623,-8.797,1279.8162],[125.4636,-8.8022,1402.3096],[125.4676,-8.7984,1310.7434],[125.4695,-8.8007,1357.8159],[125.4727,-8.7987,1330.5126],[125.4768,-8.7997,1348.8748],[125.4775,-8.798,1326.9321],[125.4796,-8.8003,1334.5991],[125.4798,-8.8041,1412.3134],[125.4826,-8.8044,1408.4409],[125.4865,-8.8133,1403.5211],[125.4913,-8.8173,1438.8854],[125.4946,-8.8243,1469.2959],[125.4929,-8.8278,1501.603],[125.4972,-8.8508,1850.3939],[125.5019,-8.8495,2077.3564],[125.5052,-8.8503,2212.5625],[125.5122,-8.8449,2291.9531],[125.5181,-8.8462,2067.0474],[125.534,-8.8457,1803.4636],[125.5424,-8.8386,1815.8081],[125.548,-8.8361,1992.2495],[125.5522,-8.837,1986.7412],[125.5572,-8.8408,1943.9623],[125.5635,-8.8402,1889.8746],[125.5659,-8.8385,1816.4077],[125.565,-8.836,1835.3826],[125.5693,-8.8331,1923.9983],[125.5771,-8.8314,1763.3232],[125.5827,-8.8255,1826.4698]]]]}}