{"type": "Feature","bbox": [125.2928,-9.0748,125.3397,-9.0301],"geometry": {"type": "MultiPolygon","coordinates": [[[[125.3005,-9.0301,1024.0154],[125.3053,-9.0376,864.6775],[125.3066,-9.0466,555.1394],[125.3059,-9.0495,532.3882],[125.2976,-9.0562,726.4631],[125.2928,-9.0568,852.7701],[125.2933,-9.0623,756.9872],[125.3021,-9.0622,664.1488],[125.3051,-9.0655,614.7414],[125.308,-9.065,599.4056],[125.3132,-9.0748,788.9369],[125.3249,-9.0599,379.9286],[125.3277,-9.0621,372.2722],[125.3282,-9.0649,369.377],[125.335,-9.0666,349.3659],[125.3375,-9.0692,336.6177],[125.3375,-9.066,363.8129],[125.3397,-9.0646,345.0691],[125.337,-9.0545,378.4246],[125.3319,-9.0549,452.0088],[125.328,-9.05,506.2953],[125.3219,-9.0468,605.893],[125.3193,-9.047,635.8042],[125.3113,-9.0302,934.7594],[125.304,-9.0316,990.8182],[125.3005,-9.0301,1024.0154]]]]}
,"properties": {"GID_3": "TLS.5.3.1_1","GID_0": "TLS","country": "Timor-Leste","GID_1": "TLS.5_1","province": "Bobonaro","NL_NAME_1": "NA","GID_2": "TLS.5.3_1","county": "Bobonaro","NL_NAME_2": "NA","city": "Aiaca","VARNAME_3": "AiAssa","NL_NAME_3": "NA","TYPE_3": "Suco","ENGTYPE_3": "Community","CC_3": "NA","HASC_3": "NA","name": "Aiaca.city","area_km2": 10.343382,"hist_schema_id": "Elevation0-9000","hist_area_km2": {"325": 0.020937,"350": 0.167499,"375": 0.397815,"400": 0.397816,"425": 0.544381,"450": 0.711882,"475": 0.397819,"500": 0.79564,"525": 0.460635,"550": 0.649075,"575": 0.753767,"600": 0.774703,"625": 0.586263,"650": 0.502512,"675": 0.586261,"700": 0.314068,"725": 0.439701,"750": 0.418766,"775": 0.272199,"800": 0.293137,"825": 0.167511,"850": 0.104696,"875": 0.104695,"900": 0.146574,"925": 0.062818,"950": 0.104697,"975": 0.083757,"1000": 0.083757}}}