{"type":"Feature","properties":{"GID_3":"TLS.2.4.7_1","GID_0":"TLS","country":"Timor-Leste","GID_1":"TLS.2_1","province":"Ainaro","NL_NAME_1":"NA","GID_2":"TLS.2.4_1","county":"Maubisse","NL_NAME_2":"NA","city":"Manetu","VARNAME_3":"NA","NL_NAME_3":"NA","TYPE_3":"Suco","ENGTYPE_3":"Community","CC_3":"NA","HASC_3":"NA","name":"Manetu.city"},
"geometry":{"type": "MultiPolygon","coordinates": [[[[125.6637,-8.8963,640.3376],[125.6665,-8.8963,620.3207],[125.6691,-8.8992,612.6817],[125.6783,-8.9024,625.7399],[125.682,-8.899,646.6992],[125.6824,-8.896,713.8182],[125.6872,-8.8892,760.7377],[125.6876,-8.8831,882.9996],[125.6856,-8.8795,941.8786],[125.6865,-8.8747,1035.0286],[125.6902,-8.8691,1262.7588],[125.6844,-8.8689,1298.8099],[125.6839,-8.8666,1231.1509],[125.6856,-8.8637,1067.0573],[125.6839,-8.862,1071.324],[125.6858,-8.8574,1222.8822],[125.6857,-8.8515,1188.7556],[125.69,-8.849,1064.9103],[125.6893,-8.8472,1061.6384],[125.6826,-8.8464,1195.7791],[125.6828,-8.8441,1194.4196],[125.6888,-8.8412,1090.6233],[125.6852,-8.8381,1175.7915],[125.6813,-8.8382,1316.0643],[125.6805,-8.8399,1333.4661],[125.6752,-8.8412,1312.2784],[125.6699,-8.8396,1215.9352],[125.6714,-8.8496,1195.4161],[125.6646,-8.8524,1252.6533],[125.6573,-8.8506,1364.6653],[125.6502,-8.8518,1514.067],[125.6563,-8.8569,1550.1759],[125.6586,-8.8682,1097.6073],[125.658,-8.872,1045.7961],[125.6491,-8.8839,758.1974],[125.6517,-8.8855,759.8918],[125.6525,-8.8895,752.0321],[125.6543,-8.89,712.3289],[125.6526,-8.8935,752.9962],[125.6557,-8.8966,759.1053],[125.6609,-8.8952,651.6192],[125.6637,-8.8963,640.3376]]]]}}