{"type":"Feature","properties":{"GID_3":"TLS.4.2.1_1","GID_0":"TLS","country":"Timor-Leste","GID_1":"TLS.4_1","province":"Baucau","NL_NAME_1":"NA","GID_2":"TLS.4.2_1","county":"Baucau","NL_NAME_2":"NA","city":"Bahu","VARNAME_3":"NA","NL_NAME_3":"NA","TYPE_3":"Suco","ENGTYPE_3":"Community","CC_3":"NA","HASC_3":"NA","name":"Bahu.city"},
"geometry":{"type": "MultiPolygon","coordinates": [[[[126.4542,-8.4358,0.8082],[126.4446,-8.456,298.6904],[126.4108,-8.4563,504.1041],[126.4161,-8.4934,528.5933],[126.43,-8.4838,512.3651],[126.4422,-8.4841,480.3509],[126.4577,-8.4461,89.7729],[126.4585,-8.4367,8.008],[126.4542,-8.4358,0.8082]]]]}}