{"type": "Feature","bbox": [125.2128,-9.152,125.272,-9.0943],"geometry": {"type": "MultiPolygon","coordinates": [[[[125.2219,-9.0969,1700.8064],[125.2243,-9.101,1630.4807],[125.224,-9.1132,1087.1222],[125.2259,-9.1182,978.545],[125.2217,-9.1221,928.949],[125.2128,-9.1248,899.3695],[125.2227,-9.1328,986.8429],[125.2254,-9.1431,1127.9871],[125.2324,-9.152,754.1304],[125.2356,-9.1426,1046.8369],[125.2452,-9.1312,1170.7402],[125.259,-9.1248,795.8544],[125.2661,-9.1256,732.9514],[125.272,-9.1233,650.053],[125.271,-9.1192,777.1863],[125.2645,-9.1095,1098.4017],[125.2601,-9.1076,1211.4724],[125.2593,-9.1036,1270.7856],[125.256,-9.1015,1290.7198],[125.2389,-9.0943,1526.6857],[125.2219,-9.0969,1700.8064]]]]}
,"properties": {"GID_3": "TLS.5.5.5_1","GID_0": "TLS","country": "Timor-Leste","GID_1": "TLS.5_1","province": "Bobonaro","NL_NAME_1": "NA","GID_2": "TLS.5.5_1","county": "Lolotoi","NL_NAME_2": "NA","city": "Lontas","VARNAME_3": "NA","NL_NAME_3": "NA","TYPE_3": "Suco","ENGTYPE_3": "Community","CC_3": "NA","HASC_3": "NA","name": "Lontas.city","area_km2": 19.59449,"hist_schema_id": "Elevation0-9000","hist_area_km2": {"650": 0.02093,"675": 0.02093,"700": 0.0628,"725": 0.0628,"750": 0.10467,"775": 0.1256,"800": 0.20934,"825": 0.14654,"850": 0.23027,"875": 0.1884,"900": 0.33494,"925": 0.54428,"950": 0.66988,"975": 0.92109,"1000": 0.75362,"1025": 1.00482,"1050": 1.1723,"1075": 1.13043,"1100": 1.17229,"1125": 1.44444,"1150": 1.1095,"1175": 0.83736,"1200": 0.56523,"1225": 0.69084,"1250": 0.52337,"1275": 0.69086,"1300": 0.85834,"1325": 0.7746,"1350": 0.58618,"1375": 0.46057,"1400": 0.37683,"1425": 0.3559,"1450": 0.16748,"1475": 0.14655,"1500": 0.12561,"1525": 0.06281,"1550": 0.14655,"1575": 0.10468,"1600": 0.14655,"1625": 0.12561,"1650": 0.27216,"1675": 0.14655}}}