{"type": "Feature","bbox": [124.3488,-9.2696,124.4261,-9.1881],"geometry": {"type": "MultiPolygon","coordinates": [[[[124.3929,-9.2696,177.3417],[124.4179,-9.2641,359.0532],[124.4261,-9.2647,348.5976],[124.4218,-9.2451,633.7954],[124.4146,-9.2288,469.454],[124.4011,-9.2093,482.863],[124.3904,-9.1881,4.5325],[124.3856,-9.1926,5.2627],[124.3766,-9.1948,0.8182],[124.3696,-9.1984,4.4451],[124.3552,-9.1983,2.441],[124.3489,-9.1961,0.0],[124.3488,-9.225,89.9324],[124.3612,-9.2289,319.3867],[124.3699,-9.2336,600.9905],[124.3707,-9.2355,616.4258],[124.3677,-9.2367,502.5735],[124.3643,-9.2421,240.288],[124.3683,-9.2439,162.948],[124.3768,-9.2405,374.2372],[124.3895,-9.2466,562.9907],[124.3935,-9.2459,614.8431],[124.3929,-9.2524,446.2543],[124.3941,-9.2566,349.0844],[124.391,-9.2678,197.1298],[124.3929,-9.2696,177.3417]]]]}
,"properties": {"GID_3": "TLS.3.3.2_1","GID_0": "TLS","country": "Timor-Leste","GID_1": "TLS.3_1","province": "Ambeno","NL_NAME_1": "NA","GID_2": "TLS.3.3_1","county": "PanteMacassar","NL_NAME_2": "NA","city": "Costa","VARNAME_3": "NA","NL_NAME_3": "NA","TYPE_3": "Suco","ENGTYPE_3": "Community","CC_3": "NA","HASC_3": "NA","name": "Costa.city","area_km2": 39.8466,"hist_schema_id": "Elevation0-9000","hist_area_km2": {"0": 3.32778,"25": 2.72079,"50": 1.92546,"75": 1.56965,"100": 1.23479,"125": 0.98365,"150": 0.81621,"175": 1.02549,"200": 1.06733,"225": 0.9208,"250": 1.04639,"275": 0.98358,"300": 1.06727,"325": 1.19285,"350": 1.0254,"375": 1.23468,"400": 1.23469,"425": 0.94171,"450": 0.98357,"475": 0.858,"500": 1.00451,"525": 1.02543,"550": 1.17192,"575": 1.13007,"600": 0.98359,"625": 1.00451,"650": 0.89988,"675": 0.69061,"700": 0.77432,"725": 0.35577,"750": 0.46041,"775": 0.64875,"800": 0.58597,"825": 0.43948,"850": 0.56504,"875": 0.31391,"900": 0.33484,"925": 0.27206,"950": 0.29298,"975": 0.16742,"1000": 0.25113,"1025": 0.16742,"1050": 0.04185,"1075": 0.06278,"1100": 0.04185}}}