{"type":"Feature","properties":{"GID_1":"TLS.8_1","GID_0":"TLS","country":"Timor-Leste","province":"Ermera","VARNAME_1":"NA","NL_NAME_1":"NA","TYPE_1":"Distrito","ENGTYPE_1":"District","CC_1":"NA","HASC_1":"TP.ER","ISO_1":"NA","name":"Ermera.province"},
"geometry":{"type": "MultiPolygon","coordinates": [[[[125.3727,-8.9874,737.5875],[125.3735,-8.9861,750.2885],[125.3844,-8.9857,893.957],[125.3971,-8.9818,1323.5353],[125.4001,-8.9827,1392.9688],[125.4138,-8.9782,1938.7855],[125.43,-8.9852,2386.887],[125.4488,-8.9759,2323.4954],[125.451,-8.974,2204.6824],[125.4508,-8.9702,2173.356],[125.4564,-8.9649,2291.6401],[125.4519,-8.9545,2507.6489],[125.4575,-8.9467,2464.6599],[125.4653,-8.9397,2377.676],[125.4728,-8.9383,2494.2434],[125.4727,-8.9362,2618.5002],[125.4806,-8.9299,2680.2458],[125.4796,-8.9255,2659.6851],[125.4809,-8.9226,2598.2002],[125.4872,-8.9173,2761.5],[125.4912,-8.9159,2725.5732],[125.4944,-8.9118,2764.0642],[125.4921,-8.8967,2569.2542],[125.4996,-8.8926,2493.0586],[125.5041,-8.8832,2295.8198],[125.5176,-8.8779,2259.4138],[125.522,-8.8729,2335.1299],[125.5206,-8.8667,2276.8867],[125.5099,-8.855,2326.3723],[125.5074,-8.8487,2284.9404],[125.5052,-8.8503,2212.5625],[125.5019,-8.8495,2077.3564],[125.4972,-8.8508,1850.3939],[125.4929,-8.8278,1501.603],[125.4943,-8.8234,1487.729],[125.4913,-8.8173,1438.8854],[125.4862,-8.8128,1437.5909],[125.4826,-8.8044,1408.4409],[125.4798,-8.8041,1412.3134],[125.4794,-8.7999,1334.5991],[125.4775,-8.798,1326.9321],[125.4768,-8.7997,1348.8748],[125.4727,-8.7987,1330.5126],[125.4695,-8.8007,1357.8159],[125.4676,-8.7984,1310.7434],[125.4636,-8.8022,1402.3096],[125.4623,-8.797,1279.8162],[125.4605,-8.7963,1313.4001],[125.4593,-8.7863,1281.8999],[125.4538,-8.7808,1203.347],[125.4615,-8.7733,1182.7749],[125.4648,-8.7668,1130.4006],[125.464,-8.7655,1071.8663],[125.468,-8.7651,1074.4011],[125.471,-8.7623,1006.6827],[125.4718,-8.76,1008.5966],[125.4695,-8.7557,975.5422],[125.4761,-8.7451,896.9463],[125.4736,-8.7425,807.3601],[125.4762,-8.7377,808.0961],[125.4649,-8.7298,752.2676],[125.4588,-8.7298,744.939],[125.4538,-8.7244,725.7216],[125.4543,-8.7232,725.7216],[125.4644,-8.7204,763.8552],[125.4712,-8.7223,782.7382],[125.4757,-8.7212,821.8537],[125.4781,-8.7235,842.6809],[125.4816,-8.7225,894.2035],[125.4835,-8.7236,879.0272],[125.4879,-8.7029,1070.1333],[125.4916,-8.7075,1084.8469],[125.4968,-8.71,1164.7644],[125.4991,-8.7085,1137.0703],[125.5028,-8.7099,1139.0498],[125.5056,-8.7076,1156.9766],[125.5099,-8.7076,1225.2554],[125.5158,-8.7008,1223.7493],[125.526,-8.693,1052.2034],[125.5284,-8.6865,855.5024],[125.5318,-8.6844,803.5916],[125.5352,-8.6774,751.2009],[125.5347,-8.6703,674.2529],[125.5301,-8.6684,659.7537],[125.5298,-8.6653,668.9606],[125.5269,-8.6626,642.2039],[125.5264,-8.6586,638.046],[125.5241,-8.6562,586.8041],[125.5248,-8.6538,510.7587],[125.5225,-8.6517,463.2878],[125.5215,-8.6465,361.1588],[125.5111,-8.6437,275.8884],[125.5054,-8.6386,220.8066],[125.5033,-8.638,205.8013],[125.4996,-8.6408,218.4359],[125.4927,-8.6389,284.7169],[125.4854,-8.6435,284.3147],[125.4798,-8.644,324.7875],[125.4734,-8.6422,360.9979],[125.4671,-8.6468,361.2701],[125.4642,-8.6454,388.188],[125.4642,-8.648,429.754],[125.462,-8.6491,409.164],[125.4596,-8.6453,417.2878],[125.4551,-8.6489,448.7727],[125.4525,-8.6463,449.0745],[125.4472,-8.6452,522.3753],[125.4436,-8.6503,448.9323],[125.4356,-8.6536,473.6632],[125.4326,-8.6601,471.9608],[125.4165,-8.6702,532.3746],[125.4098,-8.6725,551.7351],[125.4039,-8.6681,578.0817],[125.4,-8.6698,599.2335],[125.3979,-8.6753,661.3892],[125.3988,-8.6847,767.1082],[125.3961,-8.6894,839.5746],[125.3797,-8.6914,937.3779],[125.3726,-8.6969,652.0093],[125.3709,-8.7006,543.6531],[125.3673,-8.7012,536.7759],[125.3652,-8.7045,484.1604],[125.3636,-8.7012,506.0922],[125.358,-8.6998,450.5115],[125.3578,-8.7041,433.4295],[125.3484,-8.7042,429.0428],[125.3451,-8.7018,410.7252],[125.3452,-8.6988,376.2827],[125.3433,-8.697,378.9582],[125.3404,-8.6999,459.4265],[125.3378,-8.6998,411.2059],[125.3387,-8.6964,317.0102],[125.3365,-8.695,307.2728],[125.3348,-8.6978,291.4871],[125.3313,-8.696,295.2734],[125.3216,-8.6995,255.2921],[125.3189,-8.6972,273.8964],[125.3217,-8.6951,265.1488],[125.3159,-8.692,237.9403],[125.3165,-8.6954,257.8678],[125.311,-8.6961,239.4619],[125.3107,-8.7009,213.5941],[125.3078,-8.7016,215.371],[125.3072,-8.7046,203.3221],[125.3008,-8.7039,214.1322],[125.2971,-8.7071,185.5169],[125.2921,-8.708,169.9891],[125.286,-8.7166,159.2861],[125.2753,-8.7234,136.6224],[125.2696,-8.7248,142.3392],[125.2635,-8.7227,137.9959],[125.2471,-8.7332,98.1319],[125.2366,-8.7326,87.0482],[125.2309,-8.7345,79.458],[125.222,-8.7342,70.0817],[125.2162,-8.7379,62.2195],[125.2097,-8.737,54.9984],[125.2028,-8.7419,48.3735],[125.1977,-8.7435,42.6844],[125.1941,-8.7502,36.3354],[125.1899,-8.7536,31.2335],[125.1964,-8.7635,35.1107],[125.202,-8.7681,40.2104],[125.2106,-8.7655,43.4713],[125.2348,-8.7678,56.0071],[125.2407,-8.7722,62.4154],[125.2457,-8.779,70.1351],[125.2498,-8.7809,72.7822],[125.258,-8.7902,81.2892],[125.2792,-8.8236,117.9999],[125.2814,-8.8322,123.4874],[125.2827,-8.8508,141.6517],[125.2953,-8.8651,163.736],[125.2934,-8.8798,176.3417],[125.2966,-8.8907,183.1362],[125.3002,-8.8942,189.0349],[125.3118,-8.8977,223.1937],[125.3138,-8.8998,205.1661],[125.3143,-8.911,216.2866],[125.3192,-8.9127,228.1841],[125.3288,-8.9263,248.6927],[125.3275,-8.9299,253.77],[125.3223,-8.9317,257.4769],[125.3154,-8.9456,390.7194],[125.3168,-8.9473,292.6385],[125.3198,-8.9457,294.4826],[125.3217,-8.9482,305.4724],[125.3211,-8.9503,335.5852],[125.3229,-8.9505,298.1551],[125.3204,-8.9555,320.3825],[125.323,-8.956,312.9101],[125.3258,-8.9546,347.1368],[125.3277,-8.9574,332.3881],[125.3274,-8.9626,341.6631],[125.3394,-8.9723,404.4916],[125.3436,-8.9829,475.9868],[125.3443,-8.9876,495.6113],[125.3424,-8.9903,503.8529],[125.3441,-8.9934,522.3239],[125.3566,-8.9962,592.4473],[125.3588,-8.994,621.6292],[125.3658,-8.9924,659.3056],[125.3727,-8.9874,737.5875]]]]}}