{"type":"Feature","properties":{"ISO3166-1-Alpha-3":"TLS","country":"East Timor","fill":"#00F","id":"549","name":"Ermera"},
"geometry":{"type": "Polygon","coordinates": [[[125.49475,-8.64976,574.6744],[125.46814,-8.64852,468.6571],[125.43238,-8.66071,471.9608],[125.4053,-8.68159,777.5347],[125.38752,-8.69544,1099.2366],[125.34742,-8.70309,429.0428],[125.29905,-8.71218,276.4376],[125.273,-8.72624,176.4909],[125.22691,-8.74422,70.0597],[125.17921,-8.75445,51.8358],[125.1864,-8.77192,187.4918],[125.2234,-8.77915,53.7175],[125.23931,-8.78701,65.0714],[125.25151,-8.80727,152.5952],[125.27962,-8.86142,240.6555],[125.30773,-8.91806,295.7068],[125.31311,-8.9379,447.3592],[125.316,-8.96767,369.5327],[125.32634,-8.99144,801.6959],[125.38876,-8.98917,1094.5576],[125.4131,-8.98219,1906.821],[125.44271,-8.97366,2158.428],[125.44333,-8.94948,2269.2446],[125.45284,-8.93625,2172.7078],[125.46483,-8.92302,2216.6768],[125.47165,-8.90586,2098.8618],[125.48963,-8.88995,2059.4006],[125.49273,-8.86452,1769.4426],[125.48798,-8.85563,1799.7959],[125.47971,-8.84034,1631.5631],[125.47516,-8.82215,1582.8662],[125.44829,-8.80892,1233.9871],[125.43362,-8.79404,1161.7114],[125.44995,-8.77419,1193.9493],[125.45759,-8.75208,1104.9424],[125.44168,-8.73616,775.5487],[125.44416,-8.72396,721.1955],[125.4764,-8.71301,952.8655],[125.4979,-8.70081,975.7015],[125.50948,-8.67001,1000.999],[125.49935,-8.64996,633.3295],[125.49475,-8.64976,574.6744]]]}}