{"type": "Feature","bbox": [125.4978,-8.5583,125.5362,-8.5367],"geometry": {"type": "MultiPolygon","coordinates": [[[[125.5362,-8.554,17.9432],[125.5352,-8.5377,0.0],[125.5336,-8.5367,0.0],[125.5311,-8.5408,0.0],[125.5256,-8.5414,3.769],[125.5175,-8.5458,0.0],[125.5075,-8.5567,2.9135],[125.5047,-8.5576,0.0],[125.4978,-8.5561,0.0],[125.5045,-8.5583,4.5105],[125.5222,-8.5527,11.8602],[125.5362,-8.554,17.9432]]]]}
,"properties": {"GID_3": "TLS.7.2.21_1","GID_0": "TLS","country": "Timor-Leste","GID_1": "TLS.7_1","province": "Dili","NL_NAME_1": "NA","GID_2": "TLS.7.2_1","county": "DiliBarat","NL_NAME_2": "NA","city": "Suleur","VARNAME_3": "Comoro","NL_NAME_3": "NA","TYPE_3": "Suco","ENGTYPE_3": "Community","CC_3": "NA","HASC_3": "NA","name": "Suleur.city","area_km2": 3.249834,"hist_schema_id": "Elevation0-9000","hist_area_km2": {"0": 2.495039,"25": 0.754795}}}