{"type":"Feature","properties":{"GID_3":"TLS.4.6.5_1","GID_0":"TLS","country":"Timor-Leste","GID_1":"TLS.4_1","province":"Baucau","NL_NAME_1":"NA","GID_2":"TLS.4.6_1","county":"Venilale","NL_NAME_2":"NA","city":"Uatohaco","VARNAME_3":"UatoHaco","NL_NAME_3":"NA","TYPE_3":"Suco","ENGTYPE_3":"Community","CC_3":"NA","HASC_3":"NA","name":"Uatohaco.city"},
"geometry":{"type": "MultiPolygon","coordinates": [[[[126.4173,-8.6946,748.0991],[126.4267,-8.6985,607.1707],[126.4436,-8.7017,311.7871],[126.4476,-8.6996,257.7613],[126.4487,-8.6939,255.262],[126.4527,-8.6918,238.4439],[126.4502,-8.6885,236.3789],[126.4501,-8.6853,242.3712],[126.4556,-8.6847,233.3515],[126.4549,-8.6785,218.8756],[126.453,-8.6786,236.3557],[126.4525,-8.6754,218.9208],[126.4386,-8.6781,462.9104],[126.4344,-8.6812,555.3844],[126.4317,-8.6782,547.0629],[126.43,-8.6787,547.3413],[126.4215,-8.6846,669.6943],[126.4173,-8.6946,748.0991]]],
[[[126.4541,-8.6432,154.1417],[126.4589,-8.6406,153.7485],[126.4633,-8.6314,146.0183],[126.4691,-8.6275,129.9178],[126.4695,-8.6257,135.144],[126.4674,-8.623,126.9203],[126.4605,-8.6211,120.4676],[126.4539,-8.6275,246.3712],[126.4459,-8.63,342.7953],[126.4427,-8.6354,406.7166],[126.4279,-8.6289,848.7903],[126.4085,-8.6275,772.4713],[126.4047,-8.6278,625.6354],[126.3874,-8.6352,762.6182],[126.3879,-8.629,683.5946],[126.3937,-8.6202,576.9056],[126.3752,-8.6259,740.1566],[126.3551,-8.6272,519.6201],[126.3561,-8.6312,538.0497],[126.3581,-8.6313,571.7026],[126.3675,-8.6396,805.4122],[126.3745,-8.6411,789.1112],[126.3781,-8.6448,825.515],[126.3856,-8.6424,793.1528],[126.3942,-8.6356,821.0272],[126.4139,-8.6397,791.8882],[126.4207,-8.6322,878.0652],[126.4226,-8.6336,805.8964],[126.424,-8.6481,518.5396],[126.4375,-8.6419,403.9896],[126.4505,-8.6418,228.6568],[126.4541,-8.6432,154.1417]]]]}}