{"type": "Feature","bbox": [125.5565,-8.7322,125.6086,-8.6376],"geometry": {"type": "MultiPolygon","coordinates": [[[[125.5833,-8.7177,931.8062],[125.584,-8.7123,936.9872],[125.587,-8.7111,939.5904],[125.5882,-8.7079,944.4476],[125.5884,-8.704,959.1714],[125.5871,-8.7034,948.8515],[125.5882,-8.6957,958.4208],[125.587,-8.6932,972.9384],[125.593,-8.6844,980.1205],[125.5928,-8.6761,1023.9718],[125.5978,-8.6715,1025.3766],[125.5985,-8.6685,1000.5794],[125.6054,-8.6701,1040.8701],[125.6069,-8.6686,1025.0012],[125.606,-8.6674,1017.6095],[125.6084,-8.6672,1031.3101],[125.6065,-8.6583,1051.8292],[125.6086,-8.6438,1190.251],[125.6061,-8.6376,1227.199],[125.6001,-8.6382,1310.4236],[125.5963,-8.6417,1337.1237],[125.591,-8.6433,1287.6589],[125.5841,-8.6508,1121.9187],[125.5685,-8.652,1290.8754],[125.5652,-8.6568,1163.6351],[125.5668,-8.6669,1056.358],[125.5597,-8.6764,1187.6941],[125.5565,-8.6857,1080.4629],[125.5577,-8.692,1004.5728],[125.5638,-8.6996,971.0486],[125.5629,-8.7065,949.8074],[125.5674,-8.7139,936.3087],[125.566,-8.7176,936.9042],[125.5691,-8.7226,924.871],[125.568,-8.7322,917.0159],[125.572,-8.7319,916.6032],[125.5727,-8.7278,923.0667],[125.5763,-8.7285,916.7264],[125.5833,-8.7177,931.8062]]]]}
,"properties": {"GID_3": "TLS.1.1.1_1","GID_0": "TLS","country": "Timor-Leste","GID_1": "TLS.1_1","province": "Aileu","NL_NAME_1": "NA","GID_2": "TLS.1.1_1","county": "Aileu","NL_NAME_2": "NA","city": "Aisirimau","VARNAME_3": "Asirimou","NL_NAME_3": "NA","TYPE_3": "Suco","ENGTYPE_3": "Community","CC_3": "NA","HASC_3": "NA","name": "Aisirimau.city","area_km2": 30.05578,"hist_schema_id": "Elevation0-9000","hist_area_km2": {"900": 0.06287,"925": 1.19454,"950": 1.55086,"975": 1.78144,"1000": 2.20065,"1025": 2.70368,"1050": 2.53607,"1075": 3.01815,"1100": 3.18587,"1125": 2.01213,"1150": 1.9912,"1175": 1.82353,"1200": 1.13185,"1225": 1.13188,"1250": 1.04803,"1275": 0.90132,"1300": 0.71267,"1325": 0.46115,"1350": 0.41922,"1375": 0.06288,"1400": 0.08384,"1425": 0.04192}}}