{"type":"Feature","properties":{"GID_3":"TLS.1.1.13_1","GID_0":"TLS","country":"Timor-Leste","GID_1":"TLS.1_1","province":"Aileu","NL_NAME_1":"NA","GID_2":"TLS.1.1_1","county":"Aileu","NL_NAME_2":"NA","city":"Liquetura","VARNAME_3":"Lau-Si","NL_NAME_3":"NA","TYPE_3":"Suco","ENGTYPE_3":"Community","CC_3":"NA","HASC_3":"NA","name":"Liquetura.city"},
"geometry":{"type": "MultiPolygon","coordinates": [[[[125.6041,-8.808,1272.7656],[125.5967,-8.806,1385.4729],[125.5943,-8.8097,1514.5071],[125.5937,-8.8232,1733.6865],[125.5975,-8.8244,1638.1697],[125.6027,-8.8218,1550.1112],[125.602,-8.8128,1376.4778],[125.6041,-8.808,1272.7656]]]]}}