{"type":"Feature","properties":{"GID_3":"TLS.7.4.3_1","GID_0":"TLS","country":"Timor-Leste","GID_1":"TLS.7_1","province":"Dili","NL_NAME_1":"NA","GID_2":"TLS.7.4_1","county":"Metinaro","NL_NAME_2":"NA","city":"Sabuli","VARNAME_3":"NA","NL_NAME_3":"NA","TYPE_3":"Suco","ENGTYPE_3":"Community","CC_3":"NA","HASC_3":"NA","name":"Sabuli.city"},
"geometry":{"type": "MultiPolygon","coordinates": [[[[125.6855,-8.5881,788.0206],[125.688,-8.5821,750.3977],[125.6856,-8.5771,456.4588],[125.6857,-8.5715,314.1398],[125.6877,-8.5689,296.6885],[125.6908,-8.5682,223.1531],[125.6945,-8.5598,111.6334],[125.6966,-8.5603,106.5228],[125.6975,-8.5588,92.3385],[125.706,-8.5613,287.5815],[125.7116,-8.5653,461.9623],[125.7236,-8.5637,707.8253],[125.7198,-8.5613,689.1784],[125.7202,-8.5509,303.0977],[125.7235,-8.5503,195.2176],[125.7345,-8.5529,151.3651],[125.7451,-8.5487,371.5519],[125.7479,-8.531,4.8454],[125.7469,-8.5253,1.6353],[125.7497,-8.5209,0.0],[125.743,-8.5228,0.0],[125.7319,-8.5208,0.0],[125.725,-8.5269,7.891],[125.7192,-8.5197,0.0],[125.7172,-8.5194,0.0],[125.7144,-8.5206,0.0],[125.7058,-8.5297,8.4047],[125.6983,-8.5339,2.3878],[125.6936,-8.5333,1.7367],[125.6961,-8.5423,145.1598],[125.6995,-8.546,171.9697],[125.6995,-8.5503,241.7725],[125.6924,-8.5488,117.1597],[125.6909,-8.5599,283.9206],[125.6857,-8.5656,368.7036],[125.6827,-8.5718,463.5764],[125.6636,-8.5686,74.0068],[125.6637,-8.5769,137.9596],[125.6661,-8.5805,191.2763],[125.6758,-8.5873,601.8301],[125.6855,-8.5881,788.0206]]]]}}