{"type": "Feature","bbox": [125.5944,-9.2014,125.7016,-9.0421],"geometry": {"type": "MultiPolygon","coordinates": [[[[125.7016,-9.1942,0.0],[125.6979,-9.1914,6.7183],[125.6966,-9.1865,7.2063],[125.6911,-9.1798,13.5474],[125.6758,-9.1718,23.3821],[125.6672,-9.136,51.264],[125.6706,-9.1297,59.5351],[125.6699,-9.1243,59.4031],[125.6723,-9.121,80.9678],[125.6759,-9.1192,70.5153],[125.6853,-9.119,69.9021],[125.6891,-9.1165,73.5112],[125.6917,-9.1075,92.4178],[125.6911,-9.094,95.028],[125.6866,-9.0916,98.8596],[125.6839,-9.0838,107.9254],[125.6784,-9.0801,116.3498],[125.6739,-9.0794,131.5265],[125.6732,-9.0762,126.9569],[125.6701,-9.073,130.5876],[125.6664,-9.0718,133.9994],[125.6614,-9.0744,141.6472],[125.6568,-9.0739,147.9848],[125.6524,-9.0753,155.1198],[125.6435,-9.0673,172.2967],[125.6344,-9.0685,182.9044],[125.6332,-9.0643,203.4405],[125.6281,-9.0649,205.7926],[125.6293,-9.0608,206.2834],[125.6278,-9.0562,233.7876],[125.6119,-9.0503,250.6239],[125.6088,-9.0511,274.6616],[125.6051,-9.0472,295.7554],[125.5961,-9.0421,353.5392],[125.5958,-9.0519,320.781],[125.6007,-9.0559,312.0517],[125.6053,-9.0662,276.273],[125.6087,-9.0687,261.6342],[125.6035,-9.0762,335.8028],[125.6053,-9.0793,406.4835],[125.6136,-9.084,486.6577],[125.615,-9.0873,445.5173],[125.6083,-9.0974,274.5544],[125.6122,-9.1013,302.0362],[125.61,-9.1074,311.0471],[125.6141,-9.1128,345.2212],[125.6126,-9.1166,358.6647],[125.6147,-9.1203,373.0799],[125.6146,-9.1253,378.1067],[125.609,-9.1339,391.4626],[125.6118,-9.1433,275.3965],[125.6061,-9.1502,377.2089],[125.6035,-9.1564,263.7543],[125.5986,-9.1588,203.1499],[125.5974,-9.161,170.2196],[125.5985,-9.1663,90.5315],[125.6028,-9.1707,65.7531],[125.6032,-9.174,49.744],[125.6018,-9.1778,39.3807],[125.5977,-9.1797,59.5855],[125.5944,-9.1855,12.4361],[125.5967,-9.1875,1.4288],[125.6122,-9.1853,2.8616],[125.6253,-9.1872,3.8265],[125.6603,-9.2011,2.91],[125.6836,-9.2014,0.0],[125.6922,-9.1967,0.0],[125.7016,-9.1942,0.0]]]]}
,"properties": {"GID_3": "TLS.2.3.1_1","GID_0": "TLS","country": "Timor-Leste","GID_1": "TLS.2_1","province": "Ainaro","NL_NAME_1": "NA","GID_2": "TLS.2.3_1","county": "HatoHudo","NL_NAME_2": "NA","city": "Beikala","VARNAME_3": "NA","NL_NAME_3": "NA","TYPE_3": "Suco","ENGTYPE_3": "Community","CC_3": "NA","HASC_3": "NA","name": "Beikala.city","area_km2": 117.5209,"hist_schema_id": "Elevation0-9000","hist_area_km2": {"0": 10.42316,"25": 16.38882,"50": 5.25394,"75": 4.01909,"100": 5.31711,"125": 4.56356,"150": 5.63123,"175": 5.65232,"200": 6.34314,"225": 6.48972,"250": 6.95038,"275": 8.22752,"300": 8.49969,"325": 8.01811,"350": 6.59453,"375": 5.0662,"400": 2.1772,"425": 1.19331,"450": 0.5653,"475": 0.08374,"500": 0.06281}}}