{"type":"Feature","properties":{"GID_1":"TLS.12_1","GID_0":"TLS","country":"Timor-Leste","province":"Manufahi","VARNAME_1":"NA","NL_NAME_1":"NA","TYPE_1":"Distrito","ENGTYPE_1":"District","CC_1":"NA","HASC_1":"TP.MF","ISO_1":"NA","name":"Manufahi.province"},
"geometry":{"type": "MultiPolygon","coordinates": [[[[125.6911,-9.094,95.028],[125.6917,-9.1075,92.4178],[125.6891,-9.1165,73.5112],[125.6853,-9.119,69.9021],[125.6759,-9.1192,70.5153],[125.6723,-9.121,80.9678],[125.6699,-9.1243,59.4031],[125.6706,-9.1297,59.5351],[125.6672,-9.136,51.264],[125.6758,-9.1718,23.3821],[125.6911,-9.1798,13.5474],[125.6966,-9.1865,7.2063],[125.6979,-9.1914,6.7183],[125.7016,-9.1942,0.0],[125.7144,-9.1786,8.9004],[125.7268,-9.1672,5.4902],[125.7317,-9.1669,0.0],[125.7375,-9.1642,3.4673],[125.7478,-9.1675,3.0501],[125.7564,-9.166,0.8633],[125.7675,-9.1608,0.6794],[125.7714,-9.1539,1.3823],[125.7806,-9.1531,0.0],[125.7922,-9.1469,0.0],[125.8058,-9.1458,4.9019],[125.8172,-9.1511,5.6255],[125.8244,-9.1461,0.0],[125.8292,-9.1367,0.632],[125.8358,-9.1339,1.5247],[125.8424,-9.1277,1.7891],[125.8492,-9.1253,0.8456],[125.8633,-9.1243,8.0627],[125.8936,-9.1319,0.0],[125.9172,-9.135,0.0],[125.9247,-9.1336,4.1717],[125.9364,-9.1347,0.0],[125.9436,-9.1331,0.0],[125.9497,-9.13,0.0],[125.9631,-9.1194,17.0789],[125.9825,-9.1117,0.0],[125.995,-9.1031,0.0],[126.025,-9.0767,2.0265],[126.0269,-9.0731,1.5395],[126.0253,-9.0725,1.5],[126.0258,-9.0692,1.5],[126.0292,-9.0681,1.5],[126.0311,-9.0694,1.5],[126.0281,-9.0744,0.9596],[126.0431,-9.0658,3.391],[126.0587,-9.0596,1.3778],[126.0616,-9.0551,6.7616],[126.0586,-9.0507,5.3188],[126.0575,-9.0424,17.5922],[126.0541,-9.0421,14.4621],[126.0548,-9.036,25.8098],[126.0494,-9.0336,18.4088],[126.043,-9.0162,32.787],[126.035,-9.0151,24.5],[126.0336,-9.0097,32.9753],[126.0276,-9.0025,41.6074],[126.026,-8.9979,41.6776],[126.0209,-8.9954,47.0361],[126.0164,-8.9908,54.55],[126.0112,-8.9918,56.6649],[125.9987,-8.9862,72.9337],[125.996,-8.9823,75.3936],[125.9798,-8.9707,101.2468],[125.9758,-8.9684,102.1968],[125.9715,-8.9682,116.8413],[125.9566,-8.9607,139.2113],[125.9473,-8.951,156.2697],[125.9438,-8.9382,166.7219],[125.9399,-8.9391,176.3157],[125.9367,-8.938,181.515],[125.937,-8.933,219.1212],[125.9282,-8.9242,191.6218],[125.9344,-8.912,204.5465],[125.9311,-8.908,227.9963],[125.9274,-8.9076,255.8922],[125.9273,-8.9053,266.2291],[125.9234,-8.9049,263.981],[125.9139,-8.8973,336.5719],[125.9076,-8.8956,387.7802],[125.904,-8.8907,455.1922],[125.8949,-8.8872,598.21],[125.8877,-8.8881,707.3647],[125.8778,-8.8834,681.7558],[125.868,-8.8845,551.2913],[125.8586,-8.8808,504.7946],[125.8436,-8.8788,756.9623],[125.8411,-8.8773,660.9509],[125.8385,-8.878,619.6182],[125.8358,-8.8821,446.9704],[125.8309,-8.881,463.6884],[125.8282,-8.877,472.7813],[125.8307,-8.8726,524.8734],[125.83,-8.8715,524.8734],[125.8284,-8.8723,540.678],[125.8307,-8.8686,542.3037],[125.8287,-8.8597,564.1255],[125.826,-8.8593,570.9272],[125.8229,-8.8529,597.0132],[125.8187,-8.8503,607.9138],[125.8123,-8.8403,645.0102],[125.8068,-8.8361,671.4227],[125.8086,-8.8326,747.6851],[125.8069,-8.8301,743.4957],[125.8089,-8.8259,1051.4147],[125.8042,-8.8233,921.3539],[125.8028,-8.8178,1201.3665],[125.8002,-8.8146,1298.7573],[125.8005,-8.8128,1283.7256],[125.8038,-8.8111,1310.139],[125.8041,-8.8085,1310.006],[125.8086,-8.8054,1387.7485],[125.8098,-8.7995,1488.962],[125.8158,-8.7904,1644.6414],[125.8202,-8.7802,1544.4867],[125.814,-8.7785,1608.7328],[125.8159,-8.773,1391.2351],[125.8147,-8.7678,1189.7769],[125.8174,-8.7666,1229.7965],[125.8212,-8.7576,1035.7632],[125.8215,-8.7532,846.1483],[125.8194,-8.748,734.0429],[125.8136,-8.7532,1038.9467],[125.8108,-8.7535,1114.0354],[125.8085,-8.7521,1097.1864],[125.8082,-8.7486,1115.2451],[125.8054,-8.745,1110.9348],[125.8007,-8.7487,807.1594],[125.797,-8.7492,704.0585],[125.7935,-8.7481,659.7144],[125.7927,-8.7454,607.2002],[125.7885,-8.7425,561.4862],[125.7856,-8.744,501.8123],[125.7785,-8.7392,464.5456],[125.7705,-8.7391,421.8768],[125.7692,-8.7407,424.6907],[125.7714,-8.7466,464.5075],[125.7681,-8.7547,451.4518],[125.7637,-8.7568,455.7457],[125.7638,-8.7594,472.5664],[125.7597,-8.7591,485.0247],[125.7577,-8.7632,502.1461],[125.756,-8.7614,495.7655],[125.7541,-8.7618,487.5883],[125.7531,-8.7723,532.7261],[125.7487,-8.7741,527.4476],[125.7453,-8.7801,522.7759],[125.7415,-8.7805,531.8256],[125.7363,-8.7865,545.0809],[125.7309,-8.7837,558.9305],[125.7264,-8.7839,566.3222],[125.7233,-8.7822,588.7612],[125.7198,-8.783,667.8872],[125.7183,-8.7855,665.3799],[125.7084,-8.7862,826.9365],[125.6984,-8.7961,863.9855],[125.6892,-8.7986,953.7111],[125.6888,-8.8027,1054.1886],[125.6827,-8.8093,1162.8547],[125.685,-8.8137,1393.5195],[125.6802,-8.8192,1473.587],[125.6854,-8.8281,1143.2493],[125.6836,-8.8299,1199.9281],[125.6833,-8.8376,1244.1523],[125.6889,-8.8409,1090.6233],[125.6828,-8.8441,1194.4196],[125.6826,-8.8464,1195.7791],[125.6893,-8.8472,1061.6384],[125.69,-8.849,1064.9103],[125.6857,-8.8515,1188.7556],[125.6858,-8.8574,1222.8822],[125.6839,-8.862,1071.324],[125.6856,-8.8637,1067.0573],[125.6839,-8.8671,1231.1509],[125.6844,-8.8689,1298.8099],[125.6902,-8.8691,1262.7588],[125.6865,-8.8747,1035.0286],[125.6856,-8.8795,941.8786],[125.6876,-8.8831,882.9996],[125.6872,-8.8892,760.7377],[125.6824,-8.896,713.8182],[125.682,-8.899,646.6992],[125.6766,-8.9027,597.3581],[125.6719,-8.8992,604.0217],[125.6691,-8.8992,612.6817],[125.6665,-8.8963,620.3207],[125.6603,-8.8971,673.241],[125.6551,-8.9051,775.1051],[125.6541,-8.9128,939.7246],[125.6506,-8.9194,1277.0576],[125.647,-8.9214,1447.262],[125.6417,-8.9212,1448.3502],[125.6404,-8.9183,1468.9052],[125.6321,-8.9151,1522.1268],[125.6223,-8.9149,1581.5416],[125.6209,-8.9184,1493.5898],[125.6215,-8.9238,1576.0149],[125.6124,-8.9285,1599.1663],[125.615,-8.9332,1247.298],[125.6176,-8.9346,1230.0801],[125.615,-8.9354,1241.1281],[125.6127,-8.9384,1336.288],[125.6075,-8.9399,1481.3053],[125.6062,-8.9439,1744.522],[125.6079,-8.9467,1954.3179],[125.5973,-8.9534,2417.3943],[125.5937,-8.9619,1741.0156],[125.5943,-8.9677,1488.0079],[125.5921,-8.9718,1364.6075],[125.5943,-8.9761,1250.4304],[125.5943,-8.9808,1146.2628],[125.5921,-8.9846,1023.5433],[125.5894,-9.0056,694.5847],[125.586,-9.0103,564.7725],[125.5933,-9.016,507.7411],[125.5923,-9.0241,441.169],[125.596,-9.0303,419.9633],[125.5961,-9.0421,353.5392],[125.6051,-9.0472,295.7554],[125.6088,-9.0511,274.6616],[125.6119,-9.0503,250.6239],[125.6278,-9.0562,233.7876],[125.6293,-9.0608,206.2834],[125.6281,-9.0649,205.7926],[125.6332,-9.0643,203.4405],[125.6344,-9.0685,182.9044],[125.6435,-9.0673,172.2967],[125.6524,-9.0753,155.1198],[125.6568,-9.0739,147.9848],[125.6614,-9.0744,141.6472],[125.6664,-9.0718,133.9994],[125.6701,-9.073,130.5876],[125.6732,-9.0762,126.9569],[125.6739,-9.0794,131.5265],[125.6784,-9.0801,116.3498],[125.6839,-9.0838,107.9254],[125.6866,-9.0916,98.8596],[125.6911,-9.094,95.028]]]]}}