{"type": "Feature","id": "551","bbox": [125.57893,-9.19327,126.04754,-8.75104],"geometry": {"type": "Polygon","coordinates": [[[125.80522,-8.75316,891.5566],[125.77902,-8.75104,762.0212],[125.76228,-8.75642,455.7457],[125.74429,-8.77419,746.0271],[125.70791,-8.79259,896.0043],[125.68828,-8.7946,1038.6187],[125.68807,-8.79631,997.7849],[125.6798,-8.83538,1258.3169],[125.67546,-8.85998,1267.4966],[125.67484,-8.87837,991.5345],[125.67195,-8.90669,715.0302],[125.65665,-8.91641,1154.582],[125.62358,-8.91599,1581.5416],[125.60043,-8.92798,1310.1509],[125.59712,-8.947,2167.7937],[125.58885,-8.96602,1595.4698],[125.58079,-8.98007,1414.3054],[125.57893,-8.99909,869.7291],[125.58162,-9.03216,600.9974],[125.59547,-9.05531,366.0497],[125.62523,-9.06834,271.5153],[125.65004,-9.08012,202.4416],[125.66471,-9.09397,268.5055],[125.67319,-9.1165,120.4472],[125.66719,-9.13179,53.93],[125.65996,-9.14957,58.2894],[125.6674,-9.18636,12.5425],[125.67009,-9.19324,7.0886],[125.6701,-9.19327,7.0886],[125.67856,-9.19305,5.8667],[125.74269,-9.15732,40.3233],[125.76368,-9.15211,41.4476],[125.80519,-9.15211,0.0],[125.81690999999999,-9.14821,14.2721],[125.83872,-9.13006,2.6543],[125.84986,-9.1242,8.6411],[125.86964,-9.12265,7.1843],[125.92848,-9.13161,7.4174],[125.94711,-9.12575,8.2786],[126.04754,-9.05731,13.2974],[126.04526,-9.04539,10.8704],[126.03203,-9.02265,37.7258],[125.98903,-8.99247,197.0987],[125.94501,-8.96705,302.0061],[125.9295,-8.94286,313.1843],[125.90614,-8.91496,487.8981],[125.87162,-8.89822,650.1586],[125.84103,-8.88189,700.1521],[125.81044,-8.85688,1052.8518],[125.79866,-8.81202,1182.0217],[125.80548,-8.756,1002.7576],[125.80522,-8.75316,891.5566]]]}
,"properties": {"ISO3166-1-Alpha-3": "TLS","country": "East Timor","fill": "#F00","name": "Manufahi","area_km2": 1297.508,"hist_schema_id": "Elevation0-9000","hist_area_km2": {"0": 32.156,"25": 109.47,"50": 65.008,"75": 45.349,"100": 49.391,"125": 50.794,"150": 52.973,"175": 53.624,"200": 52.368,"225": 44.433,"250": 39.513,"275": 36.079,"300": 35.054,"325": 31.516,"350": 31.119,"375": 28.585,"400": 25.109,"425": 23.121,"450": 22.576,"475": 20.357,"500": 19.331,"525": 19.981,"550": 18.871,"575": 17.803,"600": 17.782,"625": 16.652,"650": 15.73,"675": 14.62,"700": 14.244,"725": 13.594,"750": 12.736,"775": 12.149,"800": 12.129,"825": 12.003,"850": 11.731,"875": 11.647,"900": 12.171,"925": 12.38,"950": 12.213,"975": 12.464,"1000": 11.543,"1025": 13.198,"1050": 11.731,"1075": 12.255,"1100": 10.642,"1125": 10.768,"1150": 9.951,"1175": 10.014,"1200": 9.972,"1225": 8.862,"1250": 7.688,"1275": 6.578,"1300": 4.672,"1325": 4.232,"1350": 3.792,"1375": 3.059,"1400": 2.954,"1425": 2.577,"1450": 1.864,"1475": 1.529,"1500": 1.32,"1525": 0.859,"1550": 0.649,"1575": 0.691,"1600": 0.649,"1625": 0.335,"1650": 0.398,"1675": 0.293,"1700": 0.377,"1725": 0.335,"1750": 0.272,"1775": 0.335,"1800": 0.377,"1825": 0.377,"1850": 0.272,"1875": 0.356,"1900": 0.251,"1925": 0.314,"1950": 0.251,"1975": 0.272,"2000": 0.209,"2025": 0.168,"2050": 0.209,"2075": 0.084,"2100": 0.063,"2125": 0.147,"2150": 0.063,"2175": 0.105,"2200": 0.063,"2225": 0.084,"2250": 0.084,"2275": 0.084,"2300": 0.105,"2325": 0.105,"2350": 0.105,"2375": 0.021,"2400": 0.042,"2425": 0.063,"2450": 0.021}}}