{"type":"Feature","properties":{"GID_3":"TLS.2.4.6_1","GID_0":"TLS","country":"Timor-Leste","GID_1":"TLS.2_1","province":"Ainaro","NL_NAME_1":"NA","GID_2":"TLS.2.4_1","county":"Maubisse","NL_NAME_2":"NA","city":"Manelobas","VARNAME_3":"Maneloba","NL_NAME_3":"NA","TYPE_3":"Suco","ENGTYPE_3":"Community","CC_3":"NA","HASC_3":"NA","name":"Manelobas.city"},
"geometry":{"type": "MultiPolygon","coordinates": [[[[125.6833,-8.8376,1244.1523],[125.6836,-8.8299,1199.9281],[125.6854,-8.8281,1143.2493],[125.6802,-8.8192,1473.587],[125.685,-8.8137,1393.5195],[125.6825,-8.8104,1150.9495],[125.6725,-8.8162,1306.3109],[125.6732,-8.8212,1541.9473],[125.6693,-8.8219,1635.6528],[125.6653,-8.8271,1534.4187],[125.6653,-8.8303,1433.1884],[125.6605,-8.8343,1274.1899],[125.6575,-8.8347,1258.1562],[125.6538,-8.8386,1353.0857],[125.6532,-8.8434,1524.6326],[125.65089999999999,-8.8457,1566.7637],[125.6513,-8.849,1499.2234],[125.6535,-8.8514,1436.6434],[125.6578,-8.8507,1364.6653],[125.6646,-8.8524,1252.6533],[125.6714,-8.8496,1195.4161],[125.6699,-8.8396,1215.9352],[125.6752,-8.8412,1312.2784],[125.6833,-8.8376,1244.1523]]]]}}