{"type":"Feature","properties":{"GID_3":"TLS.1.2.6_1","GID_0":"TLS","country":"Timor-Leste","GID_1":"TLS.1_1","province":"Aileu","NL_NAME_1":"NA","GID_2":"TLS.1.2_1","county":"LauLara","NL_NAME_2":"NA","city":"Maneluma","VARNAME_3":"Madabeno","NL_NAME_3":"NA","TYPE_3":"Suco","ENGTYPE_3":"Community","CC_3":"NA","HASC_3":"NA","name":"Maneluma.city"},
"geometry":{"type": "MultiPolygon","coordinates": [[[[125.5893,-8.6445,1287.6589],[125.5569,-8.639,748.0447],[125.5495,-8.6461,1143.2537],[125.5485,-8.6509,1240.9048],[125.5571,-8.6539,1280.4058],[125.5643,-8.6586,1166.9468],[125.569,-8.6515,1370.3943],[125.5841,-8.6508,1121.9187],[125.5893,-8.6445,1287.6589]]]]}}