{"type": "Feature","bbox": [125.4644,-8.8158,125.5193,-8.77],"geometry": {"type": "MultiPolygon","coordinates": [[[[125.5193,-8.7794,1223.5583],[125.4992,-8.77,1418.5876],[125.4879,-8.7733,1449.592],[125.4828,-8.776,1492.4478],[125.4776,-8.7826,1579.2585],[125.4735,-8.7832,1591.4265],[125.4728,-8.7875,1597.7922],[125.4652,-8.7965,1376.3456],[125.4644,-8.8006,1320.5804],[125.4676,-8.7984,1310.7434],[125.4695,-8.8007,1357.8159],[125.4727,-8.7987,1330.5126],[125.4768,-8.7997,1348.8748],[125.4775,-8.798,1326.9321],[125.4796,-8.8003,1334.5991],[125.4798,-8.8041,1412.3134],[125.4826,-8.8044,1408.4409],[125.4862,-8.8128,1437.5909],[125.4899,-8.8158,1412.7443],[125.5108,-8.8134,1708.9801],[125.5193,-8.7906,1323.4651],[125.5193,-8.7794,1223.5583]]]]}
,"properties": {"GID_3": "TLS.1.1.10_1","GID_0": "TLS","country": "Timor-Leste","GID_1": "TLS.1_1","province": "Aileu","NL_NAME_1": "NA","GID_2": "TLS.1.1_1","county": "Aileu","NL_NAME_2": "NA","city": "Laclo","VARNAME_3": "Sukuliurai","NL_NAME_3": "NA","TYPE_3": "Suco","ENGTYPE_3": "Community","CC_3": "NA","HASC_3": "NA","name": "Laclo.city","area_km2": 19.75871,"hist_schema_id": "Elevation0-9000","hist_area_km2": {"1100": 0.04191,"1125": 0.20954,"1150": 0.35621,"1175": 0.39812,"1200": 0.73338,"1225": 0.64956,"1250": 0.81719,"1275": 1.19435,"1300": 1.48768,"1325": 1.55053,"1350": 1.94864,"1375": 1.92768,"1400": 1.55051,"1425": 1.08956,"1450": 1.13145,"1475": 1.0686,"1500": 0.7962,"1525": 0.94286,"1550": 0.60762,"1575": 0.52381,"1600": 0.31428,"1625": 0.10476,"1650": 0.06286,"1675": 0.12571,"1700": 0.08381,"1725": 0.0419}}}