{"type":"Feature","properties":{"GID_3":"TLS.7.4.1_1","GID_0":"TLS","country":"Timor-Leste","GID_1":"TLS.7_1","province":"Dili","NL_NAME_1":"NA","GID_2":"TLS.7.4_1","county":"Metinaro","NL_NAME_2":"NA","city":"Benunuk","VARNAME_3":"Duyung","NL_NAME_3":"NA","TYPE_3":"Suco","ENGTYPE_3":"Community","CC_3":"NA","HASC_3":"NA","name":"Benunuk.city"},
"geometry":{"type": "MultiPolygon","coordinates": [[[[125.7497,-8.5209,0.0],[125.7469,-8.5253,1.6353],[125.7469,-8.5285,3.8642],[125.7477,-8.5324,5.6932],[125.7509,-8.536,12.3106],[125.7614,-8.5361,100.3088],[125.7642,-8.5342,49.7068],[125.7695,-8.5343,59.1789],[125.7728,-8.5327,194.7337],[125.7908,-8.5322,412.9186],[125.7905,-8.5339,434.0304],[125.7928,-8.5359,417.5065],[125.7905,-8.5429,195.6197],[125.7934,-8.5436,180.7283],[125.7943,-8.5462,195.6488],[125.8001,-8.5471,429.2947],[125.8057,-8.544,464.1138],[125.8087,-8.5402,316.425],[125.8157,-8.5407,539.8231],[125.823,-8.5391,512.2306],[125.8291,-8.5349,547.1663],[125.8354,-8.5392,408.0578],[125.8414,-8.5324,610.5966],[125.8449,-8.5305,615.1095],[125.8471,-8.5326,572.2614],[125.856,-8.5232,714.3118],[125.8585,-8.5226,649.1732],[125.8568,-8.5185,622.3353],[125.8571,-8.5146,657.8289],[125.8605,-8.5097,780.9072],[125.8523,-8.5044,385.6249],[125.8445,-8.4928,82.0573],[125.8348,-8.4858,2.3534],[125.8285,-8.4909,0.7777],[125.8229,-8.4898,1.9295],[125.8195,-8.4909,0.0],[125.8164,-8.4964,6.2486],[125.8064,-8.5033,6.7022],[125.7883,-8.5022,0.0],[125.786,-8.5046,11.25],[125.7797,-8.5053,0.0],[125.7784,-8.5087,11.6092],[125.7733,-8.5069,4.3313],[125.7611,-8.5108,0.0],[125.7552,-8.5143,0.0],[125.7524,-8.5182,0.0],[125.7525,-8.5205,0.7702],[125.7497,-8.5209,0.0]]]]}}