{"type": "Feature","bbox": [126.2931,-8.5153,126.363,-8.4506],"geometry": {"type": "MultiPolygon","coordinates": [[[[126.2931,-8.4692,3.3991],[126.3011,-8.4729,36.2386],[126.3102,-8.4741,68.0942],[126.3153,-8.4874,174.3923],[126.3155,-8.4951,213.3731],[126.328,-8.5063,406.752],[126.3327,-8.5084,471.5453],[126.335,-8.515,531.2111],[126.3424,-8.5153,626.7579],[126.3582,-8.5083,646.2285],[126.3627,-8.495,538.6794],[126.363,-8.4875,493.5373],[126.3601,-8.4846,478.6049],[126.3532,-8.4847,431.6176],[126.351,-8.4805,358.5236],[126.3417,-8.4754,263.5224],[126.3325,-8.4575,19.0061],[126.3353,-8.4506,0.0],[126.3231,-8.4516,3.5063],[126.3097,-8.455,4.5813],[126.2997,-8.4611,0.3707],[126.2931,-8.4692,3.3991]]]]}
,"properties": {"GID_3": "TLS.4.2.2_1","GID_0": "TLS","country": "Timor-Leste","GID_1": "TLS.4_1","province": "Baucau","NL_NAME_1": "NA","GID_2": "TLS.4.2_1","county": "Baucau","NL_NAME_2": "NA","city": "Bucoli","VARNAME_3": "NA","NL_NAME_3": "NA","TYPE_3": "Suco","ENGTYPE_3": "Community","CC_3": "NA","HASC_3": "NA","name": "Bucoli.city","area_km2": 27.51296,"hist_schema_id": "Elevation0-9000","hist_area_km2": {"0": 1.34219,"25": 2.60047,"50": 2.05517,"75": 1.04855,"100": 0.60816,"125": 0.81787,"150": 0.96465,"175": 0.96464,"200": 0.96464,"225": 0.81784,"250": 0.7759,"275": 0.90171,"300": 1.02754,"325": 1.00656,"350": 0.85976,"375": 1.02752,"400": 0.88073,"425": 1.02751,"450": 0.98557,"475": 1.02751,"500": 1.25817,"525": 1.21622,"550": 0.8807,"575": 0.73392,"600": 0.71294,"625": 0.62907,"650": 0.35647,"675": 0.02097}}}