{"type":"Feature","properties":{"GID_3":"TLS.4.4.7_1","GID_0":"TLS","country":"Timor-Leste","GID_1":"TLS.4_1","province":"Baucau","NL_NAME_1":"NA","GID_2":"TLS.4.4_1","county":"Quelicai","NL_NAME_2":"NA","city":"LaisorolaiAtas","VARNAME_3":"LaisorulaiDecima","NL_NAME_3":"NA","TYPE_3":"Suco","ENGTYPE_3":"Community","CC_3":"NA","HASC_3":"NA","name":"Laisorolai_Atas.city"},
"geometry":{"type": "MultiPolygon","coordinates": [[[[126.5912,-8.6442,2137.0391],[126.5948,-8.6412,2282.9844],[126.6048,-8.639,1813.959],[126.6084,-8.6308,1638.3418],[126.6071,-8.6264,1471.7351],[126.5954,-8.6234,1251.9713],[126.5928,-8.6251,1261.0076],[126.5849,-8.625,1212.7284],[126.5784,-8.6295,1268.2219],[126.5776,-8.6321,1281.266],[126.5724,-8.6325,1174.8884],[126.5662,-8.6269,927.909],[126.5645,-8.6442,1040.1449],[126.5567,-8.6481,880.924],[126.5241,-8.6434,439.1131],[126.5206,-8.6436,397.7424],[126.5199,-8.6453,399.5793],[126.5226,-8.649,431.1508],[126.5216,-8.6533,463.694],[126.5257,-8.6647,460.3716],[126.5349,-8.6781,474.2558],[126.5458,-8.6686,625.8978],[126.5518,-8.6675,686.2958],[126.5529,-8.6657,737.1309],[126.5626,-8.6623,900.2158],[126.5669,-8.6573,1080.8129],[126.5748,-8.6573,1258.2102],[126.5845,-8.6516,1752.9847],[126.5894,-8.6534,2062.5208],[126.5912,-8.6442,2137.0391]]]]}}