{"type":"Feature","properties":{"GID_3":"TLS.2.4.1_1","GID_0":"TLS","country":"Timor-Leste","GID_1":"TLS.2_1","province":"Ainaro","NL_NAME_1":"NA","GID_2":"TLS.2.4_1","county":"Maubisse","NL_NAME_2":"NA","city":"Aitutu","VARNAME_3":"Aituto","NL_NAME_3":"NA","TYPE_3":"Suco","ENGTYPE_3":"Community","CC_3":"NA","HASC_3":"NA","name":"Aitutu.city"},
"geometry":{"type": "MultiPolygon","coordinates": [[[[125.6109,-8.9389,1374.3396],[125.6176,-8.9346,1230.0801],[125.615,-8.9332,1247.298],[125.6124,-8.9285,1599.1663],[125.6215,-8.9238,1576.0149],[125.6209,-8.9184,1493.5898],[125.6223,-8.9149,1581.5416],[125.6257,-8.914,1587.2655],[125.6335,-8.9155,1494.4369],[125.6404,-8.9183,1468.9052],[125.6417,-8.9212,1448.3502],[125.6494,-8.9207,1352.121],[125.6541,-8.9128,939.7246],[125.6551,-8.9051,775.1051],[125.6592,-8.8981,712.1151],[125.6637,-8.8963,640.3376],[125.6609,-8.8952,651.6192],[125.6557,-8.8966,759.1053],[125.6526,-8.8935,752.9962],[125.6543,-8.89,712.3289],[125.6525,-8.8895,752.0321],[125.6517,-8.8855,759.8918],[125.6453,-8.8829,834.2145],[125.6451,-8.8787,869.9484],[125.6436,-8.8793,872.749],[125.6428,-8.8768,951.1505],[125.6363,-8.8719,1031.187],[125.6362,-8.8678,1142.0176],[125.6335,-8.8631,1207.1616],[125.6242,-8.8608,1249.2255],[125.623,-8.857,1276.2832],[125.6168,-8.8515,1263.1371],[125.6109,-8.8506,1287.5657],[125.609,-8.8463,1309.2299],[125.6058,-8.847,1306.9061],[125.5951,-8.8565,1358.4468],[125.5881,-8.8572,1381.4717],[125.5875,-8.8607,1432.173],[125.5894,-8.8625,1441.4424],[125.5897,-8.8689,1581.2905],[125.5918,-8.8726,1649.2029],[125.5895,-8.8748,1730.1299],[125.5673,-8.8753,1942.2014],[125.5619,-8.8804,2209.4351],[125.5633,-8.8821,2250.7139],[125.5662,-8.8797,2170.9465],[125.5711,-8.8827,1901.1975],[125.5764,-8.8819,1819.0437],[125.5864,-8.8904,1703.1558],[125.5903,-8.8989,1485.5621],[125.596,-8.8993,1383.2267],[125.5986,-8.8979,1373.1101],[125.6032,-8.9005,1300.6619],[125.6052,-8.9111,1194.4846],[125.5975,-8.9206,1142.3098],[125.6038,-8.9233,1351.8081],[125.6061,-8.928,1443.9296],[125.6052,-8.9348,1427.2996],[125.6109,-8.9389,1374.3396]]]]}}