{"type":"Feature","properties":{"GID_3":"TLS.4.3.7_1","GID_0":"TLS","country":"Timor-Leste","GID_1":"TLS.4_1","province":"Baucau","NL_NAME_1":"NA","GID_2":"TLS.4.3_1","county":"Laga","NL_NAME_2":"NA","city":"Samalari","VARNAME_3":"NA","NL_NAME_3":"NA","TYPE_3":"Suco","ENGTYPE_3":"Community","CC_3":"NA","HASC_3":"NA","name":"Samalari.city"},
"geometry":{"type": "MultiPolygon","coordinates": [[[[126.6786,-8.5056,494.2465],[126.6786,-8.4994,540.3295],[126.6839,-8.492,492.9966],[126.6825,-8.4856,439.0068],[126.6834,-8.4814,469.2684],[126.6962,-8.4716,454.0383],[126.7081,-8.4588,199.7682],[126.708,-8.4536,172.802],[126.7054,-8.4484,140.1233],[126.7073,-8.4454,141.5725],[126.7069,-8.4431,158.8166],[126.7029,-8.437,131.1545],[126.697,-8.4332,34.4423],[126.695,-8.4288,13.8775],[126.6954,-8.4249,2.9518],[126.6814,-8.4294,0.0],[126.6823,-8.4316,11.6286],[126.6783,-8.4459,39.8973],[126.6751,-8.4474,114.3383],[126.6724,-8.4548,117.7611],[126.6707,-8.4664,180.6992],[126.6659,-8.4702,303.303],[126.6579,-8.4839,477.7735],[126.6604,-8.4894,484.2184],[126.6587,-8.4955,334.6687],[126.6748,-8.5021,468.3068],[126.6786,-8.5056,494.2465]]]]}}