{"type": "Feature","bbox": [125.34,-8.9129,125.4047,-8.8673],"geometry": {"type": "MultiPolygon","coordinates": [[[[125.4024,-8.8962,1288.4985],[125.4047,-8.8885,1407.1038],[125.3954,-8.8849,1367.3573],[125.3882,-8.8762,919.8695],[125.3874,-8.8715,847.6396],[125.3823,-8.8673,649.5696],[125.3773,-8.8687,619.0814],[125.3737,-8.8675,614.1968],[125.3724,-8.8697,550.7924],[125.3649,-8.8678,525.8387],[125.3625,-8.8701,441.5772],[125.3648,-8.8749,575.623],[125.3631,-8.8768,602.6589],[125.3583,-8.8778,610.8947],[125.3569,-8.8887,694.6482],[125.3479,-8.8943,440.0671],[125.34,-8.9037,244.0629],[125.3418,-8.9064,274.7343],[125.3405,-8.9111,278.6846],[125.341,-8.9126,271.7969],[125.3442,-8.9129,279.4062],[125.3511,-8.9078,346.1816],[125.3569,-8.9072,388.8995],[125.3606,-8.9097,455.7269],[125.3675,-8.9092,589.585],[125.3691,-8.9104,564.5492],[125.3817,-8.9038,696.9046],[125.3838,-8.9051,717.668],[125.3884,-8.9047,775.4995],[125.3888,-8.9068,791.7161],[125.3947,-8.8999,1030.3545],[125.4024,-8.8962,1288.4985]]]]}
,"properties": {"GID_3": "TLS.8.1.5_1","GID_0": "TLS","country": "Timor-Leste","GID_1": "TLS.8_1","province": "Ermera","NL_NAME_1": "NA","GID_2": "TLS.8.1_1","county": "Atsabe","NL_NAME_2": "NA","city": "Laimealeten","VARNAME_3": "LeimeaLeten","NL_NAME_3": "NA","TYPE_3": "Suco","ENGTYPE_3": "Community","CC_3": "NA","HASC_3": "NA","name": "Laimealeten.city","area_km2": 20.13048,"hist_schema_id": "Elevation0-9000","hist_area_km2": {"250": 0.06284,"275": 0.29325,"300": 0.23041,"325": 0.27231,"350": 0.3142,"375": 0.18852,"400": 0.37704,"425": 0.20947,"450": 0.25136,"475": 0.37705,"500": 0.48179,"525": 0.398,"550": 0.25137,"575": 0.23043,"600": 0.20948,"625": 0.33517,"650": 0.37706,"675": 0.46085,"700": 0.75412,"725": 0.71223,"750": 0.87981,"775": 0.60748,"800": 0.56559,"825": 0.77506,"850": 0.52369,"875": 0.67032,"900": 0.56558,"925": 0.52369,"950": 0.54463,"975": 0.60748,"1000": 0.48179,"1025": 0.46084,"1050": 0.67032,"1075": 0.4399,"1100": 0.52369,"1125": 0.73316,"1150": 0.60748,"1175": 0.48179,"1200": 0.35611,"1225": 0.33516,"1250": 0.54463,"1275": 0.4399,"1300": 0.33516,"1325": 0.37705,"1350": 0.14663,"1375": 0.06284,"1400": 0.06284,"1425": 0.02095}}}