{"type":"Feature","properties":{"GID_3":"TLS.6.5.2_1","GID_0":"TLS","country":"Timor-Leste","GID_1":"TLS.6_1","province":"Covalima","NL_NAME_1":"NA","GID_2":"TLS.6.5_1","county":"SuaiKota","NL_NAME_2":"NA","city":"Camanasa","VARNAME_3":"Kamenasa","NL_NAME_3":"NA","TYPE_3":"Suco","ENGTYPE_3":"Community","CC_3":"NA","HASC_3":"NA","name":"Camanasa.city"},
"geometry":{"type": "MultiPolygon","coordinates": [[[[125.3353,-9.3011,4.1808],[125.3266,-9.2918,21.0666],[125.3155,-9.286,37.163],[125.2956,-9.3043,18.5352],[125.2919,-9.3107,13.2899],[125.2864,-9.3121,16.4878],[125.2851,-9.3146,15.2086],[125.2803,-9.315,22.8037],[125.2688,-9.3098,35.2331],[125.2666,-9.3143,34.9691],[125.2654,-9.3259,19.5249],[125.2797,-9.328,12.3604],[125.2897,-9.3359,0.0],[125.2983,-9.3256,0.8407],[125.3139,-9.3125,6.3608],[125.32,-9.3106,0.0],[125.3297,-9.3033,2.0508],[125.3353,-9.3011,4.1808]]]]}}