{"type": "Feature","bbox": [124.9943,-9.3248,125.0624,-9.27],"geometry": {"type": "MultiPolygon","coordinates": [[[[125.0483,-9.3248,367.3832],[125.0573,-9.3173,586.5247],[125.0624,-9.3089,552.6039],[125.061,-9.297,315.9914],[125.057,-9.2951,344.234],[125.0558,-9.29,355.6158],[125.0523,-9.2854,372.5441],[125.0511,-9.2784,398.6636],[125.0328,-9.27,825.0563],[125.0233,-9.2702,700.2333],[125.0181,-9.274,717.6004],[125.0083,-9.2725,999.6996],[124.9972,-9.2759,764.9127],[124.9983,-9.2808,736.8583],[124.9943,-9.2895,638.9549],[124.9967,-9.2939,586.9106],[125.0067,-9.2948,533.6973],[125.0107,-9.3005,475.6398],[125.0264,-9.314,662.115],[125.0295,-9.3201,604.2366],[125.0341,-9.3201,499.6138],[125.0356,-9.3235,459.543],[125.0425,-9.3213,416.9165],[125.0483,-9.3248,367.3832]]]]}
,"properties": {"GID_3": "TLS.6.2.2_1","GID_0": "TLS","country": "Timor-Leste","GID_1": "TLS.6_1","province": "Covalima","NL_NAME_1": "NA","GID_2": "TLS.6.2_1","county": "FatuMean","NL_NAME_2": "NA","city": "BelulikLeten","VARNAME_3": "Belulik-Leten","NL_NAME_3": "NA","TYPE_3": "Suco","ENGTYPE_3": "Community","CC_3": "NA","HASC_3": "NA","name": "Belulik_Leten.city","area_km2": 28.26809,"hist_schema_id": "Elevation0-9000","hist_area_km2": {"325": 0.02092,"350": 0.14647,"375": 0.46033,"400": 0.60679,"425": 1.04618,"450": 0.94156,"475": 1.44372,"500": 1.31818,"525": 1.84126,"550": 1.86219,"575": 2.15511,"600": 2.59451,"625": 2.63638,"650": 2.17608,"675": 2.0087,"700": 1.77856,"725": 1.15084,"750": 0.83698,"775": 0.48126,"800": 0.62775,"825": 0.62774,"850": 0.3348,"875": 0.27202,"900": 0.18832,"925": 0.27202,"950": 0.1674,"975": 0.14647,"1000": 0.12555}}}