{"type":"Feature","properties":{"GID_3":"TLS.4.2.4_1","GID_0":"TLS","country":"Timor-Leste","GID_1":"TLS.4_1","province":"Baucau","NL_NAME_1":"NA","GID_2":"TLS.4.2_1","county":"Baucau","NL_NAME_2":"NA","city":"Buruma","VARNAME_3":"NA","NL_NAME_3":"NA","TYPE_3":"Suco","ENGTYPE_3":"Community","CC_3":"NA","HASC_3":"NA","name":"Buruma.city"},
"geometry":{"type": "MultiPolygon","coordinates": [[[[126.4422,-8.4841,480.3509],[126.452,-8.4876,467.1653],[126.4552,-8.4917,458.8551],[126.465,-8.4605,287.8195],[126.4676,-8.4587,280.8416],[126.4745,-8.47,260.5747],[126.4812,-8.4724,193.6767],[126.4873,-8.4671,82.9562],[126.4881,-8.4545,39.9768],[126.494,-8.4473,2.7085],[126.47,-8.4425,0.0],[126.4585,-8.4367,8.008],[126.4571,-8.4483,124.834],[126.4422,-8.4841,480.3509]]]]}}