{"type":"Feature","properties":{"GID_3":"TLS.6.5.16_1","GID_0":"TLS","country":"Timor-Leste","GID_1":"TLS.6_1","province":"Covalima","NL_NAME_1":"NA","GID_2":"TLS.6.5_1","county":"SuaiKota","NL_NAME_2":"NA","city":"Vila","VARNAME_3":"Debos","NL_NAME_3":"NA","TYPE_3":"Suco","ENGTYPE_3":"Community","CC_3":"NA","HASC_3":"NA","name":"Vila.city"},
"geometry":{"type": "MultiPolygon","coordinates": [[[[125.153,-9.3162,103.2952],[125.1509,-9.3211,102.4213],[125.1507,-9.3278,91.0922],[125.1547,-9.3341,97.9648],[125.1586,-9.3358,79.9486],[125.1804,-9.3274,214.0648],[125.2013,-9.3244,136.8203],[125.2274,-9.3152,100.0439],[125.2406,-9.3064,88.0142],[125.2476,-9.2996,68.3549],[125.2474,-9.2982,65.5878],[125.246,-9.2961,88.8655],[125.2417,-9.2949,74.0858],[125.2288,-9.2964,184.261],[125.2244,-9.2943,219.9541],[125.2116,-9.296,301.7609],[125.202,-9.2924,397.126],[125.1899,-9.2818,362.2518],[125.1871,-9.2813,327.1603],[125.1811,-9.2871,180.2008],[125.174,-9.2881,162.4877],[125.1706,-9.2938,153.6015],[125.1617,-9.2996,132.047],[125.153,-9.3162,103.2952]]]]}}