{"type": "Feature","bbox": [125.215,-9.3699,125.2472,-9.3448],"geometry": {"type": "MultiPolygon","coordinates": [[[[125.215,-9.3574,24.2561],[125.2234,-9.367,15.5704],[125.2386,-9.3699,10.0362],[125.2455,-9.3626,7.9213],[125.2472,-9.3581,5.0115],[125.2432,-9.3511,10.884],[125.2339,-9.3448,13.4517],[125.2257,-9.3518,19.5983],[125.215,-9.3574,24.2561]]]]}
,"properties": {"GID_3": "TLS.6.6.3_1","GID_0": "TLS","country": "Timor-Leste","GID_1": "TLS.6_1","province": "Covalima","NL_NAME_1": "NA","GID_2": "TLS.6.6_1","county": "Tilomar","NL_NAME_2": "NA","city": "Laconac","VARNAME_3": "Foholulik","NL_NAME_3": "NA","TYPE_3": "Suco","ENGTYPE_3": "Community","CC_3": "NA","HASC_3": "NA","name": "Laconac.city","area_km2": 5.773925,"hist_schema_id": "Elevation0-9000","hist_area_km2": {"0": 2.217519,"25": 3.556406}}}