{"type": "Feature","bbox": [125.4792,-8.71,125.5226,-8.6596],"geometry": {"type": "MultiPolygon","coordinates": [[[[125.5226,-8.6957,1208.1427],[125.5188,-8.6897,1190.0979],[125.5143,-8.6878,1166.786],[125.5141,-8.6815,1103.0443],[125.5121,-8.6768,1035.3755],[125.5027,-8.678,782.1589],[125.4988,-8.6764,731.4904],[125.48779999999999,-8.6615,580.7937],[125.4824,-8.6621,558.4267],[125.4792,-8.6596,555.3574],[125.4864,-8.6706,797.3763],[125.4835,-8.6774,982.0918],[125.485,-8.6847,1005.8933],[125.4826,-8.6926,813.8949],[125.4885,-8.7045,1061.2942],[125.4916,-8.7075,1084.8469],[125.4974,-8.71,1164.7644],[125.4991,-8.7085,1137.0703],[125.5028,-8.7099,1139.0498],[125.5056,-8.7076,1156.9766],[125.5099,-8.7076,1225.2554],[125.5121,-8.7042,1220.0828],[125.5226,-8.6957,1208.1427]]]]}
,"properties": {"GID_3": "TLS.8.5.6_1","GID_0": "TLS","country": "Timor-Leste","GID_1": "TLS.8_1","province": "Ermera","NL_NAME_1": "NA","GID_2": "TLS.8.5_1","county": "Railaco","NL_NAME_2": "NA","city": "Railako-Leten","VARNAME_3": "RailacoLeten","NL_NAME_3": "NA","TYPE_3": "Suco","ENGTYPE_3": "Community","CC_3": "NA","HASC_3": "NA","name": "Railako-Leten.city","area_km2": 13.51845,"hist_schema_id": "Elevation0-9000","hist_area_km2": {"550": 0.08384,"575": 0.06288,"600": 0.1048,"625": 0.16768,"650": 0.14672,"675": 0.16768,"700": 0.14672,"725": 0.33536,"750": 0.2096,"775": 0.25151,"800": 0.50302,"825": 0.41918,"850": 0.50302,"875": 0.50301,"900": 0.62877,"925": 0.7126,"950": 0.7126,"975": 0.77548,"1000": 0.92218,"1025": 0.90122,"1050": 0.90122,"1075": 0.75451,"1100": 0.79642,"1125": 0.71259,"1150": 0.52396,"1175": 0.54492,"1200": 0.54492,"1225": 0.3563,"1250": 0.12575}}}