{"type": "Feature","bbox": [125.61,-8.5678,125.6278,-8.5474],"geometry": {"type": "MultiPolygon","coordinates": [[[[125.6142,-8.5678,58.4425],[125.6149,-8.5643,50.3614],[125.6182,-8.5641,62.225],[125.6181,-8.5612,176.8059],[125.622,-8.5581,223.8473],[125.6278,-8.5569,396.3692],[125.6232,-8.5527,415.1771],[125.6245,-8.5474,416.5691],[125.6141,-8.5495,299.1329],[125.61,-8.5649,48.6587],[125.6142,-8.5678,58.4425]]]]}
,"properties": {"GID_3": "TLS.7.3.10_1","GID_0": "TLS","country": "Timor-Leste","GID_1": "TLS.7_1","province": "Dili","NL_NAME_1": "NA","GID_2": "TLS.7.3_1","county": "DiliTimur","NL_NAME_2": "NA","city": "Camea","VARNAME_3": "NA","NL_NAME_3": "NA","TYPE_3": "Suco","ENGTYPE_3": "Community","CC_3": "NA","HASC_3": "NA","name": "Camea.city","area_km2": 2.096622,"hist_schema_id": "Elevation0-9000","hist_area_km2": {"50": 0.482216,"75": 0.10483,"100": 0.146763,"125": 0.104831,"150": 0.041933,"175": 0.083865,"200": 0.125798,"225": 0.146764,"250": 0.104832,"275": 0.167731,"300": 0.104832,"325": 0.125799,"350": 0.062899,"375": 0.062899,"400": 0.041933,"425": 0.104832,"450": 0.083866}}}