{"type": "Feature","bbox": [124.2352,-9.4095,124.2966,-9.3566],"geometry": {"type": "MultiPolygon","coordinates": [[[[124.2416,-9.3832,300.8347],[124.2446,-9.384,300.5303],[124.2521,-9.3923,312.6957],[124.2609,-9.3958,323.4857],[124.2628,-9.4037,337.1591],[124.2652,-9.4063,344.6163],[124.2739,-9.4095,377.9563],[124.2765,-9.4081,406.2074],[124.2863,-9.4095,538.1235],[124.2894,-9.4063,721.8346],[124.2902,-9.4024,536.7191],[124.2946,-9.3981,408.7836],[124.2935,-9.3936,385.6053],[124.2948,-9.3848,337.3963],[124.2966,-9.3838,306.9794],[124.2947,-9.3805,288.0916],[124.2957,-9.3748,232.3982],[124.2859,-9.3722,313.4935],[124.2795,-9.3664,421.0594],[124.2657,-9.3644,382.9971],[124.262,-9.3613,376.9805],[124.2405,-9.3566,521.6826],[124.2372,-9.3614,524.9623],[124.2352,-9.3743,302.7682],[124.2388,-9.3816,329.0116],[124.2416,-9.3832,300.8347]]]]}
,"properties": {"GID_3": "TLS.3.1.3_1","GID_0": "TLS","country": "Timor-Leste","GID_1": "TLS.3_1","province": "Ambeno","NL_NAME_1": "NA","GID_2": "TLS.3.1_1","county": "Nitibe","NL_NAME_2": "NA","city": "HauUfe","VARNAME_3": "Lela-Ufe","NL_NAME_3": "NA","TYPE_3": "Suco","ENGTYPE_3": "Community","CC_3": "NA","HASC_3": "NA","name": "Hau_Ufe.city","area_km2": 24.72575,"hist_schema_id": "Elevation0-9000","hist_area_km2": {"250": 0.10459,"275": 0.27195,"300": 1.27604,"325": 1.65256,"350": 2.42654,"375": 2.74033,"400": 2.86585,"425": 2.42657,"450": 2.3638,"475": 2.09185,"500": 2.0082,"525": 1.52707,"550": 1.2133,"575": 0.48113,"600": 0.23009,"625": 0.41835,"650": 0.23009,"675": 0.16734,"700": 0.14642,"725": 0.04183,"750": 0.04183}}}