{"type":"Feature","properties":{"GID_3":"TLS.6.4.6_1","GID_0":"TLS","country":"Timor-Leste","GID_1":"TLS.6_1","province":"Covalima","NL_NAME_1":"NA","GID_2":"TLS.6.4_1","county":"Mape","NL_NAME_2":"NA","city":"Quimaque","VARNAME_3":"Zulo","NL_NAME_3":"NA","TYPE_3":"Suco","ENGTYPE_3":"Community","CC_3":"NA","HASC_3":"NA","name":"Quimaque.city"},
"geometry":{"type": "MultiPolygon","coordinates": [[[[125.3677,-9.0654,398.2926],[125.3694,-9.0704,349.1205],[125.3728,-9.0744,329.0291],[125.3722,-9.0792,310.2449],[125.3699,-9.0825,305.2852],[125.368,-9.082,290.3834],[125.3658,-9.088,268.6561],[125.368,-9.0905,259.2625],[125.3693,-9.0966,237.0426],[125.3721,-9.0975,235.294],[125.3738,-9.1008,227.8729],[125.3715,-9.1126,225.7286],[125.3759,-9.1171,269.2575],[125.3834,-9.1167,398.3087],[125.3879,-9.121,364.0738],[125.3943,-9.1232,248.2114],[125.3993,-9.0917,364.1039],[125.395,-9.0888,367.5421],[125.3962,-9.0761,454.937],[125.3939,-9.0715,472.9581],[125.3917,-9.071,443.2068],[125.395,-9.0685,480.7805],[125.3931,-9.0631,515.5585],[125.3939,-9.0595,551.4019],[125.3901,-9.0567,601.8858],[125.3876,-9.0478,911.8016],[125.3788,-9.0505,704.4074],[125.3677,-9.0654,398.2926]]]]}}