{"type":"Feature","properties":{"GID_2":"TLS.13.2_1","GID_0":"TLS","country":"Timor-Leste","GID_1":"TLS.13_1","province":"Viqueque","NL_NAME_1":"NA","county":"Ossu","VARNAME_2":"NA","NL_NAME_2":"NA","TYPE_2":"Subdistrito","ENGTYPE_2":"Subdistrict","CC_2":"NA","HASC_2":"NA","name":"Ossu.county"},
"geometry":{"type": "MultiPolygon","coordinates": [[[[126.477,-8.7655,1166.8623],[126.4823,-8.76,902.9393],[126.4836,-8.7542,636.4069],[126.4881,-8.7485,514.8708],[126.4882,-8.7383,409.4227],[126.4834,-8.7338,341.9771],[126.4867,-8.7249,205.891],[126.5015,-8.7239,185.407],[126.5041,-8.7245,191.1413],[126.5052,-8.7275,143.6304],[126.5123,-8.7305,109.9451],[126.5158,-8.7256,133.8581],[126.5141,-8.7254,117.091],[126.5145,-8.7232,123.4075],[126.5111,-8.723,123.3068],[126.511,-8.721,142.0672],[126.5067,-8.7206,160.1173],[126.5076,-8.717,186.8719],[126.5055,-8.7179,140.6695],[126.5051,-8.7157,161.168],[126.5023,-8.7144,157.7567],[126.5037,-8.7126,174.2192],[126.5017,-8.7119,156.4625],[126.5014,-8.7069,168.4184],[126.5033,-8.7043,191.4658],[126.5059,-8.7046,175.3865],[126.5059,-8.7028,181.3518],[126.5018,-8.6997,183.9503],[126.4999,-8.6946,197.0414],[126.503,-8.6887,330.348],[126.51,-8.6831,417.984],[126.5115,-8.6778,436.3214],[126.5056,-8.6695,402.4359],[126.5013,-8.6597,325.7686],[126.4888,-8.6472,395.8174],[126.4873,-8.6433,365.1074],[126.48779999999999,-8.6368,304.5025],[126.4866,-8.637,304.5025],[126.4849,-8.632,253.855],[126.4862,-8.6288,232.8209],[126.4847,-8.6223,225.3207],[126.48779999999999,-8.6171,171.0915],[126.4823,-8.6113,164.9492],[126.4778,-8.6119,154.9344],[126.4776,-8.6084,142.8665],[126.4757,-8.6072,157.665],[126.4781,-8.6038,134.2015],[126.4765,-8.5966,145.8201],[126.4736,-8.5936,125.1207],[126.4642,-8.5921,109.5971],[126.4609,-8.595,100.2451],[126.4651,-8.5975,132.0398],[126.4623,-8.6041,107.6027],[126.466,-8.6052,109.217],[126.4662,-8.6069,109.3986],[126.4654,-8.6097,109.7864],[126.4611,-8.6088,112.1275],[126.459,-8.6106,115.2937],[126.4595,-8.6127,113.4311],[126.462,-8.6127,112.7946],[126.4622,-8.6172,117.0842],[126.4603,-8.6208,120.4676],[126.4633,-8.6228,125.103],[126.4674,-8.623,126.9203],[126.4695,-8.6265,129.9178],[126.468,-8.629,144.2375],[126.4633,-8.6314,146.0183],[126.4589,-8.6406,153.7485],[126.4542,-8.6425,179.4537],[126.4546,-8.6469,168.5432],[126.4484,-8.6527,169.1906],[126.449,-8.6552,176.5855],[126.4469,-8.6562,178.4182],[126.4448,-8.661,239.8528],[126.4477,-8.6619,212.6087],[126.4479,-8.6656,205.6223],[126.4502,-8.6661,219.651],[126.4504,-8.6683,207.0796],[126.4549,-8.6705,214.2521],[126.451,-8.6727,221.0868],[126.453,-8.6786,236.3557],[126.4549,-8.6785,218.8756],[126.4563,-8.6825,235.0326],[126.4556,-8.6847,233.3515],[126.4503,-8.685,242.3712],[126.4502,-8.6885,236.3789],[126.4529,-8.6913,238.4439],[126.4487,-8.6939,255.262],[126.4476,-8.6996,257.7613],[126.4436,-8.7017,311.7871],[126.4267,-8.6985,607.1707],[126.3999,-8.6895,1352.6523],[126.3951,-8.6808,1184.8519],[126.3954,-8.6769,1124.4993],[126.3908,-8.6737,957.7247],[126.3902,-8.6681,798.6549],[126.3906,-8.665,741.5978],[126.3977,-8.6591,630.3809],[126.3951,-8.6569,637.3363],[126.3938,-8.6583,631.1724],[126.3882,-8.6559,646.9175],[126.3866,-8.658,659.7571],[126.3844,-8.6581,656.2678],[126.3852,-8.6604,653.5729],[126.3811,-8.6598,660.0477],[126.3806,-8.6625,669.0271],[126.3785,-8.6628,663.7789],[126.3762,-8.6658,706.4995],[126.3674,-8.6658,716.1509],[126.3643,-8.6691,710.2413],[126.3605,-8.6699,716.9662],[126.3593,-8.6724,733.398],[126.357,-8.6717,726.5751],[126.3581,-8.6773,734.8432],[126.3546,-8.6769,747.1072],[126.3518,-8.6806,756.6323],[126.3435,-8.6838,801.2241],[126.3382,-8.6809,937.5828],[126.335,-8.6738,893.1376],[126.3328,-8.6726,887.4645],[126.324,-8.6757,871.4071],[126.3227,-8.6785,855.7509],[126.3173,-8.6811,789.967],[126.3091,-8.6817,664.4174],[126.2911,-8.6693,460.6482],[126.2877,-8.668,411.2735],[126.2828,-8.6688,379.0377],[126.2802,-8.67,367.4235],[126.2821,-8.6709,375.2272],[126.2786,-8.6735,368.7733],[126.2794,-8.6755,386.5828],[126.2778,-8.6777,347.4863],[126.2738,-8.6787,340.1076],[126.2727,-8.6864,345.722],[126.2704,-8.6852,326.8784],[126.2685,-8.6862,322.2026],[126.264,-8.6931,335.2234],[126.262,-8.6939,310.1079],[126.2604,-8.6916,310.105],[126.2551,-8.6935,305.8048],[126.2562,-8.7001,340.6159],[126.2532,-8.7144,434.1197],[126.2554,-8.7225,500.7329],[126.2557,-8.7418,433.9786],[126.2544,-8.7467,381.1805],[126.26,-8.7547,381.6367],[126.2645,-8.7568,379.7419],[126.2663,-8.7624,318.8719],[126.2691,-8.7634,225.3839],[126.271,-8.7667,214.3571],[126.2681,-8.7787,155.8965],[126.2705,-8.7914,124.2114],[126.2808,-8.808,108.3422],[126.2842,-8.8108,107.8892],[126.2827,-8.8214,111.0691],[126.2884,-8.8304,89.037],[126.2917,-8.8309,103.6321],[126.2997,-8.8275,140.4969],[126.3191,-8.832,313.3816],[126.3263,-8.832,241.9935],[126.3348,-8.8296,256.5558],[126.3673,-8.8341,80.2464],[126.3729,-8.8335,69.5301],[126.3777,-8.8373,97.0299],[126.387,-8.8284,134.7362],[126.3935,-8.8256,151.2687],[126.4037,-8.8266,222.2277],[126.4112,-8.8247,163.0527],[126.4132,-8.8258,181.0528],[126.4196,-8.8223,206.2899],[126.42529999999999,-8.8268,289.1049],[126.4293,-8.8273,342.7365],[126.4374,-8.824,343.0735],[126.4408,-8.8198,353.0731],[126.4575,-8.8138,143.7836],[126.4593,-8.8148,147.738],[126.4762,-8.8134,109.1149],[126.4788,-8.8147,121.3795],[126.479,-8.8081,105.3939],[126.4756,-8.8068,114.2253],[126.475,-8.8036,122.6574],[126.4727,-8.8021,134.2484],[126.4736,-8.7988,156.9649],[126.4697,-8.7951,194.8539],[126.4646,-8.7772,645.8611],[126.477,-8.7655,1166.8623]]]]}}