{"type": "Feature","bbox": [125.094,-8.9243,125.2054,-8.8311],"geometry": {"type": "MultiPolygon","coordinates": [[[[125.094,-8.8997,253.611],[125.0972,-8.903,282.4851],[125.1002,-8.9102,207.7599],[125.102,-8.9105,188.6752],[125.108,-8.9174,147.1472],[125.1143,-8.9193,142.8337],[125.1143,-8.9209,123.9312],[125.1183,-8.9207,115.3953],[125.1232,-8.9229,106.3555],[125.1239,-8.9214,106.3555],[125.1249,-8.9231,120.48],[125.1304,-8.922,101.3946],[125.1318,-8.9243,91.7075],[125.1357,-8.922,90.6786],[125.1401,-8.9219,83.1947],[125.1399,-8.9185,83.1964],[125.1468,-8.905,77.0045],[125.1524,-8.9017,75.6117],[125.155,-8.902,74.6876],[125.1562,-8.8964,76.5878],[125.1655,-8.8953,74.3289],[125.1674,-8.8939,70.648],[125.1675,-8.8901,69.0004],[125.1721,-8.8899,68.5026],[125.1762,-8.8859,73.976],[125.1808,-8.8856,66.6256],[125.1857,-8.8819,65.8555],[125.1858,-8.8762,65.1281],[125.1945,-8.8621,59.6977],[125.195,-8.8515,56.575],[125.2051,-8.844,54.9029],[125.2054,-8.8423,54.7564],[125.2018,-8.8413,55.5897],[125.1951,-8.8439,70.1684],[125.1886,-8.8439,81.6303],[125.1861,-8.8458,78.0257],[125.1838,-8.844,94.6119],[125.183,-8.8408,88.7827],[125.1793,-8.8382,107.576],[125.17529999999999,-8.8377,128.0477],[125.1741,-8.8348,108.1599],[125.1628,-8.8311,192.9553],[125.1596,-8.8397,357.589],[125.1564,-8.8412,269.0663],[125.1483,-8.8498,330.0609],[125.1469,-8.856,374.6136],[125.138,-8.8672,487.4178],[125.1366,-8.8739,414.8012],[125.1308,-8.8753,344.0764],[125.1304,-8.878,295.6349],[125.1203,-8.8807,183.8799],[125.1183,-8.8834,166.4951],[125.1188,-8.8865,160.7434],[125.1167,-8.8878,160.7191],[125.1114,-8.8881,181.2591],[125.1091,-8.8858,170.7654],[125.1016,-8.8877,194.1865],[125.0972,-8.8927,236.9533],[125.094,-8.8997,253.611]]]]}
,"properties": {"GID_3": "TLS.5.1.3_1","GID_0": "TLS","country": "Timor-Leste","GID_1": "TLS.5_1","province": "Bobonaro","NL_NAME_1": "NA","GID_2": "TLS.5.1_1","county": "Atabai","NL_NAME_2": "NA","city": "Hataz","VARNAME_3": "NA","NL_NAME_3": "NA","TYPE_3": "Suco","ENGTYPE_3": "Community","CC_3": "NA","HASC_3": "NA","name": "Hataz.city","area_km2": 52.87297,"hist_schema_id": "Elevation0-9000","hist_area_km2": {"50": 1.15223,"75": 8.08606,"100": 3.66584,"125": 3.77062,"150": 3.98012,"175": 4.83898,"200": 5.15322,"225": 5.34172,"250": 4.60856,"275": 3.89632,"300": 2.26241,"325": 1.40354,"350": 1.44543,"375": 1.19406,"400": 0.98456,"425": 0.67033,"450": 0.33517,"475": 0.0419,"500": 0.0419}}}