{"type": "Feature","bbox": [125.2967,-9.1304,125.3738,-9.0887],"geometry": {"type": "MultiPolygon","coordinates": [[[[125.3005,-9.1139,456.568],[125.3084,-9.1159,428.9574],[125.3119,-9.1132,413.8289],[125.3198,-9.1118,399.3581],[125.3197,-9.1202,612.3913],[125.3246,-9.1258,367.0204],[125.3312,-9.1268,297.0402],[125.3332,-9.1288,286.2188],[125.3385,-9.1284,283.9519],[125.3413,-9.1255,241.5098],[125.3457,-9.1253,230.7355],[125.3543,-9.1284,214.614],[125.3572,-9.1279,193.4508],[125.3605,-9.1304,177.1335],[125.364,-9.1264,198.9309],[125.3657,-9.1192,198.3763],[125.3715,-9.1126,225.7286],[125.3738,-9.1008,227.8729],[125.3721,-9.0975,235.294],[125.3693,-9.0966,237.0426],[125.369,-9.0943,245.3194],[125.3642,-9.0935,275.2071],[125.3609,-9.0887,276.5958],[125.355,-9.0969,278.4313],[125.3519,-9.0962,281.6242],[125.3483,-9.0928,317.5878],[125.3387,-9.0974,398.9659],[125.3259,-9.0905,727.3558],[125.2967,-9.1062,514.8901],[125.3005,-9.1139,456.568]]]]}
,"properties": {"GID_3": "TLS.5.3.13_1","GID_0": "TLS","country": "Timor-Leste","GID_1": "TLS.5_1","province": "Bobonaro","NL_NAME_1": "NA","GID_2": "TLS.5.3_1","county": "Bobonaro","NL_NAME_2": "NA","city": "Molop","VARNAME_3": "NA","NL_NAME_3": "NA","TYPE_3": "Suco","ENGTYPE_3": "Community","CC_3": "NA","HASC_3": "NA","name": "Molop.city","area_km2": 23.84475,"hist_schema_id": "Elevation0-9000","hist_area_km2": {"175": 0.1884,"200": 1.0467,"225": 1.3398,"250": 1.52825,"275": 1.65386,"300": 1.38171,"325": 1.67479,"350": 1.52825,"375": 1.52824,"400": 1.48637,"425": 1.4445,"450": 1.25609,"475": 1.0886,"500": 1.10954,"525": 0.92113,"550": 1.23515,"575": 0.71179,"600": 0.4187,"625": 0.43964,"650": 0.25122,"675": 0.23029,"700": 0.29309,"725": 0.20935,"750": 0.23029,"775": 0.25123,"800": 0.14655,"825": 0.10468,"850": 0.12561,"875": 0.02094}}}