{"type": "Feature","bbox": [125.1899,-8.9082,125.3883,-8.692],"geometry": {"type": "MultiPolygon","coordinates": [[[[125.2936,-8.8819,177.5521],[125.2966,-8.8907,183.1362],[125.3002,-8.8942,189.0349],[125.3128,-8.8976,223.1937],[125.3192,-8.9055,231.2747],[125.3334,-8.9082,238.7676],[125.3362,-8.905,240.0104],[125.34,-8.9037,244.0629],[125.3479,-8.8943,440.0671],[125.3569,-8.8887,694.6482],[125.3583,-8.8778,610.8947],[125.3631,-8.8768,602.6589],[125.3648,-8.8749,575.623],[125.3625,-8.8701,441.5772],[125.3649,-8.8678,525.8387],[125.3724,-8.8697,550.7924],[125.3737,-8.8675,614.1968],[125.3773,-8.8687,619.0814],[125.3867,-8.8655,687.9739],[125.3851,-8.8604,918.653],[125.3883,-8.8508,1132.5441],[125.3809,-8.8425,807.4023],[125.3834,-8.837,848.4114],[125.3821,-8.8354,859.4296],[125.3846,-8.8308,996.4305],[125.3843,-8.8249,1114.6581],[125.3877,-8.8189,1282.9526],[125.3842,-8.7976,1507.1265],[125.3811,-8.7916,1354.1877],[125.3849,-8.7811,1339.6963],[125.3814,-8.7784,1311.3478],[125.3783,-8.7688,1486.4355],[125.3787,-8.7649,1546.7273],[125.3818,-8.7597,1447.5092],[125.3821,-8.7435,1265.7242],[125.3691,-8.73,826.1101],[125.371,-8.7263,759.1149],[125.3689,-8.7189,633.1459],[125.3634,-8.7113,548.0412],[125.3582,-8.7088,546.2427],[125.3578,-8.7041,433.4295],[125.348,-8.704,429.0428],[125.3451,-8.7018,410.7252],[125.3452,-8.6988,376.2827],[125.3433,-8.697,378.9582],[125.3404,-8.6999,459.4265],[125.3381,-8.7,411.2059],[125.3387,-8.6964,317.0102],[125.337,-8.6951,307.2728],[125.3355,-8.6951,291.9548],[125.3348,-8.6978,291.4871],[125.3313,-8.696,295.2734],[125.3216,-8.6995,255.2921],[125.3189,-8.6972,273.8964],[125.3217,-8.6951,265.1488],[125.3159,-8.692,237.9403],[125.3165,-8.6954,257.8678],[125.311,-8.6961,239.4619],[125.3107,-8.7009,213.5941],[125.3078,-8.7016,215.371],[125.3072,-8.7046,203.3221],[125.3008,-8.7039,214.1322],[125.2971,-8.7071,185.5169],[125.2921,-8.708,169.9891],[125.286,-8.7166,159.2861],[125.2753,-8.7234,136.6224],[125.2696,-8.7248,142.3392],[125.2635,-8.7227,137.9959],[125.2471,-8.7332,98.1319],[125.2366,-8.7326,87.0482],[125.2309,-8.7345,79.458],[125.222,-8.7342,70.0817],[125.2162,-8.7379,62.2195],[125.2097,-8.737,54.9984],[125.2028,-8.7419,48.3735],[125.1977,-8.7435,42.6844],[125.1941,-8.7502,36.3354],[125.1899,-8.7536,31.2335],[125.1964,-8.7635,35.1107],[125.202,-8.7681,40.2104],[125.2106,-8.7655,43.4713],[125.2348,-8.7678,56.0071],[125.2407,-8.7722,62.4154],[125.2457,-8.779,70.1351],[125.2498,-8.7809,72.7822],[125.258,-8.7902,81.2892],[125.2792,-8.8236,117.9999],[125.2814,-8.8322,123.4874],[125.2827,-8.8508,141.6517],[125.2953,-8.8651,163.736],[125.2936,-8.8819,177.5521]]]]}
,"properties": {"GID_2": "TLS.8.3_1","GID_0": "TLS","country": "Timor-Leste","GID_1": "TLS.8_1","province": "Ermera","NL_NAME_1": "NA","county": "Hatólia","VARNAME_2": "NA","NL_NAME_2": "NA","TYPE_2": "Subdistrito","ENGTYPE_2": "Subdistrict","CC_2": "NA","HASC_2": "NA","name": "Hatólia.county","area_km2": 273.9622,"hist_schema_id": "Elevation0-9000","hist_area_km2": {"25": 1.0268,"50": 9.0736,"75": 8.2773,"100": 9.66,"125": 8.5281,"150": 9.4286,"175": 8.8841,"200": 9.345,"225": 7.962,"250": 8.9468,"275": 7.7316,"300": 7.3753,"325": 6.7047,"350": 6.1599,"375": 6.2227,"400": 5.0913,"425": 4.8607,"450": 4.3161,"475": 4.3369,"500": 3.5408,"525": 4.0228,"550": 4.5467,"575": 3.8761,"600": 4.0018,"625": 4.3371,"650": 3.8972,"675": 3.7296,"700": 3.8973,"725": 4.002,"750": 3.9392,"775": 3.9602,"800": 3.6249,"825": 3.8764,"850": 3.4782,"875": 3.7507,"900": 3.8345,"925": 3.625,"950": 4.1698,"975": 3.5201,"1000": 3.583,"1025": 3.3316,"1050": 3.5412,"1075": 3.4783,"1100": 3.5621,"1125": 3.646,"1150": 3.625,"1175": 3.4574,"1200": 3.164,"1225": 3.0384,"1250": 3.0174,"1275": 3.5622,"1300": 3.3317,"1325": 2.703,"1350": 2.745,"1375": 2.1163,"1400": 1.6344,"1425": 1.4458,"1450": 1.4877,"1475": 1.5506,"1500": 1.2153,"1525": 1.1524,"1550": 0.5029,"1575": 0.3352,"1600": 0.2933,"1625": 0.3352,"1650": 0.2305,"1675": 0.2095,"1700": 0.1048}}}