{"type":"Feature","properties":{"GID_3":"TLS.8.1.6_1","GID_0":"TLS","country":"Timor-Leste","GID_1":"TLS.8_1","province":"Ermera","NL_NAME_1":"NA","GID_2":"TLS.8.1_1","county":"Atsabe","NL_NAME_2":"NA","city":"Laklo","VARNAME_3":"Laclo","NL_NAME_3":"NA","TYPE_3":"Suco","ENGTYPE_3":"Community","CC_3":"NA","HASC_3":"NA","name":"Laklo.city"},
"geometry":{"type": "MultiPolygon","coordinates": [[[[125.3916,-8.9144,953.1271],[125.3923,-8.9251,1108.7844],[125.4014,-8.9383,1213.7042],[125.4029,-8.9397,1248.485],[125.4054,-8.9384,1273.1272],[125.4083,-8.9407,1332.1381],[125.4112,-8.9396,1356.9294],[125.4021,-8.9298,1341.9319],[125.4019,-8.924,1259.6256],[125.4057,-8.9199,1297.5601],[125.3978,-8.9197,1160.962],[125.3916,-8.9144,953.1271]]]]}}