{"type": "Feature","bbox": [125.3709,-8.7236,125.5352,-8.638],"geometry": {"type": "MultiPolygon","coordinates": [[[[125.4047,-8.7158,650.5842],[125.4084,-8.7154,651.6429],[125.4165,-8.7192,666.4645],[125.4316,-8.7132,683.7014],[125.433,-8.7112,698.6468],[125.4367,-8.711,689.128],[125.4399,-8.7116,696.3923],[125.4417,-8.7149,701.3152],[125.4446,-8.7142,703.9053],[125.4465,-8.7168,705.8596],[125.4467,-8.7233,732.1945],[125.4496,-8.7211,717.0134],[125.4543,-8.7232,725.7216],[125.4644,-8.7204,763.8552],[125.4712,-8.7223,782.7382],[125.4757,-8.7212,821.8537],[125.4781,-8.7235,842.6809],[125.4816,-8.7225,894.2035],[125.4835,-8.7236,879.0272],[125.4879,-8.7029,1070.1333],[125.4916,-8.7075,1084.8469],[125.4968,-8.71,1164.7644],[125.4991,-8.7085,1137.0703],[125.5028,-8.7099,1139.0498],[125.5056,-8.7076,1156.9766],[125.5099,-8.7076,1225.2554],[125.5158,-8.7008,1223.7493],[125.526,-8.693,1052.2034],[125.5284,-8.6865,855.5024],[125.5318,-8.6844,803.5916],[125.5352,-8.6774,751.2009],[125.5347,-8.6703,674.2529],[125.5301,-8.6684,659.7537],[125.5298,-8.6653,668.9606],[125.5269,-8.6626,642.2039],[125.5264,-8.6586,638.046],[125.5241,-8.6562,586.8041],[125.5248,-8.6538,510.7587],[125.5225,-8.6517,463.2878],[125.5215,-8.6465,361.1588],[125.5111,-8.6437,275.8884],[125.5054,-8.6386,220.8066],[125.5033,-8.638,205.8013],[125.4996,-8.6408,218.4359],[125.4927,-8.6389,284.7169],[125.4854,-8.6435,284.3147],[125.4798,-8.644,324.7875],[125.4734,-8.6422,360.9979],[125.4671,-8.6468,361.2701],[125.4642,-8.6454,388.188],[125.4642,-8.648,429.754],[125.462,-8.6491,409.164],[125.4596,-8.6453,417.2878],[125.4551,-8.6489,448.7727],[125.4525,-8.6463,449.0745],[125.4472,-8.6452,522.3753],[125.4436,-8.6503,448.9323],[125.4356,-8.6536,473.6632],[125.4326,-8.6601,471.9608],[125.4165,-8.6702,532.3746],[125.4098,-8.6725,551.7351],[125.4039,-8.6681,578.0817],[125.4,-8.6698,599.2335],[125.3979,-8.6753,661.3892],[125.3988,-8.6847,767.1082],[125.3961,-8.6894,839.5746],[125.3797,-8.6914,937.3779],[125.3719,-8.6979,652.0093],[125.3709,-8.7006,543.6531],[125.3762,-8.709,611.5005],[125.3842,-8.7097,703.8768],[125.3914,-8.7141,666.6143],[125.4047,-8.7158,650.5842]]]]}
,"properties": {"GID_2": "TLS.8.5_1","GID_0": "TLS","country": "Timor-Leste","GID_1": "TLS.8_1","province": "Ermera","NL_NAME_1": "NA","county": "Railaco","VARNAME_2": "NA","NL_NAME_2": "NA","TYPE_2": "Subdistrito","ENGTYPE_2": "Subdistrict","CC_2": "NA","HASC_2": "NA","name": "Railaco.county","area_km2": 105.86488,"hist_schema_id": "Elevation0-9000","hist_area_km2": {"200": 0.10481,"225": 0.10481,"250": 0.10481,"275": 0.20961,"300": 0.29346,"325": 0.25154,"350": 0.35634,"375": 0.35634,"400": 0.44019,"425": 0.67076,"450": 0.90133,"475": 1.94937,"500": 2.41048,"525": 2.74583,"550": 3.14404,"575": 3.3536,"600": 3.6051,"625": 4.06621,"650": 3.94037,"675": 4.82066,"700": 5.17691,"725": 5.74273,"750": 6.11997,"775": 5.67985,"800": 5.00914,"825": 5.11393,"850": 4.63189,"875": 4.73666,"900": 3.81448,"925": 4.33843,"950": 3.79354,"975": 3.47913,"1000": 3.20667,"1025": 2.95518,"1050": 2.34737,"1075": 1.4671,"1100": 1.15272,"1125": 1.06888,"1150": 0.6078,"1175": 0.6078,"1200": 0.54492,"1225": 0.33534,"1250": 0.10479}}}