{"type":"Feature","properties":{"GID_3":"TLS.8.4.5_1","GID_0":"TLS","country":"Timor-Leste","GID_1":"TLS.8_1","province":"Ermera","NL_NAME_1":"NA","GID_2":"TLS.8.4_1","county":"Letefoho","NL_NAME_2":"NA","city":"Katrai-Kraik","VARNAME_3":"KatraiCraic","NL_NAME_3":"NA","TYPE_3":"Suco","ENGTYPE_3":"Community","CC_3":"NA","HASC_3":"NA","name":"Katrai-Kraik.city"},
"geometry":{"type": "MultiPolygon","coordinates": [[[[125.5223,-8.8722,2335.1299],[125.519,-8.8655,2271.5188],[125.5143,-8.869,2058.9404],[125.5073,-8.8701,1970.4005],[125.5023,-8.868,1836.7568],[125.4946,-8.8696,1764.2708],[125.4879,-8.8683,1662.444],[125.4797,-8.8643,1557.1737],[125.4765,-8.8598,1501.7079],[125.4697,-8.8591,1482.3917],[125.4671,-8.8603,1443.8894],[125.466,-8.8584,1444.2692],[125.4589,-8.8613,1464.7607],[125.4501,-8.8546,1088.9646],[125.4385,-8.8638,1028.5789],[125.4324,-8.8647,984.5281],[125.4332,-8.8721,1397.6039],[125.4297,-8.8777,1513.2253],[125.428,-8.878,1442.2939],[125.43,-8.8814,1610.6157],[125.4281,-8.8846,1555.1141],[125.4313,-8.8855,1688.6691],[125.4329,-8.8881,1727.3484],[125.4318,-8.8952,1775.8986],[125.4331,-8.9003,1862.824],[125.4392,-8.9052,1376.6893],[125.4414,-8.9053,1403.2534],[125.4439,-8.9004,1456.5232],[125.4519,-8.8996,1701.946],[125.4582,-8.897,1670.5607],[125.4641,-8.8918,1715.3459],[125.4682,-8.8917,1763.5199],[125.4721,-8.8844,1793.9443],[125.4768,-8.8825,1830.7703],[125.4895,-8.8854,1938.4194],[125.4928,-8.8874,2058.4661],[125.4932,-8.8899,2166.957],[125.4976,-8.8941,2512.2595],[125.502,-8.8893,2456.9846],[125.5012,-8.8881,2456.9846],[125.5041,-8.8832,2295.8198],[125.5176,-8.8779,2259.4138],[125.5223,-8.8722,2335.1299]]]]}}