{"type": "Feature","bbox": [126.4793,-8.554,126.5609,-8.4578],"geometry": {"type": "MultiPolygon","coordinates": [[[[126.4794,-8.5132,35.459],[126.4849,-8.5149,29.0213],[126.4884,-8.5139,29.5577],[126.4881,-8.5166,26.9267],[126.495,-8.5235,44.4457],[126.4977,-8.5228,40.2464],[126.5008,-8.519,42.4249],[126.504,-8.5253,55.2039],[126.5061,-8.5377,89.521],[126.5092,-8.54,90.6494],[126.5116,-8.5446,100.0421],[126.5202,-8.5497,147.7779],[126.5239,-8.554,193.0239],[126.535,-8.5486,187.7527],[126.5387,-8.5433,139.2509],[126.5391,-8.5357,146.3629],[126.5421,-8.5311,114.9893],[126.54,-8.5279,102.0613],[126.5399,-8.5229,97.357],[126.5482,-8.5044,61.7383],[126.56,-8.4961,31.0329],[126.5609,-8.4809,0.2935],[126.554,-8.4815,4.0303],[126.5317,-8.4656,0.0],[126.5278,-8.4683,0.25],[126.5292,-8.4653,0.0],[126.5228,-8.4643,2.2047],[126.5176,-8.4578,0.0],[126.5082,-8.471,9.4368],[126.5055,-8.4724,17.4325],[126.4981,-8.4713,20.1972],[126.4793,-8.483,253.7811],[126.4859,-8.4875,165.1018],[126.4947,-8.497,62.2805],[126.5006,-8.4999,59.246],[126.5048,-8.4995,23.6003],[126.5041,-8.5016,43.8233],[126.4955,-8.5037,35.2153],[126.4894,-8.5088,47.691],[126.4813,-8.51,43.8052],[126.4794,-8.5132,35.459]]]]}
,"properties": {"GID_3": "TLS.4.2.10_1","GID_0": "TLS","country": "Timor-Leste","GID_1": "TLS.4_1","province": "Baucau","NL_NAME_1": "NA","GID_2": "TLS.4.2_1","county": "Baucau","NL_NAME_2": "NA","city": "Seixal","VARNAME_3": "Ceisal","NL_NAME_3": "NA","TYPE_3": "Suco","ENGTYPE_3": "Community","CC_3": "NA","HASC_3": "NA","name": "Seixal.city","area_km2": 51.12281,"hist_schema_id": "Elevation0-9000","hist_area_km2": {"0": 9.20603,"25": 15.51746,"50": 7.40209,"75": 5.51481,"100": 3.98403,"125": 2.36941,"150": 2.01293,"175": 1.53066,"200": 1.13225,"225": 1.00643,"250": 0.56611,"275": 0.62901,"300": 0.20967,"325": 0.04193}}}