{"type": "Feature","bbox": [125.194,-8.9587,125.3288,-8.8454],"geometry": {"type": "MultiPolygon","coordinates": [[[[125.3211,-8.9483,305.4724],[125.3198,-8.9457,294.4826],[125.3168,-8.9473,292.6385],[125.3154,-8.9456,390.7194],[125.3223,-8.9317,257.4769],[125.3288,-8.928,256.7824],[125.3252,-8.9215,242.4994],[125.3236,-8.925,273.5891],[125.3168,-8.9266,294.245],[125.3112,-8.9324,346.7844],[125.3067,-8.9315,370.4319],[125.2913,-8.9374,545.5409],[125.283,-8.9384,786.9754],[125.2766,-8.9457,1089.1334],[125.2719,-8.9453,1330.9541],[125.2697,-8.9427,1311.5515],[125.2701,-8.9495,1456.4167],[125.2741,-8.9547,1719.7233],[125.2746,-8.9587,1763.1221],[125.2822,-8.9568,1070.9969],[125.2931,-8.9506,651.9161],[125.2972,-8.9513,494.332],[125.302,-8.9566,431.0327],[125.3083,-8.9571,385.3843],[125.3133,-8.9528,384.4769],[125.3169,-8.9533,328.5641],[125.3186,-8.9493,313.697],[125.3211,-8.9483,305.4724]]],
[[[125.194,-8.8631,59.106],[125.1943,-8.8648,60.7977],[125.1972,-8.8643,59.9231],[125.197,-8.8672,63.9944],[125.1995,-8.8691,66.9551],[125.2042,-8.869,73.3095],[125.2105,-8.8747,78.8496],[125.2136,-8.8733,90.9144],[125.2209,-8.8747,103.5941],[125.2233,-8.8766,112.5461],[125.2264,-8.8752,111.2462],[125.2321,-8.877,127.0078],[125.2371,-8.8739,142.5793],[125.2393,-8.8752,150.7314],[125.2448,-8.8729,179.1948],[125.2498,-8.8731,193.3844],[125.2531,-8.8661,260.8799],[125.2573,-8.8616,400.0467],[125.2529,-8.8591,376.7714],[125.2435,-8.8624,207.6398],[125.2347,-8.8602,156.4896],[125.2285,-8.8615,136.6912],[125.2249,-8.8601,114.12],[125.2213,-8.8616,105.4108],[125.2149,-8.8599,83.0666],[125.2111,-8.8565,73.782],[125.2084,-8.8561,63.4749],[125.2088,-8.8547,62.1534],[125.2066,-8.8547,63.4749],[125.2055,-8.8476,57.1471],[125.2032,-8.8454,53.5993],[125.195,-8.8515,56.575],[125.194,-8.8631,59.106]]]]}
,"properties": {"GID_3": "TLS.5.4.1_1","GID_0": "TLS","country": "Timor-Leste","GID_1": "TLS.5_1","province": "Bobonaro","NL_NAME_1": "NA","GID_2": "TLS.5.4_1","county": "Cailaco","NL_NAME_2": "NA","city": "Atudara","VARNAME_3": "AtuDara","NL_NAME_3": "NA","TYPE_3": "Suco","ENGTYPE_3": "Community","CC_3": "NA","HASC_3": "NA","name": "Atudara.city","area_km2": 22.64334,"hist_schema_id": "Elevation0-9000","hist_area_km2": {"50": 2.01115,"75": 2.9538,"100": 1.29882,"125": 1.15218,"150": 0.69131,"175": 0.60751,"200": 0.50277,"225": 0.50277,"250": 0.77505,"275": 0.73314,"300": 0.62841,"325": 0.48175,"350": 0.52364,"375": 0.79591,"400": 0.46078,"425": 0.46078,"450": 0.43983,"475": 0.46078,"500": 0.62833,"525": 0.46078,"550": 0.31417,"575": 0.33511,"600": 0.39794,"625": 0.1885,"650": 0.25133,"675": 0.29322,"700": 0.41889,"725": 0.31417,"750": 0.1885,"775": 0.31417,"800": 0.23039,"825": 0.10472,"850": 0.16755,"875": 0.1885,"900": 0.16755,"925": 0.1885,"950": 0.06283,"975": 0.08378,"1000": 0.1885,"1025": 0.16755,"1050": 0.20944,"1075": 0.12566,"1100": 0.10472,"1125": 0.10472,"1150": 0.04189,"1175": 0.02094,"1200": 0.04189,"1250": 0.06283,"1275": 0.04189,"1300": 0.02094,"1325": 0.02094,"1350": 0.06283,"1375": 0.02094,"1400": 0.04189,"1425": 0.06283,"1450": 0.02094,"1475": 0.06283,"1500": 0.02094,"1525": 0.08378,"1550": 0.08378,"1575": 0.02094,"1600": 0.02094,"1625": 0.06283,"1675": 0.02094,"1700": 0.04189,"1725": 0.02094,"1775": 0.02094,"1800": 0.02094,"1850": 0.02094}}}