{"type":"Feature","properties":{"GID_3":"TLS.5.2.2_1","GID_0":"TLS","country":"Timor-Leste","GID_1":"TLS.5_1","province":"Bobonaro","NL_NAME_1":"NA","GID_2":"TLS.5.2_1","county":"Balibó","NL_NAME_2":"NA","city":"Batugade","VARNAME_3":"NA","NL_NAME_3":"NA","TYPE_3":"Suco","ENGTYPE_3":"Community","CC_3":"NA","HASC_3":"NA","name":"Batugade.city"},
"geometry":{"type": "MultiPolygon","coordinates": [[[[124.9373,-8.9901,51.5862],[124.9459,-8.9953,96.4028],[124.9796,-8.9946,343.7169],[124.9842,-8.9931,262.1024],[124.9865,-8.989,227.1325],[124.9901,-8.9867,172.235],[125.0004,-8.987,136.9323],[125.0113,-8.9816,221.026],[125.0216,-8.9791,423.3578],[125.0239,-8.977,427.8804],[125.0231,-8.9729,193.8459],[125.014,-8.9712,140.6809],[125.0091,-8.9632,80.9388],[125.0153,-8.956,138.6626],[125.027,-8.9514,310.8112],[125.0338,-8.9465,472.2792],[125.038,-8.9389,454.7191],[125.0363,-8.9348,493.1849],[125.0234,-8.9285,663.1066],[125.0163,-8.93,542.8864],[125.0035,-8.9363,360.7315],[124.9986,-8.9328,69.3148],[124.9928,-8.9343,62.8643],[124.9799,-8.9298,0.0],[124.9785,-8.9371,3.029],[124.9751,-8.9426,1.2593],[124.97,-8.9463,7.5188],[124.9653,-8.9457,0.0],[124.9552,-8.9505,0.0],[124.9543,-8.9543,0.0],[124.95,-8.9584,4.773],[124.9517,-8.9609,6.3678],[124.9503,-8.9688,17.1702],[124.946,-8.9732,23.687],[124.9455,-8.9763,28.4692],[124.9413,-8.9786,31.255],[124.941,-8.9841,37.4645],[124.9373,-8.9901,51.5862]]]]}}