{"type":"Feature","properties":{"GID_3":"TLS.7.3.3_1","GID_0":"TLS","country":"Timor-Leste","GID_1":"TLS.7_1","province":"Dili","NL_NAME_1":"NA","GID_2":"TLS.7.3_1","county":"DiliTimur","NL_NAME_2":"NA","city":"AsucaiLorosae","VARNAME_3":"SantaCruz","NL_NAME_3":"NA","TYPE_3":"Suco","ENGTYPE_3":"Community","CC_3":"NA","HASC_3":"NA","name":"Asucai_Lorosae.city"},
"geometry":{"type": "MultiPolygon","coordinates": [[[[125.5864,-8.5714,78.9672],[125.5919,-8.5712,55.8016],[125.5934,-8.5691,45.9052],[125.5921,-8.5651,36.6354],[125.5829,-8.5653,22.9407],[125.5844,-8.5708,40.4537],[125.5864,-8.5714,78.9672]]]]}}