{"type":"Feature","properties":{"GID_3":"TLS.5.6.4_1","GID_0":"TLS","country":"Timor-Leste","GID_1":"TLS.5_1","province":"Bobonaro","NL_NAME_1":"NA","GID_2":"TLS.5.6_1","county":"Maliana","NL_NAME_2":"NA","city":"Raifun","VARNAME_3":"NA","NL_NAME_3":"NA","TYPE_3":"Suco","ENGTYPE_3":"Community","CC_3":"NA","HASC_3":"NA","name":"Raifun.city"},
"geometry":{"type": "MultiPolygon","coordinates": [[[[125.2556,-9.0021,527.0168],[125.2597,-9.0036,583.6783],[125.2793,-9.0044,727.8157],[125.2832,-9.0019,643.1993],[125.2902,-9.0044,586.4879],[125.2934,-9.0,574.1234],[125.2976,-8.9977,540.0613],[125.2915,-8.9945,687.0408],[125.2749,-8.9939,873.082],[125.2726,-8.9926,904.5552],[125.2728,-8.9898,954.9069],[125.2703,-8.9897,945.0031],[125.2674,-8.9867,932.6534],[125.2646,-8.9862,910.9485],[125.2616,-8.9886,706.3982],[125.2542,-8.9865,581.9498],[125.2479,-8.9916,378.2758],[125.2522,-8.9952,408.8422],[125.2527,-8.9987,472.8085],[125.2556,-9.0021,527.0168]]],
[[[125.2238,-8.9837,239.4146],[125.2251,-8.983,212.225],[125.2252,-8.979,202.9408],[125.222,-8.9741,191.0591],[125.2033,-8.9672,199.1027],[125.1975,-8.9673,182.325],[125.1989,-8.9695,186.0403],[125.1957,-8.9737,190.2088],[125.1979,-8.9767,199.7907],[125.2008,-8.9767,201.4261],[125.2167,-8.9867,235.3323],[125.2212,-8.9867,238.4833],[125.2217,-8.9836,240.979],[125.2238,-8.9837,239.4146]]]]}}