{"type": "Feature","bbox": [125.5023,-9.2261,125.7009,-9.0103],"geometry": {"type": "MultiPolygon","coordinates": [[[[125.7009,-9.1947,0.0],[125.6911,-9.1798,13.5474],[125.6758,-9.1718,23.3821],[125.6672,-9.136,51.264],[125.6706,-9.1297,59.5351],[125.6699,-9.1243,59.4031],[125.6723,-9.121,80.9678],[125.6759,-9.1192,70.5153],[125.6853,-9.119,69.9021],[125.6894,-9.1156,75.58],[125.6917,-9.1075,92.4178],[125.6916,-9.0958,94.3549],[125.6902,-9.093,95.028],[125.686,-9.0908,100.2929],[125.6842,-9.0842,107.9254],[125.6784,-9.0801,116.3498],[125.6739,-9.0794,131.5265],[125.6713,-9.0738,130.5876],[125.6669,-9.0719,133.9994],[125.6614,-9.0744,141.6472],[125.6568,-9.0739,147.9848],[125.6524,-9.0753,155.1198],[125.6435,-9.0673,172.2967],[125.6344,-9.0685,182.9044],[125.6332,-9.0643,203.4405],[125.6281,-9.0649,205.7926],[125.6293,-9.0608,206.2834],[125.6278,-9.0562,233.7876],[125.6119,-9.0503,250.6239],[125.6088,-9.0511,274.6616],[125.6051,-9.0472,295.7554],[125.5967,-9.0427,353.5392],[125.5954,-9.0389,377.381],[125.596,-9.0303,419.9633],[125.5923,-9.0241,441.169],[125.5933,-9.016,507.7411],[125.5871,-9.0107,564.7725],[125.5787,-9.0103,533.7051],[125.5736,-9.0145,441.3894],[125.5703,-9.0125,419.5659],[125.5652,-9.0156,396.4406],[125.5628,-9.0146,372.3921],[125.5615,-9.0162,331.6014],[125.5577,-9.0167,325.4489],[125.5531,-9.0283,293.6973],[125.5563,-9.0319,317.7632],[125.5536,-9.0368,272.1498],[125.5533,-9.0423,290.3806],[125.558,-9.0525,253.5491],[125.5609,-9.0554,236.2149],[125.5605,-9.0636,222.0295],[125.5692,-9.0804,200.0778],[125.5633,-9.0855,177.9392],[125.5639,-9.0984,169.2535],[125.5568,-9.1031,149.2623],[125.5521,-9.1236,121.2317],[125.5501,-9.1257,120.6078],[125.5491,-9.1353,103.0562],[125.5441,-9.1456,90.5555],[125.54,-9.163,64.5238],[125.5321,-9.186,34.3643],[125.5272,-9.1946,20.8359],[125.5218,-9.1951,20.8607],[125.5164,-9.2003,14.5819],[125.5141,-9.207,11.7477],[125.506,-9.2162,7.1892],[125.5049,-9.2197,12.347],[125.5079,-9.2213,9.8587],[125.5023,-9.2261,3.6111],[125.5111,-9.2242,1.9942],[125.5161,-9.2214,5.2408],[125.546,-9.2194,0.0],[125.5594,-9.21,0.0],[125.5611,-9.2067,0.6556],[125.5625,-9.2072,0.0],[125.5861,-9.1908,6.9657],[125.6011,-9.1862,8.2058],[125.6144,-9.1853,4.5951],[125.6264,-9.1875,6.1561],[125.6603,-9.2011,2.91],[125.6836,-9.2014,0.0],[125.6922,-9.1967,0.0],[125.7009,-9.1947,0.0]]]]}
,"properties": {"GID_2": "TLS.2.3_1","GID_0": "TLS","country": "Timor-Leste","GID_1": "TLS.2_1","province": "Ainaro","NL_NAME_1": "NA","county": "HatoHudo","VARNAME_2": "HatoUdo","NL_NAME_2": "NA","TYPE_2": "Subdistrito","ENGTYPE_2": "Subdistrict","CC_2": "NA","HASC_2": "NA","name": "Hato_Hudo.county","area_km2": 248.0227,"hist_schema_id": "Elevation0-9000","hist_area_km2": {"0": 22.0178,"25": 27.356,"50": 8.4354,"75": 6.6564,"100": 9.1894,"125": 7.3684,"150": 9.2944,"175": 9.1063,"200": 10.8021,"225": 12.1839,"250": 12.8749,"275": 15.6385,"300": 15.8689,"325": 16.1619,"350": 15.7431,"375": 13.9426,"400": 9.2531,"425": 7.4948,"450": 4.8572,"475": 3.5173,"500": 1.6751,"525": 1.2145,"550": 2.1358,"575": 1.5077,"600": 1.4867,"625": 0.8585,"650": 0.7748,"675": 0.3769,"700": 0.1885,"725": 0.0419}}}