{"type": "Feature","bbox": [125.2522,-9.303,125.2703,-9.2717],"geometry": {"type": "MultiPolygon","coordinates": [[[[125.2561,-9.303,48.1618],[125.2697,-9.2895,139.1194],[125.2703,-9.2717,82.2265],[125.26,-9.2755,222.741],[125.255,-9.2828,147.9417],[125.2539,-9.2859,128.1571],[125.2569,-9.2905,80.7009],[125.2539,-9.2941,73.8966],[125.2522,-9.3003,58.0765],[125.2561,-9.303,48.1618]]]]}
,"properties": {"GID_3": "TLS.6.5.3_1","GID_0": "TLS","country": "Timor-Leste","GID_1": "TLS.6_1","province": "Covalima","NL_NAME_1": "NA","GID_2": "TLS.6.5_1","county": "SuaiKota","NL_NAME_2": "NA","city": "Dais","VARNAME_3": "Matai","NL_NAME_3": "NA","TYPE_3": "Suco","ENGTYPE_3": "Community","CC_3": "NA","HASC_3": "NA","name": "Dais.city","area_km2": 4.059317,"hist_schema_id": "Elevation0-9000","hist_area_km2": {"50": 0.564938,"75": 0.544021,"100": 0.355709,"125": 0.376638,"150": 0.481264,"175": 0.292944,"200": 0.397568,"225": 0.397569,"250": 0.292945,"275": 0.251096,"300": 0.104624}}}