{"type":"Feature","properties":{"GID_3":"TLS.5.3.17_1","GID_0":"TLS","country":"Timor-Leste","GID_1":"TLS.5_1","province":"Bobonaro","NL_NAME_1":"NA","GID_2":"TLS.5.3_1","county":"Bobonaro","NL_NAME_2":"NA","city":"Tapo","VARNAME_3":"NA","NL_NAME_3":"NA","TYPE_3":"Suco","ENGTYPE_3":"Community","CC_3":"NA","HASC_3":"NA","name":"Tapo.city"},
"geometry":{"type": "MultiPolygon","coordinates": [[[[125.2928,-9.0568,852.7701],[125.2648,-9.0501,1418.5587],[125.2643,-9.0434,1630.6602],[125.2515,-9.0627,1683.0081],[125.2535,-9.0716,1599.2507],[125.2631,-9.0776,1278.7117],[125.2806,-9.0823,995.519],[125.2847,-9.0814,1006.1849],[125.2914,-9.0773,930.3863],[125.2947,-9.0716,881.8919],[125.3051,-9.0655,614.7414],[125.3021,-9.0622,664.1488],[125.2933,-9.0623,756.9872],[125.2928,-9.0568,852.7701]]]]}}