{"type":"Feature","properties":{"GID_3":"TLS.7.3.13_1","GID_0":"TLS","country":"Timor-Leste","GID_1":"TLS.7_1","province":"Dili","NL_NAME_1":"NA","GID_2":"TLS.7.3_1","county":"DiliTimur","NL_NAME_2":"NA","city":"Hera","VARNAME_3":"NA","NL_NAME_3":"NA","TYPE_3":"Suco","ENGTYPE_3":"Community","CC_3":"NA","HASC_3":"NA","name":"Hera.city"},
"geometry":{"type": "MultiPolygon","coordinates": [[[[125.6559,-8.5787,149.1274],[125.6566,-8.5761,197.5962],[125.6597,-8.5737,111.8878],[125.659,-8.5711,137.9773],[125.6639,-8.5699,78.8365],[125.6639,-8.5684,74.0068],[125.6827,-8.5718,463.5764],[125.6857,-8.5656,368.7036],[125.6909,-8.5599,283.9206],[125.6924,-8.5488,117.1597],[125.6995,-8.5503,241.7725],[125.6995,-8.546,171.9697],[125.6961,-8.5423,145.1598],[125.6933,-8.5345,1.7367],[125.6883,-8.5367,1.9362],[125.6833,-8.5362,0.6157],[125.6811,-8.5336,0.7979],[125.6789,-8.5332,3.1953],[125.6772,-8.5314,2.2172],[125.6693,-8.5272,0.0],[125.6706,-8.5279,0.0],[125.6652,-8.5309,150.0005],[125.6498,-8.5347,212.6895],[125.6401,-8.5392,281.1071],[125.6289,-8.5398,445.592],[125.6238,-8.5484,436.2059],[125.6232,-8.5527,415.1771],[125.6274,-8.5554,423.3865],[125.6311,-8.5606,356.0315],[125.632,-8.5675,269.4178],[125.6362,-8.5686,178.9583],[125.6345,-8.5721,237.1676],[125.6363,-8.5786,343.6924],[125.634,-8.5835,517.8709],[125.6335,-8.5901,717.7587],[125.6421,-8.5933,368.6322],[125.6469,-8.5919,324.9089],[125.6534,-8.5843,186.0141],[125.6559,-8.5787,149.1274]]]]}}