{"type": "Feature","bbox": [125.5376,-8.8804,125.5912,-8.8566],"geometry": {"type": "MultiPolygon","coordinates": [[[[125.5619,-8.8804,2209.4351],[125.5673,-8.8753,1942.2014],[125.5874,-8.8755,1746.4968],[125.5912,-8.8735,1686.9868],[125.5894,-8.8625,1441.4424],[125.5872,-8.8596,1432.173],[125.5878,-8.8566,1381.4717],[125.5852,-8.8573,1408.7144],[125.5841,-8.8596,1445.4707],[125.5729,-8.8642,1548.936],[125.5683,-8.8633,1654.978],[125.5657,-8.8656,1683.5446],[125.5589,-8.8621,1799.5786],[125.5481,-8.8643,2041.1805],[125.5438,-8.8704,2264.5696],[125.5376,-8.8734,2440.8767],[125.5507,-8.8782,2143.8179],[125.5571,-8.8777,2173.3872],[125.5619,-8.8804,2209.4351]]]]}
,"properties": {"GID_3": "TLS.2.4.4_1","GID_0": "TLS","country": "Timor-Leste","GID_1": "TLS.2_1","province": "Ainaro","NL_NAME_1": "NA","GID_2": "TLS.2.4_1","county": "Maubisse","NL_NAME_2": "NA","city": "Horaequic","VARNAME_3": "HoraiKiik","NL_NAME_3": "NA","TYPE_3": "Suco","ENGTYPE_3": "Community","CC_3": "NA","HASC_3": "NA","name": "Horaequic.city","area_km2": 7.960488,"hist_schema_id": "Elevation0-9000","hist_area_km2": {"1400": 0.020949,"1425": 0.083797,"1450": 0.083797,"1475": 0.104746,"1500": 0.272337,"1525": 0.188541,"1550": 0.272336,"1575": 0.230437,"1600": 0.167591,"1625": 0.188539,"1650": 0.251385,"1675": 0.209487,"1700": 0.272333,"1725": 0.335179,"1750": 0.209487,"1775": 0.314229,"1800": 0.209487,"1825": 0.230436,"1850": 0.251383,"1875": 0.29328,"1900": 0.31423,"1925": 0.335177,"1950": 0.335177,"1975": 0.272333,"2000": 0.230434,"2025": 0.251383,"2050": 0.29328,"2075": 0.125691,"2100": 0.209485,"2125": 0.293277,"2150": 0.335175,"2175": 0.188535,"2200": 0.083794,"2225": 0.209484,"2250": 0.062846,"2275": 0.041897,"2300": 0.020949,"2325": 0.041897,"2350": 0.062845,"2375": 0.041897,"2450": 0.020948}}}