{"type": "Feature","bbox": [125.5074,-8.939,125.7252,-8.7558],"geometry": {"type": "MultiPolygon","coordinates": [[[[125.6091,-8.9377,1390.9744],[125.6114,-8.939,1374.3396],[125.6176,-8.9346,1230.0801],[125.615,-8.9332,1247.298],[125.6124,-8.9285,1599.1663],[125.6215,-8.9238,1576.0149],[125.6209,-8.9184,1493.5898],[125.6223,-8.9149,1581.5416],[125.6321,-8.9151,1522.1268],[125.6404,-8.9183,1468.9052],[125.6417,-8.9212,1448.3502],[125.647,-8.9214,1447.262],[125.6506,-8.9194,1277.0576],[125.6541,-8.9128,939.7246],[125.6551,-8.9051,775.1051],[125.6603,-8.8971,673.241],[125.6665,-8.8963,620.3207],[125.6691,-8.8992,612.6817],[125.6719,-8.8992,604.0217],[125.6766,-8.9027,597.3581],[125.682,-8.899,646.6992],[125.6824,-8.896,713.8182],[125.6872,-8.8892,760.7377],[125.6876,-8.8831,882.9996],[125.6856,-8.8795,941.8786],[125.6865,-8.8747,1035.0286],[125.6902,-8.8691,1262.7588],[125.6844,-8.8689,1298.8099],[125.6839,-8.8671,1231.1509],[125.6856,-8.8637,1067.0573],[125.6839,-8.862,1071.324],[125.6858,-8.8574,1222.8822],[125.6857,-8.8515,1188.7556],[125.69,-8.849,1064.9103],[125.6893,-8.8472,1061.6384],[125.6826,-8.8464,1195.7791],[125.6828,-8.8441,1194.4196],[125.6889,-8.8409,1090.6233],[125.6833,-8.8376,1244.1523],[125.6836,-8.8299,1199.9281],[125.6854,-8.8281,1143.2493],[125.6802,-8.8186,1473.587],[125.683,-8.8171,1461.1058],[125.6851,-8.8134,1393.5195],[125.6824,-8.8099,1150.9495],[125.6888,-8.8027,1054.1886],[125.6892,-8.7986,953.7111],[125.6984,-8.7961,863.9855],[125.7084,-8.7862,826.9365],[125.7183,-8.7855,665.3799],[125.7198,-8.783,667.8872],[125.7231,-8.7826,588.7612],[125.7252,-8.7774,636.5897],[125.7221,-8.773,644.9147],[125.7189,-8.7727,661.6854],[125.7182,-8.7702,665.1866],[125.7152,-8.77,669.4197],[125.7141,-8.7676,666.1547],[125.7101,-8.7664,685.3164],[125.707,-8.7625,700.6676],[125.7031,-8.7616,687.9167],[125.7009,-8.7647,749.5927],[125.6964,-8.7640999999999991,802.3509],[125.6937,-8.7606,782.6029],[125.6915,-8.7614,792.8154],[125.6894,-8.7593,749.1409],[125.6841,-8.7608,735.572],[125.6867,-8.7558,770.6974],[125.6812,-8.7558,779.849],[125.6769,-8.757,758.6077],[125.6757,-8.7591,764.0241],[125.6744,-8.7581,757.6024],[125.6717,-8.7637,773.476],[125.6715,-8.7591,773.6097],[125.67,-8.7608,773.0947],[125.6652,-8.761,843.9506],[125.6636,-8.7632,795.3659],[125.6604,-8.764,806.04],[125.6585,-8.7626,801.5414],[125.6506,-8.7657,822.2781],[125.6451,-8.7741,839.2287],[125.6467,-8.7767,864.3234],[125.6462,-8.7828,894.639],[125.6443,-8.7847,893.8901],[125.645,-8.7881,886.4653],[125.6429,-8.788,877.61],[125.6426,-8.79,890.6557],[125.6385,-8.7879,904.085],[125.6354,-8.7883,897.1486],[125.6353,-8.7859,911.6301],[125.6321,-8.7879,905.2104],[125.6295,-8.786,937.7462],[125.6274,-8.7883,915.619],[125.624,-8.7854,916.7383],[125.6133,-8.7886,937.4572],[125.6083,-8.788,946.46489999999994],[125.6068,-8.7895,952.7867],[125.6053,-8.7953,1009.0361],[125.6089,-8.8028,1095.8079],[125.6076,-8.8037,1130.7697],[125.6072,-8.8104,1263.9612],[125.6103,-8.817,1424.2295],[125.6093,-8.8197,1545.8588],[125.6057,-8.8219,1590.5842],[125.5975,-8.8244,1638.1697],[125.5937,-8.8232,1733.6865],[125.5835,-8.8251,1797.5],[125.5771,-8.8314,1763.3232],[125.5693,-8.8331,1923.9983],[125.565,-8.836,1835.3826],[125.5659,-8.8385,1816.4077],[125.5631,-8.8403,1889.8746],[125.5572,-8.8408,1943.9623],[125.5522,-8.837,1986.7412],[125.548,-8.8361,1992.2495],[125.5372,-8.8423,1802.5513],[125.5348,-8.8455,1803.4636],[125.5255,-8.8464,1867.8076],[125.5122,-8.8449,2291.9531],[125.5074,-8.8487,2284.9404],[125.5099,-8.855,2326.3723],[125.5206,-8.8667,2276.8867],[125.5223,-8.8722,2335.1299],[125.5323,-8.8722,2316.6533],[125.5507,-8.8782,2143.8179],[125.5571,-8.8777,2173.3872],[125.5633,-8.8821,2250.7139],[125.5662,-8.8797,2170.9465],[125.5711,-8.8827,1901.1975],[125.5755,-8.8815,1819.0437],[125.5864,-8.8904,1703.1558],[125.5903,-8.8989,1485.5621],[125.596,-8.8993,1383.2267],[125.5986,-8.8979,1373.1101],[125.6032,-8.9005,1300.6619],[125.6052,-8.9111,1194.4846],[125.5975,-8.9206,1142.3098],[125.6028,-8.9225,1249.2488],[125.6055,-8.9258,1383.7521],[125.6052,-8.9348,1427.2996],[125.6091,-8.9377,1390.9744]]]]}
,"properties": {"GID_2": "TLS.2.4_1","GID_0": "TLS","country": "Timor-Leste","GID_1": "TLS.2_1","province": "Ainaro","NL_NAME_1": "NA","county": "Maubisse","VARNAME_2": "NA","NL_NAME_2": "NA","TYPE_2": "Subdistrito","ENGTYPE_2": "Subdistrict","CC_2": "NA","HASC_2": "NA","name": "Maubisse.county","area_km2": 199.3402,"hist_schema_id": "Elevation0-9000","hist_area_km2": {"575": 0.0209,"600": 0.2095,"625": 0.2514,"650": 0.3771,"675": 0.7542,"700": 0.8381,"725": 0.859,"750": 1.3828,"775": 1.7809,"800": 1.7599,"825": 1.697,"850": 2.1789,"875": 2.0323,"900": 2.6818,"925": 2.7446,"950": 3.2265,"975": 3.3104,"1000": 3.3941,"1025": 3.5617,"1050": 3.4569,"1075": 2.9332,"1100": 3.6665,"1125": 3.7083,"1150": 3.415,"1175": 3.9387,"1200": 4.2529,"1225": 4.5881,"1250": 4.5671,"1275": 5.6147,"1300": 6.9136,"1325": 6.7877,"1350": 6.2221,"1375": 7.1648,"1400": 6.7668,"1425": 6.9135,"1450": 7.2278,"1475": 6.8088,"1500": 5.9079,"1525": 5.2374,"1550": 4.9442,"1575": 4.3366,"1600": 3.6453,"1625": 2.9329,"1650": 2.6815,"1675": 2.4929,"1700": 2.3463,"1725": 2.0111,"1750": 1.9692,"1775": 1.9902,"1800": 2.0111,"1825": 2.1578,"1850": 2.053,"1875": 2.5348,"1900": 2.0111,"1925": 2.2835,"1950": 2.1368,"1975": 1.7597,"2000": 1.5083,"2025": 1.5503,"2050": 1.3408,"2075": 1.1313,"2100": 1.0056,"2125": 1.0894,"2150": 1.0893,"2175": 0.8589,"2200": 0.8799,"2225": 0.9846,"2250": 0.5866,"2275": 0.7542,"2300": 0.3142,"2325": 0.3352,"2350": 0.2723,"2375": 0.0838,"2400": 0.0209,"2425": 0.0628,"2450": 0.0209}}}